<?xml version="1.0" encoding="UTF-8"?>
<kml xmlns="http://www.opengis.net/kml/2.2" xmlns:gx="http://www.google.com/kml/ext/2.2" xmlns:kml="http://www.opengis.net/kml/2.2" xmlns:atom="http://www.w3.org/2005/Atom">
<Document>
	<name>Dhulipada.kml</name>
	<StyleMap id="msn_ylw-pushpin">
		<Pair>
			<key>normal</key>
			<styleUrl>#sn_ylw-pushpin</styleUrl>
		</Pair>
		<Pair>
			<key>highlight</key>
			<styleUrl>#sh_ylw-pushpin</styleUrl>
		</Pair>
	</StyleMap>
	<Style id="sh_ylw-pushpin">
		<IconStyle>
			<scale>1.2</scale>
		</IconStyle>
		<BalloonStyle>
		</BalloonStyle>
		<PolyStyle>
			<color>4000ffaa</color>
		</PolyStyle>
	</Style>
	<Style id="sn_ylw-pushpin">
		<BalloonStyle>
		</BalloonStyle>
		<PolyStyle>
			<color>4000ffaa</color>
		</PolyStyle>
	</Style>
	<Placemark id="0B6EB493B81F81F47B69">
		<name>Dhulipada</name>
		<styleUrl>#msn_ylw-pushpin</styleUrl>
		<Polygon>
			<outerBoundaryIs>
				<LinearRing>
					<coordinates>
						73.8513683,21.1232183,134.2 73.8513703,21.1231983,133.8 73.8513683,21.1231917,133.8 73.8513937,21.1231976,136 73.85142329999999,21.1231932,135.9 73.8514505,21.1231974,135.7 73.8514814,21.1231885,135.3 73.8515141,21.123197,135.1 73.8515414,21.12321,134.9 73.8515646,21.1232183,135.5 73.8515842,21.1232207,135.7 73.85160810000001,21.1232281,136.2 73.8516292,21.1232303,136.6 73.85165809999999,21.1232179,137.9 73.8516855,21.1232154,138.4 73.8517059,21.1232135,138.3 73.8517367,21.1232012,138.5 73.8517669,21.1231823,138.6 73.8517908,21.1231728,138.6 73.85182500000001,21.1231673,138.5 73.851855,21.1231638,138.6 73.8518885,21.1231721,139.1 73.8519206,21.1231785,139.2 73.8519483,21.1231864,139.1 73.8519709,21.123197,139.2 73.85199059999999,21.1231984,139 73.85201290000001,21.1231932,138.9 73.8520401,21.1231834,138.9 73.85205809999999,21.1231746,139.1 73.85208299999999,21.1231608,139.3 73.8521057,21.1231544,139.3 73.85213090000001,21.1231536,139.1 73.8521587,21.1231543,139.1 73.8521824,21.1231535,138.6 73.852204,21.1231695,138.3 73.85223190000001,21.1231811,137.5 73.8522601,21.1231806,137.2 73.85228360000001,21.1231767,136.8 73.85230489999999,21.1231649,136.2 73.8523321,21.1231578,136.3 73.85236329999999,21.1231535,136.4 73.85238339999999,21.1231499,136.5 73.8524086,21.1231524,136.6 73.85243579999999,21.1231505,136.4 73.85246480000001,21.1231525,136.2 73.8525114,21.1231618,135.9 73.8525317,21.123171,135.4 73.85254999999999,21.1231822,135.2 73.8525803,21.1231907,135.8 73.8526068,21.1231857,136.1 73.8526361,21.123177,136.6 73.85265800000001,21.1231651,137.2 73.85268910000001,21.1231583,137.4 73.8527117,21.1231603,137.7 73.8527528,21.1231593,138 73.8527744,21.1231499,138 73.85278889999999,21.123137,138.2 73.8528043,21.123126,138.2 73.85283149999999,21.1231161,138.1 73.8528524,21.1231021,138.1 73.8528749,21.1230872,138.3 73.85289710000001,21.1230663,138.4 73.8529207,21.1230318,138.6 73.8529365,21.1230114,138.9 73.8529592,21.1229808,139.4 73.8529757,21.1229573,139.5 73.8529901,21.122941,139.3 73.8530027,21.1229246,139.1 73.8530186,21.1229017,139.1 73.85304960000001,21.1228702,139.5 73.8530686,21.122851,139.6 73.85308360000001,21.1228315,140.3 73.853095,21.1228081,140.5 73.8530971,21.1227691,141.5 73.8531007,21.122746,141.9 73.8531026,21.1227243,141.7 73.853112,21.1227004,141.8 73.8531126,21.122681,142.1 73.85311729999999,21.1226606,142.3 73.8531224,21.1226306,142.3 73.853123,21.1226122,142.5 73.8531151,21.1225942,142.4 73.8531107,21.1225701,142.4 73.8531059,21.1225337,142.1 73.85310080000001,21.1225126,142 73.8530995,21.122493,142.2 73.853094,21.122475,142.1 73.8531016,21.1224548,142.1 73.8531119,21.1224384,142.2 73.8531382,21.1224234,142.2 73.8531756,21.1224295,141.7 73.8532084,21.1224167,141.8 73.8532381,21.1224097,141.6 73.8532834,21.1224131,141.1 73.8533126,21.1224188,140.9 73.8533485,21.1224121,140.3 73.8533683,21.1223943,139 73.85339519999999,21.1223769,138.3 73.8534054,21.1223612,138.4 73.85341219999999,21.1223407,138.4 73.85342319999999,21.1223245,138.6 73.85344600000001,21.1223121,138.6 73.8534798,21.1223035,138.7 73.8534987,21.1222969,138.6 73.8535255,21.1222853,138.4 73.85354,21.1222723,138 73.85357519999999,21.1222522,137.4 73.85359699999999,21.12225,137.2 73.8536229,21.1222468,136.8 73.8536438,21.1222527,136.5 73.8536649,21.1222561,136.2 73.85368870000001,21.1222558,136.1 73.8537123,21.1222614,135.7 73.853731,21.1222657,135.7 73.85376669999999,21.1222699,135.3 73.8537862,21.122273,135.1 73.85382079999999,21.1222805,134.4 73.8538413,21.1222814,133.7 73.85386219999999,21.1222763,133.3 73.853886,21.1222574,132 73.8539129,21.122252,131.1 73.8539406,21.1222507,130.5 73.8539684,21.1222414,129.7 73.8540007,21.1222432,129.6 73.8540208,21.1222431,129.6 73.85403959999999,21.1222629,129.8 73.8540586,21.1222971,129.7 73.85406380000001,21.1223162,129.8 73.8540692,21.1223477,129.6 73.8540698,21.1223678,129.6 73.85407309999999,21.1223862,129.8 73.8540725,21.1224056,129.9 73.8540723,21.1224249,130 73.8540716,21.1224458,130.2 73.8540694,21.1224667,130.1 73.8540656,21.1225006,129.9 73.85407499999999,21.1225321,129.9 73.8541012,21.1225327,129.6 73.85409199999999,21.1225514,130.7 73.8540867,21.1225433,130.7 73.8540699,21.1225782,133.5 73.8540766,21.1226067,133.7 73.8541429,21.1226438,133.4 73.85418319999999,21.1226673,133.2 73.8542097,21.1226853,133.1 73.8542302,21.1226975,133.1 73.8542522,21.12271,133.2 73.85428589999999,21.1227239,133.7 73.8543026,21.1227336,133.9 73.8543433,21.1227526,134.2 73.85436989999999,21.1227682,134.1 73.85438859999999,21.1227776,134.1 73.85442639999999,21.1227897,134.6 73.85444649999999,21.1227916,134.4 73.8544711,21.1227912,134.4 73.85449010000001,21.1227942,134.4 73.8545208,21.1228017,134.4 73.85455829999999,21.1228074,134.5 73.85458680000001,21.1228137,134.5 73.8546133,21.1228226,134.9 73.85463009999999,21.1228333,135 73.8546468,21.1228493,135.4 73.8546609,21.1228659,135.5 73.8546786,21.1228816,135.5 73.8546954,21.1229048,135.8 73.85471,21.1229187,136 73.8547149,21.1229362,136 73.85472849999999,21.122952,136 73.8547389,21.1229825,136.1 73.85474499999999,21.1230005,136.1 73.8547547,21.1230198,135.9 73.8547658,21.1230359,135.8 73.8547804,21.1230532,135.6 73.8548062,21.1230751,135.2 73.8548274,21.1230966,134.9 73.85484150000001,21.1231126,134.7 73.8548648,21.1231444,134.5 73.85487310000001,21.1231622,134.4 73.85487910000001,21.1231803,134.3 73.8548869,21.1232112,133.8 73.8548857,21.1232318,133.3 73.8548945,21.1232505,133.2 73.8548866,21.1232687,133.2 73.854851,21.1232893,132.8 73.8548304,21.1232984,132.8 73.8548273,21.1233181,132.6 73.8548304,21.1233435,132.4 73.8548437,21.1233716,132.7 73.8548717,21.1233678,132.5 73.85488429999999,21.1233476,132.3 73.8548854,21.1233217,132.3 73.8549008,21.1233013,132 73.8549187,21.1232896,131.9 73.8549369,21.1232767,131.8 73.8549573,21.1232454,131.8 73.8549807,21.1232395,131.6 73.8550054,21.1232612,131.3 73.8550283,21.1232644,131.3 73.8550619,21.1232678,131.3 73.8551008,21.1232646,131.3 73.8561667,21.12301,134.6 73.85618669999999,21.1229705,134.4 73.85620520000001,21.1229439,135.6 73.856224,21.1229111,136.9 73.8562776,21.1228787,136.9 73.8563049,21.1228668,138.1 73.85632649999999,21.122875,139.3 73.8563765,21.1228737,140.5 73.8563968,21.122876,140.5 73.8564129,21.1228656,140.5 73.85641630000001,21.1228869,139.4 73.8564396,21.1228796,139 73.856466,21.122864,139 73.8564915,21.1228495,138.9 73.85652,21.12283,138.3 73.8565376,21.1228113,138.2 73.8565478,21.1227928,138 73.8565735,21.1227813,137.9 73.8565954,21.1227773,137.6 73.85663460000001,21.1227691,137.2 73.8566752,21.1227548,136.9 73.8566931,21.1227379,136.1 73.856713,21.1227258,135.8 73.8567347,21.1227153,135.9 73.8567632,21.1227035,135.9 73.8567985,21.1227242,135.6 73.8568192,21.1227376,135.4 73.85683969999999,21.1227415,135.1 73.8568597,21.1227513,134.7 73.8568844,21.1227601,134.1 73.8569116,21.1227599,133.5 73.85693209999999,21.1227623,132.8 73.8569713,21.1227565,131.6 73.85700629999999,21.1227578,130.5 73.85703839999999,21.1227601,129.6 73.85705780000001,21.1227581,129.2 73.85708320000001,21.1227616,129.6 73.857106,21.1227728,130 73.857139,21.1227839,130.1 73.85716050000001,21.1227906,130.1 73.85718610000001,21.1228167,130.3 73.8572063,21.1228247,130.3 73.8572286,21.1228342,130.2 73.857252,21.1228427,130.2 73.85727369999999,21.1228508,130.4 73.8573111,21.1228624,131 73.8573325,21.1228653,130.9 73.8573708,21.1228656,130.8 73.8574114,21.1228609,131 73.85743890000001,21.1228634,131 73.85746279999999,21.122866,131.2 73.8574929,21.1228834,131.5 73.8575089,21.1228956,131.3 73.8575318,21.1228944,131.1 73.8575694,21.1228939,131 73.85758749999999,21.1228833,130.8 73.8576204,21.122883,130.6 73.85765379999999,21.1228849,130.4 73.8576746,21.1228796,130.3 73.8576939,21.1228791,130.2 73.8577178,21.1228853,130.4 73.8577377,21.1228907,130.4 73.8577635,21.1229031,130.5 73.8577914,21.1229125,130.4 73.8578172,21.1229204,130.2 73.8578504,21.1229291,130 73.8578912,21.1229366,129.7 73.8579191,21.1229375,129.7 73.8579379,21.1229431,130 73.8579689,21.1229397,130.5 73.8579888,21.1229451,130.4 73.8580116,21.1229462,130.3 73.858034,21.1229502,130.2 73.8580604,21.1229518,130.3 73.85808489999999,21.1229557,130.5 73.858109,21.1229592,130.8 73.8581344,21.1229629,130.9 73.8581576,21.1229662,130.9 73.85818020000001,21.1229663,130.9 73.8582019,21.1229637,130.9 73.8582234,21.1229624,131.2 73.8582438,21.1229622,131.4 73.8582797,21.1229564,131.7 73.8583014,21.1229499,131.9 73.8583383,21.1229361,132.2 73.8583611,21.1229299,132.8 73.8583867,21.1229188,133.4 73.85841499999999,21.1228998,133.9 73.8584503,21.122887,134.3 73.8584694,21.1228796,134.6 73.85849899999999,21.1228793,135 73.85852079999999,21.1228705,135.1 73.8585404,21.1228683,135.1 73.8585638,21.1228752,134.9 73.8585875,21.1228758,134.8 73.8586267,21.1228781,134.6 73.85865149999999,21.1228835,134.4 73.8586708,21.1228944,134.5 73.858694,21.1229035,134.3 73.8587268,21.1229138,134 73.858749,21.1229202,133.8 73.8587799,21.1229273,134.1 73.85879989999999,21.1229202,134.1 73.8588203,21.1229186,134.3 73.8588472,21.1229224,134.5 73.85887820000001,21.1229235,134.4 73.858907,21.1229338,134.5 73.85893,21.1229329,134.5 73.8589537,21.122935,134.6 73.85899379999999,21.1229473,135.1 73.85901869999999,21.122964,136.4 73.85902900000001,21.1229836,136.6 73.8590554,21.1230037,138 73.85908139999999,21.1230264,138.2 73.8590923,21.1230424,138.1 73.859101,21.1230608,138 73.8591114,21.1230876,137.9 73.85912190000001,21.1231048,137.8 73.85913789999999,21.1231152,137.8 73.8591436,21.1231329,137.8 73.8591552,21.1231621,137.7 73.85917310000001,21.1231828,137.6 73.8591728,21.1232065,138 73.85918239999999,21.1232236,137.8 73.8591821,21.1232437,137.8 73.8591842,21.1232655,137.7 73.85919680000001,21.1232852,137.9 73.8592086,21.1233006,138 73.85920779999999,21.123326,138.2 73.8592014,21.1233462,138.5 73.8592101,21.1233692,138.5 73.85921500000001,21.1233902,138.9 73.85921039999999,21.1234081,139 73.8592039,21.1234399,139.1 73.8592024,21.1234588,139.1 73.8591952,21.1234763,139 73.85919509999999,21.1234952,139.1 73.85919389999999,21.1235152,139.1 73.8591952,21.1235404,139.2 73.85919819999999,21.1235627,139 73.8592051,21.123588,139 73.85921519999999,21.1236117,139.1 73.85922979999999,21.1236406,139.4 73.8592335,21.1236666,139.5 73.8592288,21.1236854,139.5 73.8592168,21.1237111,139.3 73.8592096,21.1237363,139.3 73.85920590000001,21.1237554,139.2 73.8591997,21.1237805,138.7 73.8591825,21.1238063,138.3 73.8591699,21.1238246,138 73.859167,21.1238473,137.6 73.8591828,21.1238579,137 73.86519,21.120475,154.1 73.8651572,21.1204183,162.7 73.86512399999999,21.1203896,162.4 73.8651122,21.1203695,162.3 73.8651002,21.1203507,162.2 73.8651002,21.1203326,162.2 73.86510869999999,21.1203054,162 73.8651144,21.1202803,161.7 73.86511830000001,21.1202602,161.5 73.8651241,21.1202372,161.1 73.8651217,21.1202167,160.9 73.8651179,21.1201909,160.7 73.8651199,21.120161,160.6 73.8651357,21.1201332,160.9 73.8651414,21.1201085,160.9 73.8651401,21.120081,160.9 73.86513979999999,21.1200562,161 73.86515009999999,21.1200329,161 73.8651595,21.1200056,161 73.86515660000001,21.1199735,161.1 73.8651485,21.1199557,161.2 73.86513739999999,21.1199246,161.3 73.8651325,21.1199046,161.7 73.865139,21.1198697,162.1 73.8651455,21.1198516,162.5 73.8651514,21.1198328,162.7 73.86515230000001,21.119803,163.1 73.8651571,21.1197712,163.5 73.8651584,21.1197475,163.6 73.86515470000001,21.119706,163.7 73.86515009999999,21.1196823,163.9 73.8651503,21.119663,164 73.86514940000001,21.1196364,164.1 73.8651385,21.1196008,164.2 73.8651258,21.1195825,164.5 73.8651224,21.1195623,164.5 73.86512639999999,21.1195372,164.5 73.8651315,21.1195021,164.4 73.86513359999999,21.1194817,164.6 73.86513669999999,21.1194614,164.8 73.8651401,21.1194341,165 73.8651618,21.1194046,165.3 73.8651716,21.1193836,165.5 73.8651852,21.11937,165.6 73.8652005,21.1193526,165.7 73.8652108,21.1193342,166 73.86521329999999,21.1193112,165.9 73.865205,21.1192926,165.9 73.8652027,21.1192739,165.9 73.8651952,21.1192547,166.2 73.86517360000001,21.11923,166.3 73.8651572,21.1192163,166.2 73.8651442,21.1191993,166.3 73.8651335,21.119181,166.3 73.86512930000001,21.1191615,166 73.8651333,21.1191436,166.1 73.8651423,21.1191232,166.2 73.8651464,21.1191006,166.3 73.8651504,21.1190821,166.3 73.8651492,21.1190589,166.3 73.865156,21.1190414,166.5 73.8651634,21.1190215,166.5 73.865168,21.1190026,166.7 73.865177,21.1189756,166.9 73.8651898,21.1189528,167.1 73.8652013,21.1189299,167.3 73.86520779999999,21.1189059,167.6 73.86521310000001,21.1188874,168 73.8652197,21.1188683,168.3 73.865227,21.1188416,168.6 73.8652317,21.1188211,168.7 73.8652397,21.118797,168.7 73.8652487,21.1187793,168.9 73.8652554,21.1187594,169.1 73.86526019999999,21.1187357,169.1 73.8652621,21.1187126,169.2 73.8652696,21.1186915,169.4 73.8652728,21.1186727,169.5 73.865274,21.1186534,169.9 73.8652685,21.1186339,170 73.86526310000001,21.1186001,169.7 73.86526360000001,21.118582,169.4 73.8652711,21.118562,169.2 73.86528010000001,21.1185404,169.1 73.8652869,21.1185209,169.1 73.86528560000001,21.1184992,169 73.8652929,21.1184804,168.7 73.865306,21.1184592,168.5 73.8653171,21.1184279,168.2 73.8653236,21.1184056,168.2 73.865315,21.1183813,168.2 73.86530930000001,21.1184115,168.2 73.86530879999999,21.1184377,168.2 73.85670829999999,21.118685,155.1 73.85666089999999,21.1186903,159.5 73.85663940000001,21.1187022,160.7 73.8566083,21.1187333,161.8 73.8565961,21.1187523,162.6 73.8565847,21.1187752,163.4 73.8565497,21.1187883,164.4 73.8565246,21.1187998,164.8 73.85650459999999,21.1188138,164.9 73.8564983,21.1188329,164.8 73.8564708,21.1188378,165 73.8564525,21.1188523,165.3 73.8564338,21.1188676,165.3 73.8564061,21.1188797,165.5 73.8563879,21.1188898,166 73.8563618,21.1189168,166.3 73.8563432,21.118936,166.1 73.85631720000001,21.1189585,166.1 73.8562934,21.1189802,165.6 73.8562593,21.1190043,165.4 73.85624,21.1190139,165.2 73.85622069999999,21.1190295,165.1 73.8561948,21.1190443,165.2 73.8561727,21.1190549,165 73.8561505,21.1190708,164.9 73.8561302,21.11908,165 73.8560909,21.1190968,165.6 73.85606919999999,21.119105,165.8 73.8560507,21.1191157,165.8 73.856025,21.1191275,165.8 73.855992,21.1191425,165.6 73.8559709,21.1191529,165.9 73.855952,21.1191608,166 73.85592920000001,21.1191751,165.9 73.85590089999999,21.119197,166.6 73.8558816,21.1192096,166.8 73.855862,21.1192184,166.8 73.8558421,21.1192295,166.9 73.8558194,21.1192394,166.6 73.8558001,21.1192455,166.7 73.8557591,21.1192536,166.7 73.8518167,21.122915,141.6 73.8518447,21.1229528,144.3 73.8518267,21.1229698,143.9 73.8517923,21.122984,143.5 73.8517712,21.1229865,143.3 73.8517465,21.1229939,142.6 73.8517257,21.1230072,142.1 73.8516994,21.1230221,141.4 73.85167939999999,21.1230231,141.4 73.8516568,21.1230308,140.6 73.851635,21.1230414,139.8 73.85161739999999,21.123051,139 73.85159849999999,21.1230677,138.7 73.8515812,21.1230767,138.5 73.85154729999999,21.1230923,138.1 73.8515237,21.1231015,137.7 73.8515132,21.1231171,137.5 73.8514979,21.1231328,136.9 73.8514686,21.1231433,136.2 73.85144390000001,21.1231528,134.9 73.8514303,21.1231666,134.4 73.8514297,21.1231907,132.9 73.85141369999999,21.1232018,132.9 73.85138259999999,21.1232167,132 73.85136079999999,21.1232119,131.2 73.85137779999999,21.1231972,131.1 73.8513817,21.1231967,134.5 73.8513683,21.1232183,134.2 
					</coordinates>
				</LinearRing>
			</outerBoundaryIs>
		</Polygon>
		<atom:link rel="app" href="https://www.google.com/earth/about/versions/#earth-pro" title="Google Earth Pro 7.3.6.10201"></atom:link>
	</Placemark>
</Document>
</kml>
