<?xml version="1.0" encoding="UTF-8"?>
<kml xmlns="http://www.opengis.net/kml/2.2" xmlns:gx="http://www.google.com/kml/ext/2.2" xmlns:kml="http://www.opengis.net/kml/2.2" xmlns:atom="http://www.w3.org/2005/Atom">
<Document>
	<name>Gaurya_592.kml</name>
	<StyleMap id="msn_ylw-pushpin">
		<Pair>
			<key>normal</key>
			<styleUrl>#sn_ylw-pushpin</styleUrl>
		</Pair>
		<Pair>
			<key>highlight</key>
			<styleUrl>#sh_ylw-pushpin</styleUrl>
		</Pair>
	</StyleMap>
	<Style id="sh_ylw-pushpin">
		<IconStyle>
			<scale>1.3</scale>
			<Icon>
				<href>http://maps.google.com/mapfiles/kml/pushpin/ylw-pushpin.png</href>
			</Icon>
			<hotSpot x="20" y="2" xunits="pixels" yunits="pixels"/>
		</IconStyle>
		<BalloonStyle>
		</BalloonStyle>
		<LineStyle>
			<color>c77fffaa</color>
		</LineStyle>
		<PolyStyle>
			<color>a63affa0</color>
		</PolyStyle>
	</Style>
	<Style id="sn_ylw-pushpin">
		<IconStyle>
			<scale>1.1</scale>
			<Icon>
				<href>http://maps.google.com/mapfiles/kml/pushpin/ylw-pushpin.png</href>
			</Icon>
			<hotSpot x="20" y="2" xunits="pixels" yunits="pixels"/>
		</IconStyle>
		<BalloonStyle>
		</BalloonStyle>
		<LineStyle>
			<color>c77fffaa</color>
		</LineStyle>
		<PolyStyle>
			<color>a63affa0</color>
		</PolyStyle>
	</Style>
	<Placemark>
		<name>Gaurya_592</name>
		<styleUrl>#msn_ylw-pushpin</styleUrl>
		<Polygon>
			<tessellate>1</tessellate>
			<outerBoundaryIs>
				<LinearRing>
					<coordinates>
						74.20180218886347,21.75300788733988,0 74.20239465660345,21.751970324627,0 74.20321705098054,21.75184117153195,0 74.20460444887794,21.75184098822231,0 74.2057168972314,21.75190534210596,0 74.20685598966766,21.7520989080037,0 74.20777708686647,21.75258447957694,0 74.20928345044253,21.75300681745859,0 74.21049006871634,21.75339803035888,0 74.21159307668663,21.75392173484526,0 74.21266171460763,21.75362660016012,0 74.21339462217639,21.75310390706566,0 74.21405351955349,21.75268090082717,0 74.21461370749013,21.7520654351995,0 74.21450351063091,21.75116439756596,0 74.21499330291034,21.75049303425753,0 74.21637704696174,21.75026990508977,0 74.21816780077792,21.7495085615549,0 74.21907960471106,21.74865811883694,0 74.22038468721362,21.74753376670735,0 74.22194554406087,21.74747136229535,0 74.22194554406087,21.74747136229535,0 74.22204477464796,21.74737820744676,0 74.22211074631659,21.74728513339277,0 74.22227664109978,21.74728510389448,0 74.22244290027581,21.74734710739629,0 74.22257605204138,21.74740915023579,0 74.22274225853171,21.74744016620588,0 74.22290875465812,21.74750225263448,0 74.22307534025451,21.74756437251705,0 74.22320850223142,21.7475954358734,0 74.22477199649879,21.74771958027942,0 74.22623740305279,21.74784386823159,0 74.22810373415305,21.7479682022747,0 74.22943598344079,21.74799912828156,0 74.23027672258749,21.74821756594727,0 74.23051755313509,21.74840522577537,0 74.23026330132102,21.74956956431964,0 74.22960700732425,21.75087355679977,0 74.22955261225226,21.75224514320566,0 74.2305620612514,21.75310805345956,0 74.23208570461095,21.75430910649893,0 74.2356317560138,21.75653394097515,0 74.23780658456197,21.75780260985641,0 74.23929999024313,21.75861437990888,0 74.24050642211999,21.75867679534181,0 74.24209213088822,21.7588647327863,0 74.244194458462,21.75917876808477,0 74.24534907801922,21.7606365131169,0 74.24600505682324,21.76763280540295,0 74.2428417661316,21.77183218283036,0 74.24199888665581,21.77228836112111,0 74.24020482610391,21.77193768624157,0 74.23933089595486,21.77016346197954,0 74.23788786205651,21.76855109427294,0 74.23587069349078,21.76743190211719,0 74.23474701805024,21.7677702704904,0 74.23158900202333,21.76851814131193,0 74.22729119602651,21.76777161751174,0 74.22343120798652,21.76665998928941,0 74.221513816071,21.76549476967588,0 74.21990025082812,21.76457673781586,0 74.21745961646437,21.76289277652929,0 74.21599545598595,21.76204658012056,0 74.21385689687969,21.76109298797488,0 74.21183022158921,21.75990548876067,0 74.20983445094014,21.7583710667902,0 74.20840308902534,21.75714371864738,0 74.20637479882075,21.75593093187338,0 74.20154102562199,21.75405833952248,0 74.20180218886347,21.75300788733988,0 
					</coordinates>
				</LinearRing>
			</outerBoundaryIs>
		</Polygon>
		<atom:link rel="app" href="https://www.google.com/earth/about/versions/#earth-pro" title="Google Earth Pro 7.3.6.10201"></atom:link>
	</Placemark>
</Document>
</kml>
