<?xml version="1.0" encoding="UTF-8"?>
<kml xmlns="http://www.opengis.net/kml/2.2" xmlns:gx="http://www.google.com/kml/ext/2.2" xmlns:kml="http://www.opengis.net/kml/2.2" xmlns:atom="http://www.w3.org/2005/Atom">
<Document>
	<Placemark id="0B6EB493B81F81F47B69">
		<Polygon>
			<outerBoundaryIs>
				<LinearRing>
					<coordinates> 74.4845532,21.8024648,426.2 74.4845924,21.8024267,426.59999999999997 74.4846136,21.8024274,426.9 74.4845749,21.8024442,428.9 74.4845487,21.802455,428.9 74.4845278,21.8024657,428.59999999999997 74.4845176,21.8024849,428.2 74.4845085,21.8025045,428.0 74.4844953,21.8025225,427.5 74.4844795,21.8025342,427.09999999999997 74.4844536,21.8025572,426.5 74.4844414,21.8025891,426.59999999999997 74.4844284,21.8026028,426.59999999999997 74.4844087,21.8026098,427.2 74.4843957,21.8026238,428.2 74.4843678,21.8026317,428.5 74.4843502,21.8026446,428.59999999999997 74.484337,21.8026615,428.8 74.4843255,21.8026786,428.2 74.4843148,21.8026963,428.2 74.4842918,21.8027243,429.4 74.4842777,21.8027381,429.7 74.4842651,21.8027532,429.59999999999997 74.4842425,21.8027731,430.3 74.484227,21.8027861,430.3 74.4842045,21.8028078,430.3 74.4841774,21.8028225,429.9 74.4841586,21.8028422,429.8 74.4841317,21.8028597,428.8 74.4841083,21.8028752,428.4 74.4840869,21.8028903,428.0 74.4840677,21.8029099,427.4 74.4840434,21.8029294,427.4 74.4840226,21.8029477,427.5 74.4840066,21.8029645,428.0 74.4839883,21.8029769,428.4 74.4839681,21.8029946,429.3 74.4839486,21.8030156,430.2 74.4839308,21.8030344,431.3 74.4839079,21.8030515,432.09999999999997 74.48389,21.8030625,432.5 74.4838656,21.8030766,433.2 74.4838441,21.8030921,434.09999999999997 74.4838305,21.8031184,434.9 74.4838203,21.8031472,435.8 74.4838137,21.8031734,436.2 74.483796,21.8031972,436.3 74.4837827,21.8032174,432.5 74.483778,21.8032377,429.7 74.4837654,21.8032655,428.09999999999997 74.4837555,21.8032846,427.59999999999997 74.4837429,21.8033068,427.2 74.4837293,21.8033321,426.9 74.4837159,21.8033549,426.8 74.4837081,21.8033866,426.8 74.4837064,21.8034175,426.8 74.4837039,21.8034508,427.09999999999997 74.4836966,21.8034731,427.4 74.4836904,21.8034999,427.4 74.4836899,21.8035323,428.0 74.4836886,21.8035653,428.7 74.4836853,21.8035935,429.0 74.4836943,21.8036255,429.2 74.483707,21.8036489,430.0 74.4836988,21.8036846,432.59999999999997 74.4836934,21.803711,434.0 74.4836956,21.8037334,434.5 74.4837074,21.8037595,435.0 74.4837156,21.8037863,434.9 74.4837279,21.803813,434.4 74.4837375,21.8038341,433.8 74.4837448,21.8038585,433.5 74.483765,21.8038749,432.9 74.4837782,21.8038961,432.59999999999997 74.4837838,21.8039138,433.09999999999997 74.4837859,21.803932,434.09999999999997 74.4837854,21.8039547,435.0 74.4837975,21.8039774,435.0 74.4838136,21.8040044,434.7 74.4838274,21.8040295,434.8 74.4838313,21.8040524,435.4 74.4838351,21.8040761,435.59999999999997 74.4838475,21.8040995,435.8 74.4838517,21.804121,436.2 74.4838484,21.8041437,436.7 74.4838545,21.8041649,436.8 74.4838546,21.8041833,437.4 74.4838595,21.8042024,437.5 74.4838679,21.8042192,438.0 74.4838708,21.8042396,438.3 74.4838653,21.8042602,438.9 74.4838565,21.8042863,438.7 74.4838526,21.8043099,438.8 74.4838532,21.8043312,439.4 74.4838383,21.8043471,440.2 74.4838187,21.8043597,441.7 74.4838115,21.8043826,442.09999999999997 74.4838106,21.8044045,442.9 74.4838065,21.8044248,443.3 74.4838018,21.8044492,443.3 74.4837992,21.8044696,443.9 74.4838,21.8044953,444.3 74.4837986,21.8045162,444.59999999999997 74.4837975,21.8045374,444.8 74.4837914,21.8045577,445.2 74.4837918,21.8045805,445.5 74.4838045,21.8046159,445.2 74.4837938,21.804653,430.8 74.4837878,21.80468,432.3 74.4837861,21.804699,433.2 74.4837791,21.8047168,434.09999999999997 74.4837572,21.8047502,437.59999999999997 74.4837421,21.8047685,439.09999999999997 74.4837305,21.8047912,440.09999999999997 74.4837162,21.8048121,440.9 74.4837023,21.804832,440.9 74.4836875,21.8048466,440.9 74.4836727,21.8048607,441.2 74.4836556,21.8048893,442.4 74.4836408,21.8049214,443.5 74.4836299,21.8049398,443.7 74.4836208,21.8049632,443.4 74.4836125,21.8049874,443.4 74.4836021,21.8050104,443.8 74.4835809,21.8050309,444.3 74.4835657,21.8050529,444.2 74.4835517,21.8050682,443.8 74.4835353,21.8050912,443.5 74.4835211,21.8051088,443.09999999999997 74.4835094,21.8051296,442.9 74.4835027,21.8051469,442.7 74.4834942,21.805167,442.59999999999997 74.4834759,21.8051842,442.2 74.483458,21.8052076,441.3 74.4834502,21.8052293,439.9 74.4834437,21.8052489,440.0 74.483434,21.8052673,440.0 74.4834166,21.8052814,439.8 74.4834066,21.805297,439.59999999999997 74.4833997,21.8053157,439.5 74.4833857,21.8053364,439.4 74.4833738,21.8053557,439.3 74.4833577,21.8053738,438.59999999999997 74.4833377,21.805389,438.2 74.4833229,21.8054124,438.2 74.483306,21.8054304,438.2 74.4832878,21.8054476,438.0 74.4832709,21.8054646,437.5 74.4832595,21.8054833,437.5 74.4832473,21.8055046,437.2 74.4832253,21.8055187,437.7 74.4832073,21.8055368,437.9 74.4831924,21.8055554,438.09999999999997 74.4831766,21.8055701,439.09999999999997 74.483156,21.805583,439.59999999999997 74.4831388,21.8056039,439.9 74.4831222,21.8056222,439.59999999999997 74.4831046,21.8056401,439.8 74.4830869,21.8056627,440.0 74.4830709,21.8056833,440.9 74.483055,21.8056981,441.4 74.4830377,21.8057173,441.3 74.483022,21.8057337,441.2 74.4830092,21.8057513,440.7 74.482992,21.8057701,440.4 74.4829725,21.8057878,440.7 74.4829534,21.8058071,441.2 74.482934,21.8058237,442.09999999999997 74.4829185,21.8058417,443.09999999999997 74.482906,21.805867,443.4 74.4828808,21.8058787,443.09999999999997 74.4828544,21.8059105,443.2 74.4828298,21.805939,442.8 74.4828153,21.8059656,442.4 74.4827975,21.805983,442.3 74.4827736,21.8059948,442.59999999999997 74.4827511,21.8060073,442.7 74.482734,21.8060219,443.4 74.4827191,21.8060399,443.7 74.4827074,21.8060585,443.3 74.482694,21.8060752,442.8 74.482677,21.8060891,441.7 74.4826555,21.8061044,441.09999999999997 74.4826366,21.8061152,440.2 74.4826218,21.8061294,439.3 74.4826099,21.806145,439.3 74.4825917,21.8061614,439.7 74.4825682,21.8061737,439.9 74.4825465,21.8061955,440.09999999999997 74.4825276,21.8062204,440.4 74.4825061,21.8062373,441.0 74.4824814,21.8062522,441.59999999999997 74.4824514,21.8062738,440.7 74.4824346,21.8062835,440.2 74.4824163,21.8062933,439.09999999999997 74.4823972,21.8063004,437.9 74.4823674,21.8063213,435.4 74.4823483,21.8063401,434.59999999999997 74.4823169,21.8063578,433.5 74.4822926,21.80637,432.4 74.482273,21.8063848,431.7 74.482255,21.806404,431.3 74.4822374,21.8064266,431.0 74.4822246,21.8064444,431.7 74.4822119,21.8064644,433.09999999999997 74.482179,21.8064885,435.9 74.4821652,21.8065022,437.09999999999997 74.482145,21.8065202,437.5 74.4821307,21.8065419,437.4 74.482111,21.8065593,437.8 74.4820952,21.8065701,437.5 74.4820805,21.8065933,437.3 74.4820585,21.8066134,437.0 74.4820386,21.80663,436.8 74.4820236,21.8066497,436.59999999999997 74.4820098,21.8066743,436.3 74.4820027,21.8066952,436.0 74.4819923,21.8067147,436.59999999999997 74.4819737,21.8067421,435.9 74.481967,21.8067626,435.9 74.4819663,21.8067814,436.0 74.4819593,21.806805,436.2 74.4819503,21.8068267,435.3 74.4819383,21.8068516,435.59999999999997 74.4819292,21.8068812,435.9 74.4819123,21.8069027,436.09999999999997 74.4818965,21.8069225,436.9 74.4818855,21.8069376,437.0 74.4818677,21.8069695,434.4 74.4818522,21.8069925,433.7 74.4818372,21.8070112,433.4 74.4818266,21.8070277,433.9 74.4818173,21.8070481,434.0 74.481805,21.8070703,433.7 74.4817953,21.8070864,433.0 74.4817776,21.8070953,432.59999999999997 74.4817595,21.8071077,432.8 74.4817436,21.8071254,433.5 74.4817278,21.807145,433.4 74.4817138,21.807161,433.09999999999997 74.4816972,21.8071716,432.4 74.4816832,21.8071876,431.59999999999997 74.4816689,21.8072043,430.9 74.4816538,21.8072211,430.7 74.4816363,21.8072416,430.7 74.4816184,21.8072587,430.4 74.4816053,21.807276,430.4 74.4815893,21.8073003,429.8 74.4815776,21.8073256,429.2 74.4815604,21.8073491,428.5 74.4815456,21.807368,427.8 74.4815301,21.8073798,427.09999999999997 74.48151,21.8074073,425.9 74.4814941,21.8074224,425.2 74.481485,21.8074486,424.7 74.4814769,21.8074694,424.09999999999997 74.4814682,21.8074922,424.09999999999997 74.4814503,21.8075246,424.59999999999997 74.4814301,21.8075419,425.2 74.4814189,21.8075613,425.5 74.4814049,21.8075855,425.09999999999997 74.4813911,21.8076019,425.8 74.4813864,21.8076234,426.3 74.4813902,21.8076508,426.4 74.4813936,21.807678,426.4 74.4813977,21.8077039,426.4 74.4813969,21.8077303,426.59999999999997 74.4813974,21.8077562,426.59999999999997 74.4813922,21.8077823,425.59999999999997 74.481387,21.8078071,425.5 74.4813855,21.8078272,425.4 74.4813807,21.8078479,425.09999999999997 74.4813782,21.8078753,424.7 74.4813718,21.8079036,424.7 74.4813654,21.8079267,424.59999999999997 74.4813635,21.8079465,424.3 74.4813599,21.8079675,423.7 74.4813535,21.8079868,422.9 74.4813457,21.8080139,422.0 74.481323,21.8080436,421.8 74.4813101,21.8080678,422.3 74.4813023,21.8080898,422.8 74.4812958,21.8081099,423.5 74.4812785,21.8081414,425.40000000000003 74.4812723,21.8081617,425.8 74.4812609,21.8081843,425.6 74.4812524,21.8082037,425.40000000000003 74.4812379,21.8082194,424.90000000000003 74.4812198,21.8082377,424.5 74.4812071,21.8082574,424.3 74.4811914,21.8082787,424.1 74.48117,21.8082985,424.6 74.4811483,21.8083076,425.5 74.481111,21.8083068,428.8 74.4810875,21.8083052,430.8 74.4810604,21.8083069,432.1 74.4810362,21.8083033,432.40000000000003 74.4810113,21.8083039,432.0 74.4809708,21.8082933,431.8 74.4809479,21.8082827,431.1 74.4809215,21.8082791,431.5 74.4808926,21.808278,431.6 74.4808647,21.80827,431.8 74.4808414,21.8082647,431.6 74.4808192,21.8082623,431.7 74.4807991,21.8082479,431.8 74.4807774,21.8082372,432.6 74.4807496,21.808236,433.5 74.480723,21.808225,433.8 74.4806921,21.8082141,433.0 74.4806663,21.8082069,433.0 74.4806351,21.8082054,432.3 74.48061,21.8082014,431.8 74.480588,21.8082004,431.6 74.4805445,21.8081942,433.7 74.4805208,21.8082022,434.0 74.4804985,21.8082078,435.0 74.4804791,21.8082116,435.3 74.4804546,21.8082138,435.1 74.4804309,21.8082173,435.5 74.4804024,21.8082277,436.8 74.4803802,21.8082409,438.1 74.4803591,21.8082482,439.2 74.4803316,21.8082483,439.6 74.4803122,21.8082434,439.7 74.480287,21.808251,439.5 74.4802618,21.8082568,439.7 74.4802317,21.8082679,439.1 74.4802041,21.8082908,438.0 74.4801866,21.8083023,437.5 74.4801683,21.8083119,436.8 74.4801506,21.8083238,436.3 74.4801325,21.8083359,435.40000000000003 74.4801115,21.8083423,434.8 74.4800814,21.8083373,434.90000000000003 74.4800415,21.808343,435.40000000000003 74.4800185,21.8083514,435.6 74.4800003,21.808365,435.6 74.4799838,21.8083802,435.7 74.4799651,21.8084009,436.7 74.4799516,21.8084266,437.3 74.47995,21.8084552,437.3 74.4799627,21.8084794,437.7 74.479982,21.8085024,438.2 74.4799947,21.8085252,438.0 74.4800077,21.808551,437.5 74.4800243,21.8085767,437.1 74.4800421,21.8086003,436.40000000000003 74.480058,21.8086291,435.7 74.4800706,21.8086501,434.7 74.4800882,21.8086656,434.40000000000003 74.4801045,21.8086808,433.90000000000003 74.4801415,21.8086965,436.2 74.4801666,21.8087176,437.1 74.4801872,21.8087363,437.3 74.4802013,21.8087595,437.40000000000003 74.480209,21.8087814,437.90000000000003 74.4802201,21.8088083,438.2 74.4802362,21.8088283,438.0 74.4802499,21.8088467,437.8 74.480263,21.8088624,437.2 74.48029,21.8088905,436.40000000000003 74.4802973,21.8089123,435.7 74.4803022,21.808936,435.3 74.4803071,21.8089548,435.2 74.4803037,21.8089788,435.7 74.4803,21.8090025,436.6 74.4802974,21.8090234,437.1 74.4802939,21.8090481,437.0 74.4802881,21.8090707,437.2 74.4802783,21.8090913,436.8 74.4802631,21.8091156,436.1 74.4802449,21.80913,435.0 74.4802228,21.8091577,434.0 74.480204,21.809174,434.3 74.480184,21.8091872,434.8 74.48017,21.8092048,435.6 74.4801523,21.8092198,436.0 74.4801324,21.809236,436.0 74.4801128,21.8092533,435.90000000000003 74.4800928,21.809264,436.3 74.4800736,21.8092771,436.6 74.4800547,21.8092891,437.40000000000003 74.4800336,21.8093087,437.3 74.4800182,21.8093293,437.40000000000003 74.4800025,21.8093453,436.8 74.4799841,21.8093616,436.5 74.4799653,21.8093777,437.1 74.4799564,21.8093996,436.8 74.479949,21.8094177,436.1 74.4799366,21.8094387,435.7 74.4799224,21.8094597,434.90000000000003 74.4799075,21.8094776,434.40000000000003 74.4798995,21.8094979,434.40000000000003 74.4798917,21.8095194,434.2 74.4798864,21.8095384,434.8 74.4798825,21.809559,436.1 74.4798753,21.8095771,437.1 74.479872,21.8096066,438.0 74.4798777,21.8096477,438.1 74.4798869,21.8096683,437.8 74.4798924,21.809691,437.3 74.4798968,21.8097138,437.40000000000003 74.479899,21.8097388,437.8 74.4798956,21.809759,438.40000000000003 74.4799012,21.8097833,438.2 74.4799138,21.8097995,437.90000000000003 74.4799312,21.8098256,436.90000000000003 74.4799456,21.8098442,435.8 74.4799587,21.8098615,434.5 74.4799756,21.8098838,434.0 74.4799827,21.8099066,433.40000000000003 74.4799939,21.8099289,432.8 74.4800059,21.8099497,432.90000000000003 74.4800179,21.8099815,434.8 74.4800283,21.8099993,435.2 74.4800405,21.8100196,434.7 74.4800519,21.8100373,434.5 74.4800567,21.8100588,434.5 74.480059,21.8100817,434.1 74.4800673,21.8101001,433.7 74.4800735,21.8101193,432.8 74.4800777,21.8101397,432.8 74.4800796,21.8101581,432.40000000000003 74.4800745,21.8101792,432.2 74.480076,21.8102019,431.2 74.4800825,21.8102283,430.5 74.4800835,21.8102537,429.7 74.4800733,21.8102891,427.8 74.4800636,21.8103123,426.8 74.4800476,21.8103309,425.40000000000003 74.4800274,21.8103502,424.1 74.4800093,21.8103671,422.7 74.4799857,21.8103857,421.7 74.4799612,21.810402,421.1 74.4799392,21.8104102,420.90000000000003 74.4799022,21.8104297,420.5 74.479881,21.810444,421.0 74.4798619,21.8104574,421.1 74.4798451,21.8104723,421.3 74.479821,21.8104797,422.3 74.4797908,21.8104852,422.0 74.4797654,21.8104865,422.40000000000003 74.4797408,21.8104857,422.5 74.4797143,21.8104787,422.3 74.4796872,21.8104665,421.8 74.4796633,21.8104587,421.3 74.4796341,21.8104489,420.40000000000003 74.4796086,21.8104386,418.90000000000003 74.4795844,21.8104183,417.5 74.4795626,21.810407,416.2 74.4795423,21.8103999,415.40000000000003 74.4795226,21.8103953,415.1 74.4794849,21.8103806,414.8 74.4794637,21.8103707,414.1 74.4794429,21.8103599,413.7 74.4794258,21.81035,413.40000000000003 74.4794075,21.8103391,413.90000000000003 74.4793829,21.8103295,415.0 74.4793557,21.810317,415.40000000000003 74.479335,21.8103024,415.6 74.4793034,21.8102952,416.1 74.4793225,21.8102906,417.90000000000003 74.4793035,21.8102828,418.40000000000003 74.4792935,21.8102591,422.5 74.4792781,21.810234,423.0 74.4792427,21.8102167,424.7 74.4792224,21.8102059,425.40000000000003 74.4791988,21.8101955,425.1 74.47918,21.8101812,424.90000000000003 74.4791622,21.8101732,425.1 74.4791392,21.8101698,425.3 74.479114,21.8101768,424.5 74.4790888,21.8101827,423.90000000000003 74.4790595,21.8101937,423.2 74.479031,21.810202,422.6 74.4790049,21.8102043,422.3 74.4789844,21.8102076,422.6 74.4789627,21.810208,422.6 74.4789363,21.8102021,422.7 74.4789151,21.8101975,423.2 74.4788969,21.8102042,424.2 74.4788829,21.8102174,426.0 74.4788599,21.810231,426.40000000000003 74.4788346,21.8102452,426.1 74.4788208,21.8102611,426.8 74.4787996,21.8102665,427.1 74.4787597,21.8102786,427.3 74.4787357,21.8102921,428.1 74.4787154,21.8102932,429.8 74.4786814,21.8102939,431.40000000000003 74.4786547,21.8103045,432.0 74.4786295,21.8103145,433.0 74.4786114,21.8103221,433.5 74.478595,21.8103361,434.1 74.4785762,21.8103422,435.8 74.4785497,21.8103489,437.1 74.4785301,21.8103568,438.3 74.4785013,21.8103749,440.3 74.4784799,21.8103855,440.7 74.4784537,21.8103995,440.8 74.4784318,21.8104147,440.5 74.478407,21.8104266,440.7 74.4783747,21.8104347,440.5 74.4783516,21.8104468,440.2 74.4783358,21.8104622,440.3 74.4783115,21.8104735,439.40000000000003 74.4782875,21.8104891,438.5 74.4782729,21.8105038,437.5 74.4782575,21.8105203,437.1 74.4782388,21.8105405,436.8 74.4782266,21.8105572,436.40000000000003 74.4782077,21.8105736,435.40000000000003 74.4781878,21.8105934,433.5 74.4781733,21.8106153,432.0 74.4781612,21.8106492,428.7 74.4781449,21.8106844,426.2 74.478138,21.8107075,425.3 74.4781269,21.8107293,424.90000000000003 74.4781154,21.81075,424.7 74.4781011,21.8107701,424.90000000000003 74.4780915,21.8107916,425.1 74.478081,21.8108141,424.8 74.4780708,21.8108401,424.2 74.4780622,21.8108642,423.8 74.4780547,21.8108861,423.3 74.4780442,21.8109094,423.2 74.4780384,21.8109325,423.1 74.4780305,21.8109547,422.7 74.4780255,21.810983,422.5 74.4780127,21.8110044,422.3 74.4779991,21.8110261,422.8 74.4779869,21.8110463,422.90000000000003 74.4779755,21.8110648,422.6 74.4779629,21.8110817,422.2 74.4779592,21.8111041,421.3 74.4779492,21.8111333,421.0 74.4779359,21.8111526,420.8 74.4779222,21.8111753,421.0 74.4779111,21.8111968,420.90000000000003 74.4778945,21.8112205,420.1 74.4778804,21.8112454,419.7 74.4778681,21.8112693,419.2 74.4778594,21.8112938,419.1 74.4778509,21.8113176,418.40000000000003 74.4778452,21.8113397,417.90000000000003 74.4778396,21.8113658,417.7 74.4778244,21.8113887,417.3 74.4778099,21.8114035,417.0 74.4777955,21.8114174,416.90000000000003 74.4777702,21.8114307,417.40000000000003 74.4777491,21.8114486,417.8 74.4777287,21.8114667,418.90000000000003 74.4777106,21.8114869,420.1 74.4776964,21.8115066,420.2 74.4776776,21.8115228,420.6 74.477661,21.8115415,420.7 74.4776463,21.8115645,420.40000000000003 74.4776283,21.8115904,419.90000000000003 74.4776151,21.8116168,420.2 74.4775941,21.8116379,423.0 74.4775687,21.8116537,423.8 74.4775483,21.8116661,424.8 74.4775328,21.8116812,426.0 74.4775194,21.8117008,426.6 74.4774954,21.811722,427.7 74.4774619,21.8117374,428.7 74.4774372,21.8117452,429.2 74.4774133,21.811755,430.0 74.4773903,21.8117652,430.1 74.4773568,21.8117819,430.2 74.4773274,21.8118053,429.6 74.4773048,21.8118317,428.90000000000003 74.47729,21.8118613,427.6 74.4772743,21.8118815,427.0 74.4772617,21.8119024,427.5 74.4772491,21.8119218,427.8 74.4772376,21.811943,427.8 74.4772302,21.8119702,427.7 74.4772283,21.8119957,427.7 74.4772341,21.8120209,427.2 74.4772312,21.8120392,427.2 74.477224,21.8120776,427.5 74.4772138,21.8120971,428.0 74.4772069,21.812114,428.40000000000003 74.4771959,21.8121291,429.0 74.4771837,21.8121455,429.90000000000003 74.4771694,21.8121623,431.0 74.4771516,21.8121825,431.90000000000003 74.4771427,21.8122059,432.1 74.4771427,21.8122341,431.2 74.4771284,21.8122605,430.1 74.4771184,21.8122815,429.6 74.4771029,21.8123039,428.7 74.4770933,21.8123286,427.90000000000003 74.4770743,21.8123652,427.7 74.4770702,21.8123843,427.6 74.4770547,21.8124053,426.40000000000003 74.4770385,21.8124343,425.3 74.4770162,21.812462,424.3 74.4769924,21.8124903,424.2 74.4769695,21.8125117,424.90000000000003 74.4769511,21.8125238,425.8 74.4769377,21.8125454,426.6 74.4769172,21.8125645,427.6 74.4768909,21.8125815,427.8 74.4768734,21.8125945,428.2 74.4768533,21.8126045,428.90000000000003 74.4768335,21.8126134,430.5 74.476808,21.8126214,430.6 74.4767821,21.8126359,431.8 74.4767754,21.8126563,431.7 74.4767958,21.8126769,431.40000000000003 74.4768058,21.8127069,432.0 74.4768184,21.8127223,434.1 74.4767703,21.8127125,435.5 74.4768099,21.81269,425.6 74.4768297,21.8126781,425.1 74.4768301,21.8126563,416.90000000000003 74.4768369,21.8126371,416.3 74.4768588,21.8126255,416.6 74.4768835,21.812621,416.8 74.4769113,21.8126145,418.5 74.4769307,21.8126227,419.3 74.4769556,21.8126207,419.90000000000003 74.4769894,21.8126093,421.7 74.477,21.8125928,423.1 74.4770153,21.8125638,424.8 74.4770417,21.812559,426.2 74.4770669,21.8125476,427.90000000000003 74.4770843,21.8125376,429.0 74.4770879,21.8125195,429.7 74.4770926,21.812495,430.3 74.4770989,21.8124713,430.2 74.4771076,21.8124544,429.5 74.4771258,21.8124451,430.0 74.4771411,21.812427,430.90000000000003 74.4771554,21.8124116,431.3 74.4771685,21.812395,431.5 74.4771791,21.812364,432.7 74.477204,21.812333,432.6 74.477227,21.8123259,432.6 74.4772467,21.8123215,431.8 74.4772695,21.8123195,431.5 74.4772932,21.8123102,431.1 74.4773118,21.8122983,431.5 74.4773495,21.8122894,433.2 74.4773746,21.8122705,434.6 74.477394,21.8122614,434.8 74.4774312,21.8122594,437.2 74.4774489,21.8122499,437.90000000000003 74.4774703,21.8122365,438.2 74.4774948,21.812225,438.7 74.477519,21.812209,438.3 74.4775421,21.8121902,438.2 74.4775577,21.8121737,438.40000000000003 74.4775752,21.8121659,438.6 74.4775932,21.8121543,439.0 74.4776143,21.8121396,439.2 74.4776341,21.8121266,439.6 74.4776538,21.8121128,439.40000000000003 74.4776798,21.8120913,439.2 74.4777061,21.8120817,439.6 74.4777322,21.812086,439.8 74.4777648,21.8120764,440.2 74.4777898,21.8120656,440.5 74.4778242,21.8120515,440.2 74.4778399,21.8120407,440.3 74.4778605,21.8120158,439.40000000000003 74.477872,21.8119988,438.90000000000003 74.4778815,21.8119822,438.3 74.4778944,21.8119656,438.2 74.4779083,21.81195,438.3 74.4779151,21.8119308,437.6 74.4779247,21.8119149,437.5 74.4779515,21.8119037,436.40000000000003 74.4779692,21.8118722,435.7 74.4779867,21.81186,435.90000000000003 74.4780141,21.8118412,437.40000000000003 74.47804,21.8118126,438.0 74.478058,21.8117959,437.90000000000003 74.4780785,21.8117832,437.7 74.4781087,21.811773,438.1 74.4781347,21.8117657,437.2 74.4781746,21.8117482,437.90000000000003 74.4781982,21.8117425,438.5 74.4782208,21.8117383,438.8 74.4782417,21.8117376,438.7 74.4782741,21.8117418,438.6 74.4782864,21.8117572,438.2 74.4783174,21.8117586,438.8 74.4783524,21.8117503,439.1 74.4783735,21.8117513,439.40000000000003 74.4783916,21.8117434,439.8 74.4784137,21.8117285,440.6 74.478429,21.8117139,440.5 74.4784728,21.8117025,439.3 74.4784937,21.8117029,438.40000000000003 74.4785142,21.8116968,438.2 74.478532,21.8116812,438.2 74.478545,21.8116606,438.0 74.4785569,21.8116269,436.7 74.4785705,21.811609,436.6 74.4785778,21.8115846,436.0 74.4785899,21.8115625,437.6 74.4785916,21.8115375,437.5 74.4786028,21.811505,437.0 74.4786077,21.811486,437.6 74.4786129,21.8114644,437.2 74.4786102,21.8114457,437.0 74.4786131,21.8114085,435.90000000000003 74.4786284,21.811386,435.7 74.4786377,21.8113634,435.90000000000003 74.4786423,21.8113439,436.40000000000003 74.4786511,21.8113246,436.5 74.4786619,21.811293,436.0 74.4786722,21.8112763,435.0 74.4786801,21.8112575,434.2 74.4786804,21.8112385,433.90000000000003 74.4786832,21.8112176,433.0 74.478686,21.8111985,432.8 74.4786965,21.8111818,432.7 74.4787042,21.8111627,433.1 74.4787067,21.8111427,433.5 74.478722,21.8111154,432.7 74.4787375,21.8111022,432.0 74.478757,21.8110823,431.1 74.4787738,21.8110589,430.8 74.4787762,21.8110238,429.7 74.4787899,21.8109952,428.40000000000003 74.4788056,21.8109771,427.2 74.4788253,21.8109473,426.7 74.4788343,21.8109205,428.0 74.4788418,21.8109031,428.6 74.4788535,21.810887,428.1 74.4788668,21.8108726,427.5 74.4788796,21.8108494,426.7 74.4788971,21.8108256,425.8 74.4789072,21.8108065,425.5 74.4789263,21.8107769,425.1 74.4789453,21.8107448,424.40000000000003 74.4789537,21.8107271,424.1 74.478963,21.8107102,423.7 74.478988,21.8106806,422.6 74.4789985,21.8106581,422.0 74.4790094,21.8106431,421.8 74.4790377,21.8106462,420.6 74.4790604,21.8106536,417.40000000000003 74.4790945,21.8106582,418.1 74.4791181,21.8106651,418.0 74.4791565,21.8106733,419.1 74.4791772,21.8106835,419.5 74.4791949,21.8106931,419.8 74.479211,21.8107033,420.5 74.479242,21.8107111,422.2 74.4792694,21.8107246,424.6 74.4792976,21.8107363,424.8 74.4793191,21.8107595,424.1 74.4793348,21.81078,423.90000000000003 74.4793486,21.8108002,423.1 74.4793688,21.8108106,422.5 74.4793945,21.8108171,421.3 74.4793986,21.8108474,420.8 74.4794003,21.810877,419.5 74.4794045,21.8109031,418.5 74.4793977,21.8109301,417.6 74.4794082,21.8109454,416.8 74.4794101,21.8109733,416.3 74.4794057,21.8109986,416.0 74.4794061,21.8110199,415.5 74.4794319,21.8110401,416.1 74.4794482,21.8110299,416.3 74.4794755,21.8110374,417.40000000000003 74.479502,21.8110211,418.3 74.4795193,21.8110106,418.7 74.4795424,21.8110059,418.90000000000003 74.4795666,21.8110177,416.7 74.4795867,21.8110312,415.3 74.4796072,21.8110424,414.40000000000003 74.4796354,21.8110188,414.2 74.4796597,21.8109913,415.2 74.4796874,21.810988,415.8 74.4797137,21.8109809,417.0 74.4797368,21.8109778,418.1 74.4797703,21.8109755,419.0 74.4797912,21.8109527,420.3 74.479812,21.8109348,420.2 74.4798281,21.8109151,419.8 74.4798476,21.8108926,420.2 74.4798814,21.8108844,420.3 74.4799033,21.8108757,420.1 74.4799186,21.8108605,420.2 74.4799571,21.8108472,420.7 74.4799685,21.8108283,420.8 74.4799642,21.8108101,420.1 74.4799633,21.8107809,419.40000000000003 74.4799759,21.8107532,419.8 74.4799912,21.8107319,420.0 74.4800018,21.8107096,419.40000000000003 74.4800119,21.8106905,417.6 74.4800267,21.8106731,416.7 74.4800461,21.8106494,417.0 74.4800599,21.8106332,417.1 74.4800757,21.8106169,417.3 74.4801046,21.8105929,418.6 74.4801274,21.8105859,419.40000000000003 74.4801472,21.8105755,419.90000000000003 74.4801602,21.8105566,421.40000000000003 74.4801881,21.8105403,422.1 74.480214,21.8105175,422.6 74.4802161,21.8104982,422.8 74.4802173,21.8104665,422.90000000000003 74.4802366,21.8104426,424.0 74.4802569,21.8104375,424.5 74.4802954,21.8104318,424.90000000000003 74.4803154,21.8104269,424.7 74.4803468,21.8104363,425.40000000000003 74.480366,21.8104293,425.8 74.4804029,21.8104186,426.0 74.4804238,21.8104098,425.5 74.480444,21.8104081,425.2 74.4804663,21.8104084,425.3 74.4804949,21.8104069,424.2 74.4805229,21.8104033,422.3 74.4805525,21.8104019,421.5 74.4805777,21.8104004,421.3 74.4805998,21.8104061,420.5 74.480638,21.8104136,418.5 74.4806598,21.8104176,417.40000000000003 74.480681,21.8104205,417.7 74.4807044,21.8104144,417.7 74.4807333,21.810408,418.2 74.4807675,21.8104171,419.1 74.4807871,21.8104247,419.90000000000003 74.4808116,21.81044,420.5 74.4808363,21.8104434,420.3 74.4808579,21.8104424,420.40000000000003 74.4808868,21.8104395,420.90000000000003 74.4809197,21.8104329,420.40000000000003 74.4809471,21.8104251,420.2 74.4809685,21.8104253,420.1 74.4809877,21.810428,420.2 74.4810114,21.8104301,419.40000000000003 74.481032,21.8104372,418.90000000000003 74.4810704,21.8104445,418.7 74.4810944,21.8104425,418.3 74.481124,21.8104303,418.0 74.4811434,21.8104188,417.7 74.4811675,21.8104082,416.5 74.4811945,21.81041,416.3 74.4812355,21.8104062,416.1 74.4812716,21.8104063,415.40000000000003 74.4812955,21.8104072,415.2 74.4813258,21.8104168,414.3 74.4813588,21.8104217,414.3 74.4813882,21.8104241,413.7 74.4814081,21.8104285,413.1 74.481445,21.8104485,411.90000000000003 74.4814745,21.8104428,411.40000000000003 74.4815078,21.8104353,410.7 74.4815369,21.8104271,410.40000000000003 74.4815809,21.8104201,409.7 74.4816214,21.810428,409.8 74.4816494,21.8104366,410.1 74.4816802,21.8104358,412.1 74.4817025,21.8104429,411.1 74.4817482,21.8104428,410.2 74.4817832,21.8104351,409.5 74.4818155,21.810428,408.5 74.4818224,21.8104478,406.8 74.4818481,21.8104554,406.3 74.4818916,21.8104654,405.8 74.4819287,21.8104781,405.40000000000003 74.4819474,21.8104863,404.90000000000003 74.4819853,21.8104917,405.7 74.4820101,21.8104932,406.2 74.4820223,21.8105085,406.1 74.4820522,21.8105046,405.40000000000003 74.4820742,21.8104943,405.5 74.482099,21.810486,405.5 74.4821253,21.8104912,405.7 74.482154,21.8104822,406.6 74.4821758,21.8104808,405.7 74.4821926,21.8104656,405.40000000000003 74.4822079,21.8104493,405.3 74.4822556,21.8104517,404.8 74.482293,21.8104544,404.0 74.4823216,21.8104495,402.8 74.4823554,21.8104477,402.0 74.4823841,21.8104496,401.6 74.4824079,21.8104593,402.40000000000003 74.4824269,21.8104632,402.2 74.4824627,21.8104651,403.0 74.4824848,21.8104717,403.1 74.4825157,21.8104696,403.1 74.4825386,21.8104672,403.2 74.4825567,21.8104754,403.2 74.482576,21.8104822,403.2 74.482609,21.8104913,404.2 74.4826455,21.8104875,406.1 74.4826678,21.8104886,406.8 74.4826964,21.8104913,406.8 74.4827364,21.8104879,407.2 74.4827577,21.8104864,406.90000000000003 74.482776,21.8104677,407.1 74.4827905,21.8104529,407.3 74.4828131,21.8104441,407.1 74.4828336,21.8104401,407.1 74.4828595,21.810452,407.90000000000003 74.4828861,21.8104514,408.2 74.4829215,21.8104591,407.0 74.4829563,21.8104642,407.1 74.4829765,21.8104531,407.3 74.4830102,21.8104486,407.0 74.4830313,21.8104444,406.3 74.4830563,21.8104372,405.5 74.4830839,21.8104384,403.8 74.4831053,21.8104356,402.40000000000003 74.4831262,21.810433,401.8 74.4831532,21.8104346,402.0 74.4831845,21.8104416,402.40000000000003 74.4832146,21.8104488,402.90000000000003 74.4832512,21.8104442,404.1 74.4832725,21.8104445,403.90000000000003 74.4833097,21.8104372,404.0 74.483329,21.8104427,403.90000000000003 74.4833621,21.8104434,404.5 74.4833824,21.810448,405.1 74.4834133,21.8104459,404.8 74.4834322,21.8104403,404.90000000000003 74.4834539,21.8104325,405.90000000000003 74.4834733,21.8104276,406.1 74.4834998,21.8104245,405.5 74.4835308,21.8104056,404.5 74.4835548,21.8103978,403.5 74.4835762,21.8103902,401.90000000000003 74.4836042,21.8103734,400.0 74.4836438,21.810373,399.0 74.4836661,21.810371,399.1 74.4836936,21.8103664,400.0 74.4837147,21.8103585,401.7 74.4837342,21.8103547,403.2 74.4837729,21.8103489,404.6 74.4837999,21.8103542,405.6 74.4838403,21.8103633,404.8 74.4838745,21.8103647,405.8 74.4839032,21.8103656,407.2 74.4839252,21.8103647,408.5 74.4839618,21.8103621,410.5 74.4839793,21.8103498,411.40000000000003 74.4839975,21.8103432,411.3 74.4840182,21.8103315,410.90000000000003 74.484039,21.810325,411.7 74.484058,21.8103023,412.0 74.4840797,21.8102963,412.40000000000003 74.4841063,21.8102874,413.40000000000003 74.4841257,21.8102835,414.3 74.4841596,21.8102769,412.40000000000003 74.484195,21.8102689,410.1 74.4842197,21.8102648,408.90000000000003 74.4842541,21.8102622,408.6 74.4842794,21.8102635,408.5 74.4843036,21.8102681,408.5 74.4843278,21.8102566,406.90000000000003 74.4843495,21.8102325,405.2 74.4843793,21.8102205,404.8 74.484414,21.8102095,404.7 74.4844439,21.8101976,405.5 74.4844655,21.8101862,406.2 74.484489,21.8101833,407.0 74.4845277,21.8101793,408.90000000000003 74.4845457,21.8101698,409.6 74.4845628,21.8101534,410.0 74.484592,21.810138,410.1 74.4846103,21.8101277,409.90000000000003 74.484633,21.8101227,410.0 74.4846523,21.8101153,410.6 74.4846889,21.810107,411.6 74.4847087,21.8101072,411.5 74.4847389,21.8100913,411.7 74.4847619,21.8100749,411.8 74.4847815,21.8100645,412.2 74.4847981,21.8100536,412.3 74.4848238,21.8100424,412.40000000000003 74.4848446,21.8100237,411.40000000000003 74.4848533,21.8100063,411.3 74.4848599,21.8099691,412.0 74.4848569,21.8099477,412.5 74.4848627,21.8099231,413.2 74.4848615,21.8098848,414.0 74.4848666,21.8098578,413.90000000000003 74.4848846,21.8098334,413.2 74.4848956,21.809808,411.2 74.4849187,21.8097634,405.7 74.4849336,21.8097347,405.90000000000003 74.4849541,21.809749,408.3 74.4849779,21.8097531,410.0 74.4850014,21.8097566,410.7 74.4850251,21.8097604,411.90000000000003 74.485047,21.809764,413.40000000000003 74.4850799,21.8097605,414.5 74.4851118,21.8097548,414.8 74.485139,21.8097523,415.1 74.4851605,21.8097486,414.6 74.4852092,21.8097372,414.90000000000003 74.4852339,21.8097428,415.2 74.4852645,21.8097441,414.8 74.4852933,21.809737,414.2 74.4853276,21.809735,414.40000000000003 74.4853504,21.8097259,415.1 74.4853806,21.8097084,413.7 74.4854104,21.8097031,413.3 74.4854365,21.8097001,413.7 74.4854635,21.8096986,413.6 74.4854984,21.8096916,414.7 74.4855412,21.8097106,414.6 74.4855642,21.8097147,414.1 74.4855814,21.8097244,413.90000000000003 74.4856127,21.8097183,413.7 74.4856417,21.8097096,413.3 74.4856688,21.8097019,413.1 74.4857025,21.809684,412.7 74.4857293,21.8096688,413.2 74.4857502,21.809649,413.2 74.485773,21.8096282,413.1 74.4857955,21.8096086,412.7 74.485812,21.8095977,413.3 74.4858219,21.8095799,413.6 74.4858343,21.8095567,413.5 74.4858389,21.8095345,413.3 74.4858313,21.8095005,413.2 74.4858399,21.8094842,413.0 74.4858523,21.8094601,412.5 74.4858519,21.8094365,412.6 74.4858628,21.8094031,412.8 74.4858694,21.8093707,412.4 74.4858794,21.809338,411.7 74.4858956,21.8093063,410.4 74.4858995,21.8092803,409.7 74.4859044,21.8092566,409.7 74.485916,21.8092316,410.0 74.4859248,21.8092132,411.09999999999997 74.4859265,21.8091749,412.09999999999997 74.48592,21.8091371,411.59999999999997 74.4859239,21.8091078,410.4 74.4859366,21.809074,409.3 74.4859457,21.8090511,408.7 74.4859504,21.809033,408.59999999999997 74.4859564,21.8090124,408.09999999999997 74.4859671,21.8089959,407.09999999999997 74.4859895,21.8089578,407.3 74.4860072,21.8089285,409.09999999999997 74.4860139,21.8089065,409.7 74.4860217,21.8088888,409.7 74.4860287,21.8088659,409.8 74.486034,21.8088377,409.4 74.4860418,21.8088195,409.2 74.4860546,21.808789,410.2 74.4860614,21.8087677,409.8 74.4860852,21.8087412,410.0 74.4860958,21.8087136,409.5 74.4861096,21.8086978,409.4 74.4861177,21.8086781,409.0 74.4861504,21.8086565,409.09999999999997 74.4861672,21.8086457,408.9 74.4861801,21.808629,409.0 74.4862077,21.8086105,410.2 74.4862426,21.8085994,410.5 74.486268,21.8085882,411.09999999999997 74.4862994,21.8085646,411.2 74.486316,21.8085471,411.5 74.4863529,21.808544,413.0 74.486374,21.8085363,413.59999999999997 74.486399,21.8085371,413.59999999999997 74.4864231,21.8085352,413.3 74.4864498,21.8085248,412.09999999999997 74.4864736,21.8085161,409.09999999999997 74.4864788,21.80849,406.59999999999997 74.4864833,21.8084644,404.7 74.4865099,21.8084426,406.5 74.4865282,21.8084267,407.0 74.4865403,21.8084077,406.7 74.4865559,21.8083905,406.59999999999997 74.4865636,21.8083678,406.3 74.4865691,21.8083499,405.09999999999997 74.4865884,21.8083474,403.3 74.4866087,21.8083469,402.9 74.4866361,21.8083466,402.59999999999997 74.4866624,21.8083467,403.0 74.4866885,21.8083525,403.2 74.486707,21.8083782,404.0 74.4867349,21.8083768,403.8 74.4867466,21.8083502,403.9 74.4867518,21.8083237,403.7 74.4867595,21.8082943,403.09999999999997 74.4867648,21.8082762,403.4 74.4868033,21.8082769,403.7 74.4868237,21.8082753,404.0 74.4868593,21.8082857,404.09999999999997 74.4868881,21.8082887,404.09999999999997 74.486918,21.8083014,404.4 74.486948,21.8083071,402.59999999999997 74.4869746,21.8083148,402.2 74.4870061,21.808308,401.4 74.4870375,21.808295,401.0 74.4870616,21.8082839,401.5 74.4870811,21.808276,401.7 74.4871083,21.8082607,401.7 74.487132,21.8082508,401.3 74.4871623,21.8082403,400.8 74.4871973,21.8082171,401.4 74.4872148,21.8082027,401.5 74.4872304,21.8081904,401.2 74.4872556,21.8081878,401.59999999999997 74.4872967,21.80818,402.0 74.4873172,21.808174,401.4 74.4873397,21.8081658,401.5 74.4873693,21.8081569,401.4 74.4873914,21.8081497,401.2 74.4874127,21.8081392,401.3 74.4874335,21.80813,402.4 74.4874537,21.8081217,402.5 74.4874874,21.8081098,402.7 74.4875098,21.8081022,403.0 74.4875477,21.8080871,402.09999999999997 74.4875823,21.8080804,401.09999999999997 74.4876081,21.808074,401.0 74.4876327,21.8080654,401.09999999999997 74.4876754,21.8080567,401.2 74.4877038,21.808044,401.59999999999997 74.4877322,21.8080389,401.09999999999997 74.4877664,21.8080322,401.3 74.4877664,21.8080561,400.3 74.4877874,21.8080421,399.2 74.4878109,21.8080195,398.3 74.4878287,21.8079985,397.8 74.4878302,21.807976,397.4 74.4878442,21.807948,396.0 74.4878558,21.8079286,395.09999999999997 74.4878707,21.807913,393.59999999999997 74.4879014,21.8078965,394.4 74.4879155,21.8078773,394.8 74.4879256,21.8078604,394.9 74.4879363,21.8078435,395.4 74.4879398,21.8078243,395.0 74.4879659,21.8078147,394.0 74.4879815,21.8078032,393.7 74.4880027,21.8077826,393.59999999999997 74.4880185,21.8077715,392.8 74.4880522,21.8077589,390.59999999999997 74.4880866,21.8077445,388.7 74.4881109,21.8077381,388.9 74.4881301,21.807735,389.5 74.4881513,21.8077325,390.2 74.488173,21.8077249,390.9 74.4881974,21.8077121,391.5 74.4882159,21.807705,391.59999999999997 74.4882385,21.8076851,392.3 74.4882616,21.8076621,392.8 74.4882827,21.8076333,392.8 74.4883043,21.8076142,391.5 74.488328,21.8075922,391.8 74.4883578,21.8075694,390.9 74.4883824,21.8075439,390.5 74.4883975,21.8075268,390.4 74.4884149,21.8075121,390.7 74.4884301,21.8074845,388.7 74.4884449,21.8074714,387.3 74.4884647,21.8074574,386.4 74.4884797,21.8074419,385.8 74.4884962,21.8074313,385.3 74.48853,21.8074323,384.09999999999997 74.4885509,21.807433,383.59999999999997 74.4885736,21.8074114,383.9 74.4885784,21.8073843,384.59999999999997 74.488581,21.8073564,384.8 74.4885869,21.8073271,384.9 74.4885932,21.8073065,385.7 74.4885964,21.8072832,386.4 74.4885968,21.8072644,387.4 74.4886007,21.8072399,388.4 74.488607,21.8072109,389.2 74.4885896,21.8071781,389.09999999999997 74.4885752,21.8071622,389.2 74.4885535,21.8071394,387.9 74.4885351,21.8071152,386.5 74.4885221,21.8070873,387.4 74.4885103,21.8070601,388.5 74.4884916,21.8070315,390.2 74.4884647,21.8070117,390.2 74.488442,21.8069996,389.8 74.4884304,21.8069688,389.4 74.4884227,21.8069423,389.59999999999997 74.4884124,21.8069075,389.5 74.4884025,21.8068771,388.7 74.4883883,21.8068522,388.09999999999997 74.4883633,21.8068258,387.8 74.4883563,21.8068028,388.0 74.48834,21.8067818,388.3 74.4883291,21.8067539,388.0 74.4883141,21.8067355,387.4 74.4882986,21.8067073,387.2 74.4882961,21.8066691,386.2 74.4882709,21.8066299,386.0 74.4882535,21.8066105,386.3 74.4882444,21.8065926,386.9 74.4882465,21.8065554,388.59999999999997 74.4882401,21.8065345,389.5 74.4882276,21.8065113,390.0 74.4882101,21.806483,390.59999999999997 74.4881993,21.8064638,390.2 74.4881873,21.8064345,390.09999999999997 74.4881729,21.8064153,390.59999999999997 74.4881624,21.8063991,390.59999999999997 74.4881527,21.8063787,390.9 74.4881334,21.8063472,390.3 74.4881288,21.8063131,389.4 74.488124,21.8062924,389.5 74.4881172,21.8062732,389.5 74.488112,21.8062523,389.2 74.4881056,21.8062201,389.0 74.4880965,21.8061995,388.0 74.4880737,21.806167,384.09999999999997 74.4880476,21.8061542,382.4 74.4880349,21.8061317,380.9 74.4880365,21.8061,378.8 74.4880272,21.8060666,378.2 74.4880306,21.8060428,377.59999999999997 74.48803,21.806018,377.5 74.4880356,21.8059904,377.59999999999997 74.4880434,21.8059718,377.59999999999997 74.4880456,21.8059505,377.7 74.4880434,21.8059218,378.4 74.4880447,21.8058984,379.09999999999997 74.4880517,21.8058815,380.09999999999997 74.4880699,21.8058519,380.0 74.4880971,21.8058299,379.0 74.488115,21.8058143,379.4 74.4881389,21.8058002,378.5 74.4881648,21.8057939,378.9 74.4881856,21.8057908,378.8 74.4882051,21.8057891,378.7 74.4882319,21.8057849,378.8 74.4882726,21.8057737,377.7 74.488293,21.8057669,376.8 74.4883256,21.8057492,376.4 74.4883506,21.8057417,376.4 74.4883796,21.8057218,377.0 74.4883997,21.8056989,376.59999999999997 74.4884185,21.8056814,376.7 74.4884423,21.805664,376.3 74.4884736,21.8056477,376.5 74.4884933,21.8056401,376.2 74.4885183,21.8056237,375.59999999999997 74.4885351,21.8056029,375.5 74.4885503,21.8055899,375.5 74.48857,21.8055709,375.5 74.4885965,21.805562,376.0 74.4886117,21.805547,376.09999999999997 74.4886382,21.8055308,376.09999999999997 74.4886693,21.8055168,374.8 74.4887094,21.8055224,374.3 74.4887447,21.8055224,373.7 74.4887615,21.8055054,374.2 74.4887833,21.8054801,375.7 74.4887996,21.805469,376.5 74.4888269,21.8054431,377.3 74.4888427,21.805425,377.09999999999997 74.4888542,21.8054098,377.4 74.4888692,21.8053896,377.3 74.48889,21.8053633,377.4 74.4889127,21.8053429,376.7 74.4889357,21.8053177,376.3 74.4889546,21.8052951,376.2 74.4889748,21.8052663,376.4 74.4889866,21.805247,376.7 74.488997,21.8052308,376.4 74.489002,21.8052032,376.2 74.4890033,21.8051805,376.3 74.4890036,21.8051598,377.0 74.4890039,21.8051366,377.4 74.4889986,21.8051153,377.7 74.4889938,21.8050891,378.0 74.4889913,21.805068,378.3 74.4889862,21.8050391,380.09999999999997 74.4889804,21.8050022,379.8 74.4889774,21.8049818,380.4 74.4889656,21.8049608,380.2 74.4889767,21.8049393,380.3 74.4889813,21.8049137,379.0 74.4889848,21.8048887,379.09999999999997 74.4889942,21.8048714,378.7 74.4890135,21.8048473,378.8 74.4890178,21.8048287,379.5 74.4890347,21.8048003,379.2 74.4890541,21.8047823,379.8 74.4890686,21.8047469,379.59999999999997 74.4890727,21.8047252,379.9 74.4890775,21.8046885,380.8 74.4890862,21.804667,380.8 74.4891003,21.8046509,379.4 74.4891045,21.8046195,377.3 74.489109,21.8045986,376.4 74.4891246,21.8045801,376.09999999999997 74.4891455,21.8045589,376.3 74.4891646,21.8045631,376.4 74.4891812,21.8045477,376.5 74.4891883,21.8045217,377.0 74.4892021,21.8045057,377.0 74.489223,21.8044954,376.9 74.4892459,21.8044912,373.3 74.4892792,21.8044963,372.59999999999997 74.489299,21.8044961,372.09999999999997 74.4893221,21.8044762,372.4 74.4893416,21.8044634,372.59999999999997 74.4893525,21.8044383,373.59999999999997 74.4893688,21.8044202,374.4 74.4893879,21.8044033,374.4 74.489423,21.8043951,374.7 74.4894495,21.8043847,375.7 74.4894818,21.8043767,377.8 74.4895154,21.8043601,378.59999999999997 74.4895353,21.8043474,379.0 74.4895518,21.804337,379.2 74.4895825,21.8043156,378.8 74.4896047,21.8043049,378.8 74.4896218,21.8042862,378.9 74.4896487,21.8042669,379.7 74.4896426,21.8042436,380.2 74.489655,21.8042174,380.0 74.4896607,21.8041895,380.3 74.4896721,21.8041703,380.09999999999997 74.4896965,21.8041485,379.8 74.4897139,21.8041184,379.09999999999997 74.4897227,21.8040987,378.5 74.4897485,21.8040649,377.9 74.4897568,21.8040465,377.8 74.4897663,21.8040122,378.3 74.4897673,21.8039884,378.5 74.4897588,21.8039675,378.9 74.4897539,21.8039493,379.5 74.4897407,21.8039214,380.4 74.4897342,21.8039041,380.3 74.4897099,21.8038933,379.09999999999997 74.4896881,21.8039002,379.09999999999997 74.4896797,21.8038784,378.2 74.4845532,21.8024648,426.2 </coordinates>
				</LinearRing>
			</outerBoundaryIs>
		</Polygon>
	</Placemark>
</Document>
</kml>