<?xml version="1.0" encoding="UTF-8"?>
<kml xmlns="http://www.opengis.net/kml/2.2" xmlns:gx="http://www.google.com/kml/ext/2.2" xmlns:kml="http://www.opengis.net/kml/2.2" xmlns:atom="http://www.w3.org/2005/Atom">
<Document>
	<name>बारी_५९_271.kml</name>
	<StyleMap id="m_ylw-pushpin">
		<Pair>
			<key>normal</key>
			<styleUrl>#s_ylw-pushpin</styleUrl>
		</Pair>
		<Pair>
			<key>highlight</key>
			<styleUrl>#s_ylw-pushpin_hl</styleUrl>
		</Pair>
	</StyleMap>
	<Style id="s_ylw-pushpin">
		<IconStyle>
			<scale>1.1</scale>
			<Icon>
				<href>http://maps.google.com/mapfiles/kml/pushpin/ylw-pushpin.png</href>
			</Icon>
			<hotSpot x="20" y="2" xunits="pixels" yunits="pixels"/>
		</IconStyle>
		<LineStyle>
			<color>d600ffff</color>
			<width>2.8</width>
		</LineStyle>
		<PolyStyle>
			<color>8affffaa</color>
		</PolyStyle>
	</Style>
	<Style id="s_ylw-pushpin_hl">
		<IconStyle>
			<scale>1.3</scale>
			<Icon>
				<href>http://maps.google.com/mapfiles/kml/pushpin/ylw-pushpin.png</href>
			</Icon>
			<hotSpot x="20" y="2" xunits="pixels" yunits="pixels"/>
		</IconStyle>
		<LineStyle>
			<color>d600ffff</color>
			<width>2.8</width>
		</LineStyle>
		<PolyStyle>
			<color>8affffaa</color>
		</PolyStyle>
	</Style>
	<Placemark>
		<name>बारी_५९_271</name>
		<styleUrl>#m_ylw-pushpin</styleUrl>
		<Polygon>
			<tessellate>1</tessellate>
			<outerBoundaryIs>
				<LinearRing>
					<coordinates>
						73.78335031133172,21.08026686664027,0 73.78349887060722,21.08022146575566,0 73.78369660616805,21.08022243268734,0 73.78389331317995,21.08040790419429,0 73.78413945391324,21.08059361583517,0 73.78428749829509,21.08064046627983,0 73.78443477114097,21.08082569458848,0 73.7845823012003,21.08096479644352,0 73.78468014050272,21.08114978193937,0 73.78477823699122,21.0812886418903,0 73.78477695126261,21.0815192701845,0 73.78477592260693,21.08170377307903,0 73.78482432769472,21.08188851686607,0 73.78487273279696,21.08207325973779,0 73.78487170403972,21.0822577619452,0 73.78487041801054,21.08248838876232,0 73.78486938911529,21.08267289050701,0 73.78486810291349,21.08290351676279,0 73.78491676576178,21.08304213375918,0 73.78501460489368,21.08322711682223,0 73.78511244467052,21.0834120989323,0 73.78530966771226,21.08350531270555,0 73.78550714735309,21.08355240094951,0 73.7857046274879,21.08359948887407,0 73.78590210699659,21.08364657647519,0 73.78609958701151,21.08369366375982,0 73.7863467576074,21.08369486608613,0 73.78659392827632,21.08369606796785,0 73.78684109874786,21.08369726940368,0 73.78708852582469,21.08365234535363,0 73.78733569587736,21.08365354590834,0 73.78753291836904,21.08374675606315,0 73.78763075949,21.08393173528666,0 73.78762947608723,21.0841623596457,0 73.78762819263029,21.08439298376462,0 73.78747912006838,21.08453063847108,0 73.78737896769255,21.08476078228938,0 73.78727932888862,21.08489867631767,0 73.78742686139938,21.08503777029594,0 73.78767377631732,21.08508509467915,0 73.78782182247032,21.08513193898138,0 73.78801930301493,21.0851790228837,0 73.78826647450128,21.08518022148353,0 73.78846369850476,21.08527342910635,0 73.78871086990796,21.08527462693152,0 73.78890835049097,21.08532170955125,0 73.78910583111542,21.0853687918851,0 73.78935300226667,21.08536998860408,0 73.7896001734875,21.08537118490371,0 73.78979765417998,21.08541826627344,0 73.7899953910749,21.08541922273943,0 73.79024256215654,21.08542041794463,0 73.79048973320751,21.0854216127307,0 73.79068747006903,21.08542256825797,0 73.79093515287651,21.08533151303084,0 73.79113340128295,21.08524021898898,0 73.79133190526849,21.08510279964749,0 73.79148097492353,21.08496514171405,0 73.79167922267951,21.0848738464629,0 73.79187772591517,21.08473642647992,0 73.79207622888981,21.08459900580735,0 73.79222504205862,21.084507471583,0 73.79242328907998,21.08441617508512,0 73.79262179143373,21.08427875374,0 73.7928197826899,21.08423358142582,0 73.79296885082474,21.08409592133273,0 73.79316735262486,21.08395849862671,0 73.79336559890547,21.0838672004769,0 73.79356384507199,21.08377590262991,0 73.79376209113886,21.08368460378478,0 73.79391090315217,21.0835930669039,0 73.79406022569474,21.08340927965819,0 73.79425872653138,21.08327185536881,0 73.79440779331122,21.08313419251036,0 73.79455660489374,21.08304265454752,0 73.79475459528115,21.08299747893507,0 73.79495258569361,21.08295230300208,0 73.79515057613723,21.08290712674713,0 73.79539774570401,21.08290831256661,0 73.79559573628848,21.082863136259,0 73.79589234023571,21.0828645581853,0 73.79613900095374,21.08295799258765,0 73.79638617145977,21.08295917659624,0 73.79678164467963,21.08296107006167,0 73.79692994724056,21.08296177981018,0 73.79717711858346,21.08296296236081,0 73.79747372434724,21.08296438081923,0 73.79767146157313,21.08296532609292,0 73.79791863380554,21.0829665072772,0 73.7981163720459,21.08296745189784,0 73.79841297923873,21.08296886827977,0 73.79856153719605,21.08292345074449,0 73.79880921882938,21.08283237987593,0 73.79895803106093,21.08274083622734,0 73.79905791701742,21.08255680534673,0 73.79920698330712,21.08241913611859,0 73.79940548465628,21.08228170145853,0 73.79965291255644,21.0822367533206,0 73.79980147092047,21.08219133386268,0 73.8000486453453,21.08219251069916,0 73.80024511545228,21.08242408092321,0 73.80024384619998,21.08265470904571,0 73.80024283089467,21.08283921183854,0 73.80014294522552,21.08302324307014,0 73.80004306009288,21.08320727460886,0 73.79999286313976,21.08334541577387,0 73.79984328862099,21.08357533602572,0 73.7997436566575,21.08371324116627,0 73.79954540861675,21.0838045493899,0 73.79934690620647,21.08394198188153,0 73.79914865829383,21.08403328926406,0 73.79899984528682,21.0841248321643,0 73.79885052433499,21.08430862489325,0 73.79875089214008,21.08444652809161,0 73.79860157104179,21.08463032011706,0 73.79850168472086,21.08481434821884,0 73.79840179833168,21.08499837572327,0 73.79815360659293,21.08518169414544,0 73.79800453916266,21.08531935968899,0 73.79785572577038,21.08541090036217,0 73.79770665821455,21.0855485653605,0 73.79750840932806,21.08563986900775,0 73.79731016100908,21.08573117197998,0 73.79711165784929,21.08586859970844,0 73.79696284427403,21.08596013872516,0 73.79676485020354,21.08600531629318,0 73.79656685563957,21.08605049356359,0 73.79636886170225,21.08609567054322,0 73.79617061276441,21.08618697158213,0 73.79602179904707,21.08627850971608,0 73.79582354999935,21.08636981048916,0 73.79562504683547,21.08650723522205,0 73.79542679789678,21.08659853532707,0 73.79532690918985,21.08678255863196,0 73.7951778402869,21.08692021982462,0 73.79507795126354,21.08710424291601,0 73.79502749748752,21.08728850315413,0 73.794828992958,21.08742592643223,0 73.79468017792517,21.08751746251377,0 73.79448192792972,21.08760876077005,0 73.79433285804923,21.08774642087789,0 73.79418378798597,21.08788408078453,0 73.7941825132301,21.08811470250139,0 73.79418123851912,21.08834532415746,0 73.7942790893006,21.08853029692007,0 73.79442663098379,21.08866938312964,0 73.79457417272779,21.08880846918801,0 73.79477140515633,21.0889016684602,0 73.79496863794621,21.08899486748935,0 73.79516587110423,21.08908806635997,0 73.79536335918084,21.08913514067406,0 73.79561028332097,21.08918245217595,0 73.7958075172786,21.08927565037536,0 73.79600475219705,21.08936884840099,0 73.79620198695729,21.08946204624071,0 73.7963997310961,21.08946299507536,0 73.79664716534424,21.08941805636621,0 73.79684490922799,21.08941900467102,0 73.79704290785921,21.08937382829255,0 73.7972411599449,21.08928252718214,0 73.79743941255008,21.08919122579531,0 73.79758822863157,21.08909968729438,0 73.79778622733821,21.08905450990651,0 73.79798346431893,21.08914770582157,0 73.79823039211182,21.08919501367227,0 73.79832850405185,21.08933386056873,0 73.79842636213037,21.0895188320203,0 73.79857365807756,21.089704040081,0 73.79887027773181,21.08970545927077,0 73.79911746136389,21.08970664154173,0 73.79936464537082,21.08970782345996,0 73.79961182976389,21.08970900502551,0 73.79970994374791,21.08984785161418,0 73.79990794516593,21.08980267184649,0 73.80010619919042,21.08971136709608,0 73.80025526993205,21.08957370120489,0 73.80040434003662,21.08943603509421,0 73.80055340950908,21.08929836875445,0 73.80065354903724,21.08906821671663,0 73.80085205629918,21.08893078577823,0 73.8009519415659,21.08874675806571,0 73.80100213762587,21.0886086192815,0 73.80110202278389,21.08842459137218,0 73.80120190787889,21.08824056319886,0 73.8013509773748,21.088102895307,0 73.80159892159523,21.08796569814895,0 73.80179717572368,21.08787439004834,0 73.80194447621639,21.08805959625686,0 73.80204233966687,21.08824456689834,0 73.80204132917734,21.08842906683906,0 73.80204006621348,21.08865969170247,0 73.80203905596092,21.08884419154167,0 73.80198835537354,21.08907458083864,0 73.8018884705245,21.08925860951596,0 73.80183802245053,21.08944287366435,0 73.8017873229917,21.08967326267193,0 73.80163799995508,21.08985705528057,0 73.80163698988605,21.09004155489745,0 73.80158654177228,21.09022581879583,0 73.80158553184185,21.09041031846752,0 73.8015842695704,21.09064094307604,0 73.80158325986676,21.09082544273588,0 73.8016316886813,21.09101017847695,0 73.80163067924416,21.09119467824568,0 73.80162941758933,21.09142530310908,0 73.80162815609215,21.09165592806161,0 73.80162714700828,21.09184042803,0 73.80152700821112,21.09207058111685,0 73.80142737497428,21.09220848411851,0 73.80132748824983,21.09239251197574,0 73.80122760255041,21.09257653977849,0 73.80117715450565,21.09276080406894,0 73.80102782970489,21.09294459555029,0 73.80097763494926,21.09308273437548,0 73.8009269344076,21.09331312355406,0 73.80092592522948,21.09349762400661,0 73.80092466388838,21.09372824981942,0 73.80107197162845,21.09391345974776,0 73.80126997997827,21.0938682802021,0 73.80146798736729,21.09382310010211,0 73.80166624803223,21.09373179444195,0 73.80181532119465,21.09359412734794,0 73.80201358186453,21.09350282122615,0 73.80221184259671,21.09341151516799,0 73.80236091559965,21.09327384717199,0 73.80260886660106,21.09313665118502,0 73.8028071274569,21.0930453439728,0 73.80305432495966,21.09304652308051,0 73.80330152189099,21.09304770188141,0 73.80344958910717,21.09309453449001,0 73.80359740527192,21.09318749254652,0 73.80364584003065,21.09337223002154,0 73.80374371423395,21.0935572033615,0 73.8038912805399,21.09369628695824,0 73.80408803693348,21.09388173234131,0 73.80418641497741,21.0939744547744,0 73.80433373218166,21.09415966445685,0 73.80443161034322,21.09434463902173,0 73.80452948790237,21.09452961347748,0 73.80462711639063,21.09476071410845,0 73.80467580442408,21.09489932737918,0 73.80467480178498,21.09508383139675,0 73.80467354867278,21.09531446100051,0 73.8046725463267,21.09549896539368,0 73.80462210363706,21.09568323347044,0 73.80462110147363,21.09586773818894,0 73.80462009943989,21.09605224309391,0 73.80471798011385,21.09623721941236,0 73.80501437927526,21.09628476115509,0 73.80521214655074,21.0962857045701,0 73.80536047200013,21.09628641202421,0 73.80560768123684,21.09628759091114,0 73.80585489227211,21.09628876955161,0 73.80600321877,21.09628947661289,0 73.80615129568076,21.09633631015756,0 73.80629887346291,21.09647539694009,0 73.80639675930915,21.09666037431431,0 73.80619849044908,21.09675168497324,0 73.80609860571218,21.09693572036847,0 73.80594952887213,21.09707339256266,0 73.80589908803709,21.09725766383583,0 73.80589808909869,21.09744217116551,0 73.80589684062876,21.09767280500609,0 73.80599472736991,21.09785778481376,0 73.80609261469984,21.09804276431877,0 73.80624019560186,21.09818185364907,0 73.80648666467945,21.0983214151486,0 73.80668369123477,21.09846074023831,0 73.8068809667887,21.0985539387762,0 73.80702855107893,21.09869302894477,0 73.80722582939893,21.09878622772509,0 73.80742360615307,21.0987871713573,0 73.80771977431333,21.09888084124102,0 73.80781841415858,21.09892744065587,0 73.80801544714934,21.09906676736516,0 73.80821272961792,21.09915996643332,0 73.80841001297962,21.09925316559756,0 73.80855760354558,21.09939225644026,0 73.80880433324221,21.09948569170159,0 73.80895217354082,21.09957865545296,0 73.8090008756878,21.0997172759802,0 73.80880309317212,21.09971633261684,0 73.80860531118036,21.09971538912595,0 73.8083573407585,21.0998525934373,0 73.80811011530987,21.09985141355019,0 73.80796128242692,21.09994296178586,0 73.80776350328311,21.09994201756387,0 73.80756522655223,21.10003332940197,0 73.80736719853518,21.10007851293415,0 73.80716917083224,21.10012369628608,0 73.80677361505813,21.10012180641294,0 73.80647694916814,21.1001203886819,0 73.80622947858366,21.10016533493853,0 73.8059325652621,21.10021004387848,0 73.80578398426343,21.10025546247827,0 73.80558620848224,21.10025451663249,0 73.80528929673783,21.10029922544902,0 73.80509152193139,21.10029827926397,0 73.8049429417929,21.10034369732134,0 73.80474516874688,21.10034275089582,0 73.80454689546939,21.10043405982553,0 73.80434887208961,21.10047924082883,0 73.80415084893181,21.10052442166993,0 73.80395307711372,21.10052347463628,0 73.8037053609759,21.10061454605191,0 73.80350733851786,21.10065972637777,0 73.80325962385288,21.10075079734527,0 73.80301215971218,21.10079574036401,0 73.80286332942113,21.10088728353989,0 73.80266555926069,21.10088633550671,0 73.8024675376996,21.10093151502273,0 73.80231845790736,21.10106918689129,0 73.80212018569193,21.10116049386772,0 73.80192141183514,21.10134405627228,0 73.80172314055631,21.10143536302945,0 73.80152537007206,21.10143441402284,0 73.80127840822153,21.10138709985234,0 73.80113108593321,21.10120187721025,0 73.80108264939287,21.10101712955636,0 73.80103421202205,21.10083238227397,0 73.80103546852862,21.10060174653509,0 73.80103647384551,21.10041723727197,0 73.80103747925664,21.10023272832848,0 73.80103873614956,21.10000209323924,0 73.80103974177278,21.09981758499522,0 73.80104099893094,21.09958695076328,0 73.80104200476644,21.09940244319145,0 73.80099356910361,21.09921769949815,0 73.80084600034192,21.09907860806775,0 73.80064873915364,21.09898540638012,0 73.80050091985784,21.09889244182965,0 73.80030366041855,21.09879924021245,0 73.80015609403199,21.09866014992543,0 73.80000903230084,21.09842880636968,0 73.79991065534193,21.09833607936881,0 73.79981303509118,21.09810497428172,0 73.79976460377551,21.09792023230522,0 73.7996667322776,21.09773525413319,0 73.79946947705415,21.09764205341495,0 73.79927222186879,21.09754885268415,0 73.7990749678407,21.09745565194279,0 73.7988280217282,21.09740834050407,0 73.79872939494776,21.09736174007851,0 73.79848219690396,21.09736055363446,0 73.79833438407915,21.09726758995963,0 73.79828595639513,21.09708284942019,0 73.79818808931788,21.09689787245265,0 73.79818910118976,21.09671336972267,0 73.7980912347858,21.0965283925969,0 73.79794367694461,21.09638930457007,0 73.79774668094271,21.09624997863746,0 73.79754993837564,21.0960645273137,0 73.7975015131078,21.09587978897851,0 73.79725533360448,21.09569410061712,0 73.79715696339922,21.09560137517845,0 73.79705884693519,21.09546252517475,0 73.79681165510127,21.09546133783662,0 73.796564463538,21.09546015023289,0 73.79636671081262,21.09545919996026,0 73.79616870380758,21.09550437470088,0 73.79597018947911,21.09564179901595,0 73.79577218232511,21.09568697339142,0 73.79557417572475,21.09573214759047,0 73.79537566049439,21.09586957206167,0 73.79522683749025,21.09596110902052,0 73.79502832144284,21.09609853262344,0 73.79487949805574,21.09619006941483,0 73.79473042010837,21.09632773145663,0 73.79463052561266,21.09651175621236,0 73.79458006966264,21.09669601978561,0 73.7945790519166,21.09688052158663,0 73.7945777797821,21.09711114849481,0 73.7945273233168,21.09729541272757,0 73.79447686672918,21.097479676514,0 73.79437697135691,21.09766370304979,0 73.79422789096543,21.09780136585083,0 73.79398069672575,21.09780017500083,0 73.79383288932564,21.09770720893711,0 73.7935859503275,21.09765989204531,0 73.79343839845643,21.0975208002502,0 73.79329084728802,21.09738170918065,0 73.7931435514118,21.09719649200199,0 73.79304594963914,21.0969653878895,0 73.79294783810853,21.09682653554435,0 73.79284998199064,21.09664155728847,0 73.79285100256917,21.09645705663323,0 73.79280258513914,21.09627231716265,0 73.79265503649179,21.09613322630663,0 73.79245805034614,21.0959938976997,0 73.79226080933377,21.09590069354388,0 73.7920630577332,21.095899739534,0 73.79181561271146,21.09594467192812,0 73.79161760545523,21.09598984269212,0 73.79141959806752,21.09603501265013,0 73.79127051688118,21.09617267217565,0 73.79107225320594,21.09626396775575,0 73.79092342726813,21.09635550198829,0 73.79072516297627,21.09644679738089,0 73.79057608048204,21.0965844561619,0 73.79037781547814,21.09667575140549,0 73.79017955017149,21.09676704654694,0 73.78998128451964,21.0968583415894,0 73.78973358016864,21.09694939689404,0 73.78958475208461,21.09704093074151,0 73.78943566733228,21.09717859006006,0 73.78923740019533,21.09726988480832,0 73.78898969403322,21.09736094034341,0 73.78879193970009,21.09735998372491,0 73.78849530822563,21.09735854851234,0 73.78829755344843,21.09735759151177,0 73.78810057016716,21.09721825765785,0 73.78790333010785,21.09712504925884,0 73.78770660477181,21.09693958975733,0 73.78750910799567,21.09689250725728,0 73.78736156462946,21.09675341253186,0 73.7873625941142,21.0965689109021,0 73.78731418516918,21.09638417063386,0 73.78726577662304,21.09619942989547,0 73.78711849140275,21.09601421023196,0 73.78692099610137,21.09596712732397,0 73.78682315001517,21.09578214722869,0 73.78677474202355,21.09559740689597,0 73.78677628726105,21.09532065683682,0 73.7867770598443,21.09518228162923,0 73.78667921412998,21.09499730276503,0 73.78613642889563,21.09481016528497,0 73.78603729526564,21.09485581060971,0 73.78583902766209,21.09494710118909,0 73.78569019797028,21.09503863160352,0 73.78554136795481,21.09513016134635,0 73.78539227954026,21.09526781686129,0 73.78539124724608,21.09545231754448,0 73.78534077677651,21.09563657780621,0 73.78548805941995,21.09582179864,0 73.78568529661155,21.0959150087545,0 73.7856842645909,21.09609950935745,0 73.785732671403,21.09628425064136,0 73.78578107775047,21.096468991441,0 73.78578004572157,21.09665349327105,0 73.78577901363862,21.09683799531226,0 73.7857777234625,21.09706862252008,0 73.78577669125779,21.0972531250561,0 73.78577540092941,21.09748375289947,0 73.7857249296751,21.09766801621874,0 73.78562501860128,21.09785203939484,0 73.78547592619309,21.0979896977868,0 73.78527765183017,21.09808099052547,0 73.78503045453181,21.09807979140802,0 73.78473459330992,21.09793997424206,0 73.78453683504014,21.097939014523,0 73.78429041397834,21.09779943679003,0 73.78419205230017,21.09770670555094,0 73.78389619185113,21.0975668874549,0 73.78369895131462,21.09747367519782,0 73.78350119340496,21.09747271454669,0 73.78330395292053,21.09737950194758,0 73.78310619417654,21.09737854095603,0 73.7829089542783,21.09728532865848,0 73.78271171389591,21.09719211554196,0 73.78256417299419,21.09705301680455,0 73.7824166322747,21.09691391802123,0 73.78221965229982,21.09677457934076,0 73.78207211194305,21.09663548040737,0 73.78187487218156,21.0965422665783,0 73.78172733211731,21.09640316810001,0 73.78157953253537,21.09631019463337,0 73.78138255329135,21.0961708546095,0 73.78123475386519,21.09607788089955,0 73.78108669352758,21.0960310327838,0 73.78083949521576,21.09602982856902,0 73.7806417355614,21.09602886500719,0 73.78034509608111,21.09602741935593,0 73.78009789636219,21.096026214363,0 73.77985069502523,21.09602500910508,0 73.77960349431187,21.09602380359311,0 73.77940573269562,21.0960228389933,0 73.77886266893968,21.09588180821845,0 73.77901203408481,21.09569802844559,0 73.77911195669182,21.09551400761421,0 73.77916243937672,21.09532974636132,0 73.77926236107668,21.09514572600212,0 73.7793128430777,21.09496146518888,0 73.77931388455488,21.09477696256717,0 73.77931518623519,21.0945463348346,0 73.77936592665627,21.09431594875935,0 73.77936722787894,21.09408532151831,0 73.77946714842989,21.09390130288283,0 73.77946844914302,21.09367067608353,0 73.77956836775019,21.09348665785087,0 73.77956940793148,21.09330215678761,0 73.77971876522649,21.09311838040527,0 73.77986812179954,21.09293460384873,0 73.77996777980296,21.09279671148171,0 73.78016605364557,21.09270542696789,0 73.78031540832386,21.09252165101329,0 73.78051368200178,21.09243036677898,0 73.78071221455498,21.09229295707535,0 73.78091022754766,21.09224779740207,0 73.78115741819234,21.09224900383906,0 73.78135465255865,21.09234221873333,0 73.78160184314839,21.09234342454997,0 73.78179907675944,21.09243663887114,0 73.78204574870355,21.09253009361363,0 73.78224350078406,21.09253105750849,0 73.78249069024893,21.09253226209464,0 73.78273787876759,21.09253346636581,0 73.78293562999015,21.09253442956128,0 73.78318281841101,21.09253563327332,0 73.7833805685562,21.09253659601661,0 73.78357831904543,21.09253755856295,0 73.78382550657601,21.09253876146371,0 73.78407269378445,21.09253996405255,0 73.78427044298897,21.09254092589742,0 73.78451737147604,21.09258825265371,0 73.78471512088691,21.09258921403825,0 73.78496230655304,21.09259041548492,0 73.78520897664912,21.09268386600374,0 73.78545616252393,21.09268506680014,0 73.78565391127012,21.09268602721554,0 73.78590109670716,21.09268722745495,0 73.78614828191675,21.092688427385,0 73.78634602959036,21.09268938710471,0 73.786593214419,21.09269058647806,0 73.78684039905183,21.09269178554221,0 73.78708758350004,21.09269298429721,0 73.78733476749335,21.09269418274176,0 73.78758195160623,21.09269538087864,0 73.78782913556836,21.09269657870654,0 73.78812575591454,21.09269801569116,0 73.78837293958465,21.0926992128395,0 73.78852150666198,21.0926538064382,0 73.78876868992586,21.09265500309797,0 73.78891751304903,21.09256347189604,0 73.7891646961302,21.09256466807154,0 73.78946131564038,21.09256610307157,0 73.78965906192725,21.09256705948972,0 73.78990624473609,21.09256825473285,0 73.79005532304936,21.09243059857528,0 73.79000691147473,21.09224586201448,0 73.78995850002451,21.09206112535723,0 73.789860652396,21.09187614972822,0 73.78986167748762,21.09169165237929,0 73.78986295883323,21.09146103070408,0 73.78986424015743,21.09123040912136,0 73.78986552146027,21.0909997876206,0 73.78986680274181,21.09076916619127,0 73.78986782775141,21.09058466915706,0 73.78986885274789,21.09040017207535,0 73.78986987773082,21.09021567502186,0 73.78977203140134,21.09003069988325,0 73.78967418530129,21.08984572465589,0 73.78952664747695,21.08970663449059,0 73.789379110041,21.08956754418944,0 73.78918188085333,21.08947433873956,0 73.78898465185669,21.08938113304081,0 73.78878690991482,21.08938017561958,0 73.78858993764506,21.08924084516562,0 73.78839219575745,21.08923988726849,0 73.7881450182239,21.08923868957152,0 73.78784840524206,21.08923725185915,0 73.7876012274172,21.08923605336695,0 73.78735379243729,21.08928097882682,0 73.78710635742227,21.08932590393662,0 73.78685892179708,21.08937082871096,0 73.78656256450361,21.08932326443965,0 73.78636507878242,21.08927617984196,0 73.78616759332971,21.08922909498373,0 73.78596984986601,21.08922813425013,0 73.78577236431097,21.08918104889574,0 73.7856245713313,21.08908807922716,0 73.78542734337067,21.08899486901384,0 73.78523011491457,21.08890165849116,0 73.78503288708201,21.08880844768147,0 73.78488535268488,21.08866935271534,0 73.78478751178153,21.08848437366928,0 73.78473910713151,21.08829963521498,0 73.78469070196142,21.08811489660136,0 73.78459286136406,21.087929917198,0 73.78449502144919,21.08774493771701,0 73.7843971810882,21.08755995790285,0 73.78429934083891,21.0873749780759,0 73.78430088744,21.08709823053051,0 73.78430191842253,21.08691373219161,0 73.78430320705634,21.08668310908355,0 73.78425480276849,21.08649836964116,0 73.78425609127994,21.08626774628244,0 73.78425737968553,21.08603712278013,0 73.7842586679853,21.08580649912372,0 73.78426021380578,21.08552975045294,0 73.78421155127863,21.08539113514402,0 73.78411371217275,21.08520615373604,0 73.78401587258897,21.08502117174869,0 73.78391803308322,21.08483618982678,0 73.7837707589244,21.08465096638481,0 73.78367291959033,21.08446598387383,0 73.78367420789662,21.08423535865431,0 73.78367549608852,21.08400473319859,0 73.78367678416792,21.08377410717175,0 73.78367807212942,21.08354348153649,0 73.78367884485368,21.08340510563819,0 73.78368013263248,21.08317447956945,0 73.78368116277626,21.08298997799101,0 73.78368219284339,21.08280547687385,0 73.78358435431201,21.08262049192137,0 73.78358538432394,21.08243598973106,0 73.78353723698093,21.08220512078998,0 73.78343939797574,21.0820201348998,0 73.78329212483477,21.08183490760848,0 73.78314459423525,21.0816958050051,0 73.78299732117695,21.08151057613459,0 73.78299860873236,21.08127994711977,0 73.78299963869016,21.08109544312228,0 73.78300092602211,21.08086481343223,0 73.78300195580124,21.08068030888092,0 73.78310185397831,21.08049628857629,0 73.78335031133172,21.08026686664027,0 
					</coordinates>
				</LinearRing>
			</outerBoundaryIs>
		</Polygon>
		<atom:link rel="app" href="https://www.google.com/earth/about/versions/#earth-pro" title="Google Earth Pro 7.3.7.1094"></atom:link>
	</Placemark>
</Document>
</kml>
