<?xml version="1.0" encoding="UTF-8"?>
<kml xmlns="http://www.opengis.net/kml/2.2" xmlns:gx="http://www.google.com/kml/ext/2.2" xmlns:kml="http://www.opengis.net/kml/2.2" xmlns:atom="http://www.w3.org/2005/Atom">
<Document>
	<name>Kotbandhani_all copartment numberr.kmz</name>
	<visibility>0</visibility>
	<atom:link rel="app" href="https://www.google.com/earth/about/versions/#earth-pro" title="Google Earth Pro 7.3.6.10201"></atom:link>
	<StyleMap id="msn_ylw-pushpin">
		<Pair>
			<key>normal</key>
			<styleUrl>#sn_ylw-pushpin</styleUrl>
		</Pair>
		<Pair>
			<key>highlight</key>
			<styleUrl>#sh_ylw-pushpin</styleUrl>
		</Pair>
	</StyleMap>
	<Style id="sh_ylw-pushpin">
		<IconStyle>
			<scale>1.3</scale>
			<Icon>
				<href>http://maps.google.com/mapfiles/kml/pushpin/ylw-pushpin.png</href>
			</Icon>
			<hotSpot x="20" y="2" xunits="pixels" yunits="pixels"/>
		</IconStyle>
		<LineStyle>
			<color>ff00ff00</color>
			<width>3.5</width>
		</LineStyle>
		<PolyStyle>
			<color>912bffc0</color>
		</PolyStyle>
	</Style>
	<Style id="sn_ylw-pushpin">
		<IconStyle>
			<scale>1.1</scale>
			<Icon>
				<href>http://maps.google.com/mapfiles/kml/pushpin/ylw-pushpin.png</href>
			</Icon>
			<hotSpot x="20" y="2" xunits="pixels" yunits="pixels"/>
		</IconStyle>
		<LineStyle>
			<color>ff00ff00</color>
			<width>3.5</width>
		</LineStyle>
		<PolyStyle>
			<color>912bffc0</color>
		</PolyStyle>
	</Style>
	<Placemark>
		<name>Kotbandhani_all copartment numberr</name>
		<visibility>0</visibility>
		<styleUrl>#msn_ylw-pushpin</styleUrl>
		<Polygon>
			<tessellate>1</tessellate>
			<outerBoundaryIs>
				<LinearRing>
					<coordinates>
						74.39964130867665,21.8023096915037,0 74.39976924676023,21.80146921073232,0 74.40018794107087,21.80053829268961,0 74.40063924437476,21.79978739171129,0 74.40057305062521,21.79882713358992,0 74.40041095622611,21.79852724957688,0 74.40050637503555,21.79756676141827,0 74.40079640177242,21.79702615375893,0 74.40124793991602,21.79642529435053,0 74.40134374364372,21.79570488454886,0 74.40186074644885,21.79561412209663,0 74.40195679123113,21.79504376482611,0 74.40198901630868,21.79498369574271,0 74.40214926890521,21.79414313702769,0 74.40214830106866,21.79354289640613,0 74.40256741674868,21.79288203132008,0 74.40305199884669,21.79273127940973,0 74.40343889049029,21.79213047455449,0 74.40301788750793,21.79162085778269,0 74.40353348573213,21.79065970037678,0 74.40405034140502,21.79047887711245,0 74.40404971336481,21.79008870130239,0 74.40463856297158,21.78929300410739,0 74.40395934718929,21.78899385633425,0 74.40344178111405,21.78872448824678,0 74.40243941076248,21.78845579880107,0 74.40127543311148,21.78818732723489,0 74.40091980804351,21.78812780055868,0 74.40020860450487,21.78803875552052,0 74.39969146856247,21.78803947228594,0 74.39885044065863,21.78762047471293,0 74.3981069513158,21.78756147402619,0 74.39707207861989,21.78720275083853,0 74.39584302212168,21.7866942207839,0 74.39441986854531,21.78609589714725,0 74.39325608789513,21.78600741474382,0 74.39192980721944,21.78537890850264,0 74.39092698760801,21.78490001969119,0 74.39137882015406,21.78444923446043,0 74.39212170309351,21.78408810721525,0 74.39325283887558,21.78396656828631,0 74.39412522285831,21.78375532655086,0 74.39532066954271,21.78345361259925,0 74.39616060168794,21.7831823788448,0 74.39748543446233,21.78297051226258,0 74.39881039024256,21.78284866994152,0 74.4004907446176,21.78266630220722,0 74.40375505956729,21.78269178856182,0 74.40582322163365,21.78253881677042,0 74.40625902063002,21.78208471630142,0 74.40664610997314,21.78157392697301,0 74.4068703082621,21.78031303357664,0 74.4075798843095,21.7793515897356,0 74.40835433423621,21.7785401264344,0 74.40896728780844,21.77781893599598,0 74.41003234589031,21.77685699978273,0 74.41083898574789,21.77601548477092,0 74.41171019158448,21.77514386437759,0 74.41300186614419,21.77445172095013,0 74.4141007848571,21.7744501457468,0 74.41477952020689,21.77444916773678,0 74.41581376760871,21.77444766996643,0 74.41665413471891,21.77447645885247,0 74.41762382131276,21.77453506414536,0 74.41755838771789,21.77408497367482,0 74.41739631383523,21.77381509832011,0 74.41707205935764,21.77321531820147,0 74.41684492042917,21.77270542981978,0 74.41726475034159,21.77252474089286,0 74.41797550056101,21.77237363869512,0 74.41900964096109,21.77234210875813,0 74.41978527785322,21.77234096450825,0 74.4206903943533,21.77245967292526,0 74.42133690971885,21.77254874701601,0 74.42224228403238,21.77281750289389,0 74.42288932978106,21.77320668769702,0 74.42337419593071,21.77326597911451,0 74.42408479579306,21.77305481574652,0 74.42443995911856,21.77287420286331,0 74.42434198286162,21.77230411825902,0 74.42424384419587,21.77164399194914,0 74.42433944347619,21.77089352715142,0 74.42511482818523,21.7707722950368,0 74.42579347690369,21.77077125723894,0 74.42699016430106,21.77130964580562,0 74.42712051564487,21.77190969520796,0 74.42699298509898,21.77287028554847,0 74.42718834921354,21.77368030640951,0 74.42786868332861,21.77460961465776,0 74.42906522140828,21.77505792191852,0 74.42977646486527,21.77520686420241,0 74.43084368832116,21.7756253437868,0 74.43065104375704,21.7763159077233,0 74.43123625359564,21.77685509570874,0 74.43181838996412,21.77706426808239,0 74.43236875930025,21.77757360286335,0 74.43362991968269,21.77796176360473,0 74.43447171058894,21.7787707340758,0 74.43553877990472,21.77906914441406,0 74.43641238323863,21.77960794447393,0 74.43725305021266,21.77981666919531,0 74.43802958632463,21.78029559083185,0 74.43883793351014,21.78050435768095,0 74.43945203268842,21.78053337086458,0 74.44032473112152,21.78059197074879,0 74.44110070256441,21.78077076756185,0 74.44171525665602,21.78103985796961,0 74.44300837643534,21.78124780738214,0 74.44417194081969,21.78130590734092,0 74.44565927036618,21.78166357013825,0 74.44674087705069,21.78160176157803,0 74.44716104182288,21.78160105773451,0 74.44780785205896,21.78181005233842,0 74.44848657141227,21.78180891018643,0 74.44926159927498,21.78147747865545,0 74.44981079435473,21.78135650583017,0 74.45042644724988,21.78216576565961,0 74.45123542956551,21.78267458081562,0 74.45243265479017,21.78339280527615,0 74.45375951681527,21.78429086485817,0 74.45437369813793,21.78434983061827,0 74.45586048952258,21.78440728813669,0 74.45702445013343,21.78464536175909,0 74.45770308607531,21.78461417272535,0 74.45841307060942,21.78410274998003,0 74.45889785137201,21.78410190565178,0 74.45925220201981,21.78353107851327,0 74.46002766549013,21.7834396909003,0 74.46083624336327,21.78373838554662,0 74.46148225090749,21.78355718604872,0 74.46180445620089,21.78307644367294,0 74.46264462062345,21.78301494253945,0 74.46461854584592,21.78272911877208,0 74.46461983031375,21.78335937645241,0 74.46471899544184,21.78443963460063,0 74.4654645672419,21.78551872192186,0 74.46656506630114,21.78629704339803,0 74.46727754801589,21.78698602492051,0 74.46763463175742,21.78773567007496,0 74.46815156589956,21.78812492210194,0 74.46863662224328,21.78824409670862,0 74.46944475358713,21.78830266540399,0 74.47060897038429,21.78863068445235,0 74.47141760311811,21.78892932812958,0 74.47200018694315,21.78931841120244,0 74.47258213657329,21.78940738310522,0 74.47326091824709,21.78943615388387,0 74.47335704906936,21.78904583622915,0 74.47400197575952,21.78835440277012,0 74.4748091986047,21.78799278814079,0 74.47561699564174,21.78790126646835,0 74.47636143918558,21.78841007803543,0 74.4767181788647,21.78897962588134,0 74.47791453165037,21.78921749237657,0 74.47968672090123,21.78918411814929,0 74.4807858313672,21.78924209400126,0 74.48188512204945,21.78939009581246,0 74.48324317140236,21.78962763509277,0 74.48476267723785,21.78980483121769,0 74.48566800013121,21.78995316858999,0 74.48641038251566,21.78950158791019,0 74.48663536090859,21.78893094706034,0 74.48766796172748,21.78825659441186,0 74.48844247465054,21.7877148475735,0 74.48918398865301,21.78687303943651,0 74.48960301890817,21.78636200705286,0 74.48969797746147,21.78546144435037,0 74.49040706756662,21.78458971226957,0 74.49069586112635,21.78365877970331,0 74.49192256330949,21.78302614919003,0 74.49179146687368,21.78221609201817,0 74.49237171060767,21.78155471284308,0 74.49295269272949,21.78122345692949,0 74.49317681572863,21.78029267353548,0 74.49340086720832,21.77933188313174,0 74.49340066344718,21.7792418506778,0 74.49414328676163,21.77894029057047,0 74.49475534091874,21.77806877604714,0 74.49527111989707,21.77749755805397,0 74.4961763456096,21.77764583413031,0 74.49636928965197,21.7772253016765,0 74.49695127570334,21.77734419868385,0 74.4978890322694,21.77758243487219,0 74.49976464037201,21.77808890603139,0 74.50135081722733,21.7791961667604,0 74.50206314925971,21.77967004216852,0 74.50141887684981,21.78060176758139,0 74.50084055091006,21.78210357999712,0 74.5008083689858,21.78216367015539,0 74.50071525816647,21.78384454452268,0 74.49987755618959,21.78498667755204,0 74.49936236475519,21.78582803293646,0 74.499431758016,21.78789867533215,0 74.49937008523474,21.78918927702942,0 74.49934046024762,21.79035976762196,0 74.49934343633099,21.79165023757145,0 74.49944435267419,21.79336067317754,0 74.49967387186548,21.79477075163352,0 74.49967958813538,21.7972317003947,0 74.49945877753781,21.79957309736217,0 74.49997914381368,21.80100032073263,0 74.50040086834589,21.80165972595981,0 74.50001685890686,21.8033411193706,0 74.49992453049721,21.80535204743493,0 74.49989533077563,21.80670260757644,0 74.50060835511944,21.80751149673412,0 74.5013222358948,21.80868052658105,0 74.50235975453695,21.80999898460187,0 74.5034622555729,21.81143738147373,0 74.50433915918138,21.81314637037895,0 74.50534491909062,21.81473869396537,0 74.50586469005583,21.81581806472682,0 74.50589715978739,21.81587802223282,0 74.50589856101288,21.81647825791661,0 74.50687329609578,21.81854709208678,0 74.50723346257158,21.82046712408809,0 74.50762556558435,21.82220703123681,0 74.50827707667462,21.82424656133107,0 74.50815009560679,21.82525889047956,0 74.50795814522658,21.82612964009921,0 74.507215358557,21.8264913070217,0 74.50640713952217,21.82652296949497,0 74.50569466023694,21.82601421961595,0 74.50398072228582,21.82583763071852,0 74.50297765815502,21.82547952030766,0 74.50161864088653,21.82497206369852,0 74.5011009599496,21.82479303549871,0 74.49980711660898,21.82449551383088,0 74.49890136794384,21.82425723082195,0 74.49822212990415,21.82410852580767,0 74.49692873108842,21.82399104581609,0 74.49621792587462,21.82417251769313,0 74.49524822492202,21.82423444953721,0 74.49505473507863,21.82444490804131,0 74.49431132980237,21.82450638809102,0 74.49308266732898,21.8244187542461,0 74.49214502403426,21.824360555458,0 74.49120758277982,21.82439238331109,0 74.49111127478812,21.82469268152755,0 74.49146897845631,21.82562233343268,0 74.49176284004581,21.8269122355341,0 74.49176290767335,21.82694224625288,0 74.49173274302515,21.82790265320363,0 74.49196080149839,21.82868249280488,0 74.49225365517066,21.82952222773739,0 74.49270978423141,21.83108190757083,0 74.49277640858628,21.83195209729113,0 74.49225029209549,21.83214387825076,0 74.49183136855885,21.83277495022829,0 74.49079816875063,21.83343721631907,0 74.49002256608277,21.8336187826236,0 74.48918156582404,21.8334703390201,0 74.48918277727319,21.83401055033309,0 74.48831005785067,21.83413226832704,0 74.48763201248514,21.83455372694886,0 74.48695430374647,21.83512523890046,0 74.48632483767997,21.83572094890305,0 74.48580948792304,21.83662233212526,0 74.48529386763289,21.83740365882253,0 74.48497227422816,21.83818463163651,0 74.48435909382145,21.83872601981745,0 74.48423145938494,21.83947663179212,0 74.48384539971434,21.8403477820177,0 74.48361814202747,21.83995799083582,0 74.48332621352152,21.83956832138121,0 74.48274312071658,21.83911915460527,0 74.48228884667739,21.83842964247833,0 74.48164057137777,21.83774049400623,0 74.48112172353893,21.83708113357481,0 74.48076443041421,21.83636145935499,0 74.47992180400021,21.83549261695577,0 74.47933813969414,21.83474336328247,0 74.47859322254146,21.83417448850252,0 74.47791344743599,21.83381558483669,0 74.47674772513716,21.83300739130986,0 74.47590567523437,21.83234867073974,0 74.47486933763498,21.83154025126527,0 74.47399474282595,21.83076155165032,0 74.47321709265844,21.82995266638573,0 74.4722781302287,21.82929413225496,0 74.47179236351653,21.8289048724424,0 74.47091922242136,21.8287864139477,0 74.47024024962298,21.8287576331334,0 74.46943202669902,21.82875909398869,0 74.46836530082652,21.82882103816605,0 74.46765381746913,21.82870227328773,0 74.46713605844933,21.82846311523249,0 74.46623048278821,21.82828467090113,0 74.46532583977924,21.82855638284638,0 74.46445321162497,21.82867797911566,0 74.46474522280663,21.82918764487939,0 74.46474788346609,21.83047811050135,0 74.46442638250808,21.83134900300837,0 74.46342447512362,21.83150083853523,0 74.4622939152687,21.83198302186014,0 74.46132413792645,21.83204475901886,0 74.46051612645338,21.83216622973019,0 74.45948209722235,21.83243815348091,0 74.45831836966255,21.83253023231715,0 74.45725215998958,21.8328922417307,0 74.45634693500435,21.83292383686933,0 74.45531290455106,21.83322576228375,0 74.45505377385601,21.83298611670719,0 74.45482662037371,21.83256634321257,0 74.45495435085002,21.83175579798426,0 74.45492035760446,21.83091552526193,0 74.45475721321637,21.83016551371442,0 74.45462639998586,21.82941544696429,0 74.4547216051116,21.82851493333396,0 74.45491373756137,21.82758424315508,0 74.4549444497478,21.82677387729083,0 74.45474836337608,21.82586914084821,0 74.45445569446117,21.82499925779998,0 74.45438969300544,21.8243090640329,0 74.45487360349628,21.82376797582275,0 74.45506723515069,21.82358755799038,0 74.45470954935273,21.82253773473704,0 74.45509574571712,21.82163668256988,0 74.45502937647113,21.82076644144344,0 74.45506005071948,21.81992604865188,0 74.45557636812943,21.81944495824489,0 74.45538126652467,21.81887507253437,0 74.45580011098852,21.81815406324723,0 74.45605652793402,21.81704318960852,0 74.45624857811691,21.81608248954647,0 74.45666739486425,21.81536149079992,0 74.45666625056599,21.81479127660669,0 74.45579280694329,21.81449266917159,0 74.4549510850179,21.81389388430961,0 74.45433601473681,21.81347477349677,0 74.45313921074276,21.81314668208369,0 74.45200680894735,21.8126984195049,0 74.45132724116378,21.81236943059355,0 74.45009728683566,21.81165119268649,0 74.44954696157657,21.81129195744665,0 74.44776740656206,21.81060460118197,0 74.44663497020751,21.81018626944022,0 74.44530845206648,21.80973821918554,0 74.44446689979434,21.80928936547935,0 74.44414457169825,21.80980012569102,0 74.44343029711889,21.81002314845965,0 74.44310866009604,21.8108639963224,0 74.44239882451565,21.81155542182293,0 74.44185089975423,21.81239664208902,0 74.44152953885417,21.81338755787838,0 74.44166057068081,21.81428770948525,0 74.44237400969115,21.81545703966061,0 74.44192258933731,21.81605802918661,0 74.44160035799041,21.81659878633457,0 74.44059884869112,21.81693055270592,0 74.43969368995094,21.81693201551924,0 74.43891812552515,21.81708333317954,0 74.43817494365969,21.81726461187273,0 74.43701229314544,21.81786675410118,0 74.43659278976286,21.81826734280411,0 74.43630073257133,21.81766758788921,0 74.43636409854217,21.81697723002539,0 74.43649177972429,21.81610670526741,0 74.43581148396146,21.81532751393648,0 74.43497068065918,21.81514879586191,0 74.43422613438987,21.81457977860947,0 74.43338417302375,21.81377082565707,0 74.43257443263427,21.81290179427728,0 74.43150565365362,21.81179307605675,0 74.43101906642163,21.81086349742617,0 74.43027442844142,21.8102344286259,0 74.42940037824005,21.80954552996096,0 74.42906772427386,21.80924558870318,0 74.42848594981143,21.80930650097909,0 74.42754836321096,21.80924789890572,0 74.42696615609508,21.80906870363278,0 74.4261249623904,21.80867980898228,0 74.42492858216056,21.80850154605407,0 74.42382962527614,21.80856323550627,0 74.42266661401742,21.80895515955722,0 74.42179340631839,21.80871637353354,0 74.42075794593427,21.80811768053246,0 74.42013095040953,21.80808902306315,0 74.41948345327251,21.80757973339506,0 74.41925661301666,21.80727992963032,0 74.41847950471214,21.80659075866746,0 74.41783220745513,21.80617152228941,0 74.41699165247718,21.80614273520745,0 74.41640855741208,21.80545329566169,0 74.41566489810525,21.8053643418744,0 74.414953991779,21.80551543745793,0 74.41443709486978,21.80569626119475,0 74.4137582592231,21.80569724487253,0 74.4130144674911,21.80551824843309,0 74.41191449469922,21.80497962207789,0 74.41126759462374,21.80474046110163,0 74.41071843930034,21.80495133457589,0 74.41023383027628,21.80510208999002,0 74.40952193765034,21.80465293749426,0 74.40897142074981,21.80405349693327,0 74.40816272696767,21.80369451881982,0 74.40719287455022,21.80360587095864,0 74.40622287757418,21.80342718611374,0 74.40544682391253,21.80324822187816,0 74.40431433366122,21.80252956041429,0 74.40392704825257,21.80289024132614,0 74.40276454152448,21.80358213848584,0 74.40192491263664,21.8040635010885,0 74.40092283470889,21.80403489588689,0 74.40040522332382,21.80376551805239,0 74.39959650841112,21.80337649972099,0 74.39964130867665,21.8023096915037,0 
					</coordinates>
				</LinearRing>
			</outerBoundaryIs>
		</Polygon>
	</Placemark>
</Document>
</kml>
