<?xml version="1.0" encoding="UTF-8"?>
<kml xmlns="http://www.opengis.net/kml/2.2" xmlns:gx="http://www.google.com/kml/ext/2.2" xmlns:kml="http://www.opengis.net/kml/2.2" xmlns:atom="http://www.w3.org/2005/Atom">
<Document>
	<name>भुरवेल_४९_316.kml</name>
	<StyleMap id="m_ylw-pushpin">
		<Pair>
			<key>normal</key>
			<styleUrl>#s_ylw-pushpin</styleUrl>
		</Pair>
		<Pair>
			<key>highlight</key>
			<styleUrl>#s_ylw-pushpin_hl</styleUrl>
		</Pair>
	</StyleMap>
	<Style id="s_ylw-pushpin">
		<IconStyle>
			<scale>1.1</scale>
			<Icon>
				<href>http://maps.google.com/mapfiles/kml/pushpin/ylw-pushpin.png</href>
			</Icon>
			<hotSpot x="20" y="2" xunits="pixels" yunits="pixels"/>
		</IconStyle>
		<LineStyle>
			<color>d600ffff</color>
			<width>2.8</width>
		</LineStyle>
		<PolyStyle>
			<color>8affffaa</color>
		</PolyStyle>
	</Style>
	<Style id="s_ylw-pushpin_hl">
		<IconStyle>
			<scale>1.3</scale>
			<Icon>
				<href>http://maps.google.com/mapfiles/kml/pushpin/ylw-pushpin.png</href>
			</Icon>
			<hotSpot x="20" y="2" xunits="pixels" yunits="pixels"/>
		</IconStyle>
		<LineStyle>
			<color>d600ffff</color>
			<width>2.8</width>
		</LineStyle>
		<PolyStyle>
			<color>8affffaa</color>
		</PolyStyle>
	</Style>
	<Placemark>
		<name>भुरवेल_४९_316</name>
		<styleUrl>#m_ylw-pushpin</styleUrl>
		<Polygon>
			<tessellate>1</tessellate>
			<outerBoundaryIs>
				<LinearRing>
					<coordinates>
						73.71764027030622,21.10459508413655,0 73.71763986418182,21.10448692727848,0 73.7176382390122,21.10405429913059,0 73.71775256690839,21.10362131066451,0 73.71809921233293,21.10329576207978,0 73.71844585431873,21.10297021147809,0 73.71890844981067,21.10264430070863,0 73.71937103493278,21.10231839056401,0 73.7197184825358,21.10220915297732,0 73.72018147360419,21.10199139696309,0 73.72064486441002,21.10188179709071,0 73.72110825431534,21.10177219590809,0 73.72157164071216,21.10166259341554,0 73.72203502099248,21.10155298961332,0 73.72261434807029,21.10144302363131,0 73.72296177655319,21.10133377952838,0 73.72354109265588,21.10122380861712,0 73.7237721620409,21.10100676968953,0 73.72423593732367,21.10100531579076,0 73.72469888919592,21.10078754830357,0 73.72516266113635,21.10078609139841,0 73.7257415458038,21.10056795659552,0 73.72620489870562,21.10045834068652,0 73.72666742275449,21.10013241375578,0 73.72713076889224,21.10002279526498,0 73.72759410932275,21.09991317536051,0 73.72794068316495,21.0995876097047,0 73.72840360633704,21.09936983201311,0 73.72886611158893,21.0990438989079,0 73.72944496126391,21.09882575101386,0 73.72979193718371,21.09860833674495,0 73.73025567670923,21.09860686466661,0 73.73048962289761,21.09914690358105,0 73.73049128281181,21.09957952086444,0 73.73060887484296,21.10001176909147,0 73.73095833711105,21.10044327474575,0 73.73130779856572,21.10087477845143,0 73.73154132701742,21.10130664934897,0 73.73177485235503,21.10173851624166,0 73.73212431198331,21.10217001079957,0 73.73247377092201,21.10260150054365,0 73.73259177735588,21.10314188417377,0 73.73294082109881,21.10346521898813,0 73.73340579828177,21.10378817671052,0 73.73375484059643,21.10411150635954,0 73.73410388235855,21.10443483368319,0 73.73456802753309,21.10454148573338,0 73.7349166531822,21.10475665822693,0 73.73515017519134,21.10518850327346,0 73.73526735212853,21.10551257343037,0 73.73526942498299,21.10605331310989,0 73.73550253194698,21.10637700517728,0 73.73562012272274,21.10680921814176,0 73.73596916255364,21.1071325307503,0 73.73631861650243,21.10756398814416,0 73.7367840029344,21.10799506364393,0 73.73713221243655,21.10810207646803,0 73.7374812508462,21.10842538035462,0 73.73794580605009,21.10864015681562,0 73.73852670432032,21.10896269781496,0 73.73899167285583,21.10928561413705,0 73.73945580982299,21.10939223854182,0 73.74003670496563,21.10971476894338,0 73.74038574119002,21.11003805915484,0 73.74061926556965,21.11046987260059,0 73.74085278743165,21.11090168443617,0 73.74131733830279,21.11111644334256,0 73.74178230216378,21.11143934282779,0 73.74213217387474,21.11197890942212,0 73.7422493503144,21.11230295459256,0 73.74236694569272,21.11273514277912,0 73.74260088518756,21.11327508800469,0 73.74283357750269,21.11349060408455,0 73.74329854588791,21.11381349333105,0 73.74387819264132,21.11381156869935,0 73.74434107322553,21.11359374326977,0 73.74468760596021,21.11326816109921,0 73.74526640971648,21.11304994778296,0 73.74572970156414,21.11294026098215,0 73.74630933630478,21.11293832803193,0 73.74688896903834,21.11293639282815,0 73.74746859982685,21.11293445537065,0 73.74793230230649,21.1129329037845,0 73.74816583266841,21.11336469228506,0 73.74828343674118,21.11379686887726,0 73.74828553474373,21.11433757365311,0 73.74817128651833,21.11477052548655,0 73.74794110927272,21.11520386558756,0 73.74771093014601,21.11563720530767,0 73.74736482148542,21.11607093341661,0 73.74713421976104,21.11639613161485,0 73.74702038260396,21.11693722292934,0 73.74690570807053,21.11726203295529,0 73.74679144924417,21.11769498358246,0 73.74632898268281,21.11802095759094,0 73.74598244299619,21.11834654298246,0 73.7455195520848,21.11856437513138,0 73.74505582705349,21.11856592463359,0 73.74459293138558,21.11878375455609,0 73.7441296185944,21.11889344261259,0 73.74355078503447,21.11911165715481,0 73.742855598118,21.11922211467441,0 73.74227634200207,21.11933218420346,0 73.74181301698842,21.11944186688491,0 73.74146562579033,21.11955116369648,0 73.74088594956874,21.11955308743685,0 73.74042220514519,21.1195546249823,0 73.73995845903271,21.11955616123711,0 73.739494713841,21.11955769619261,0 73.73903014046302,21.11934294518162,0 73.73856638974836,21.11934447728473,0 73.73810181458516,21.11912972290833,0 73.73763765245243,21.1190231091828,0 73.73717348641085,21.11891649405243,0 73.73670890855097,21.11870173423641,0 73.73636027010451,21.11848659148463,0 73.73612675099413,21.1180547799084,0 73.73589322937241,21.11762296718736,0 73.73565971050319,21.11719115345737,0 73.7355421289142,21.11675895835312,0 73.73449375333149,21.11546464244924,0 73.73402958488514,21.11535801169749,0 73.73356500771742,21.11514323389915,0 73.73333312576081,21.11514398922509,0 73.733680125977,21.11492656666818,0 73.73321513605735,21.11460364191188,0 73.7326346162689,21.11438923708421,0 73.73217003356139,21.11417445205853,0 73.7318209825457,21.11385114374929,0 73.73135639790775,21.11363635444674,0 73.73089140569998,21.11331341721074,0 73.73042681855053,21.1130986231002,0 73.73007776501235,21.11277530641076,0 73.72961317564209,21.11256050785599,0 73.72914817648557,21.11223756024429,0 73.7287995290358,21.11202238396107,0 73.72833453032581,21.1116994312449,0 73.72798547046236,21.1113761029759,0 73.72752046952725,21.1110531447391,0 73.72717181854726,21.11083796069812,0 73.72670722015044,21.11062314632804,0 73.72624261999933,21.11040832870892,0 73.72566248013928,21.11030202782138,0 73.72508274093813,21.11030387406034,0 73.72461894702806,21.11030534936222,0 73.72392325228007,21.11030755949833,0 73.72334350269892,21.11030939869766,0 73.72276374601118,21.11031123556192,0 73.7221839874384,21.1103130700745,0 73.72172058056532,21.11042268759622,0 73.72125676558079,21.11042415225654,0 73.72056104143084,21.11042634642763,0 73.72009721624332,21.11042780735386,0 73.71951743834963,21.11042963138176,0 73.71928390848619,21.10999774947535,0 73.71905037787786,21.10956586545806,0 73.71904795390878,21.10891694540701,0 73.71904593214342,21.10837617739572,0 73.71904431355608,21.10794356140119,0 73.71881078021639,21.10751167093178,0 73.71880875484268,21.10697089788791,0 73.71880672783691,21.1064301248542,0 73.71845683256802,21.10589043256691,0 73.71810734151433,21.10545889346971,0 73.71810571780516,21.10502626884351,0 73.71764027030622,21.10459508413655,0 
					</coordinates>
				</LinearRing>
			</outerBoundaryIs>
		</Polygon>
		<atom:link rel="app" href="https://www.google.com/earth/about/versions/#earth-pro" title="Google Earth Pro 7.3.7.1094"></atom:link>
	</Placemark>
</Document>
</kml>
