<?xml version="1.0" encoding="UTF-8"?>
<kml xmlns="http://www.opengis.net/kml/2.2" xmlns:gx="http://www.google.com/kml/ext/2.2" xmlns:kml="http://www.opengis.net/kml/2.2" xmlns:atom="http://www.w3.org/2005/Atom">
<Document>
	<name>केळवणपाडा _५७_३75.kml</name>
	<StyleMap id="m_ylw-pushpin">
		<Pair>
			<key>normal</key>
			<styleUrl>#s_ylw-pushpin</styleUrl>
		</Pair>
		<Pair>
			<key>highlight</key>
			<styleUrl>#s_ylw-pushpin_hl</styleUrl>
		</Pair>
	</StyleMap>
	<Style id="s_ylw-pushpin">
		<IconStyle>
			<scale>1.1</scale>
			<Icon>
				<href>http://maps.google.com/mapfiles/kml/pushpin/ylw-pushpin.png</href>
			</Icon>
			<hotSpot x="20" y="2" xunits="pixels" yunits="pixels"/>
		</IconStyle>
		<LineStyle>
			<color>d600ffff</color>
			<width>2.8</width>
		</LineStyle>
		<PolyStyle>
			<color>8affffaa</color>
		</PolyStyle>
	</Style>
	<Style id="s_ylw-pushpin_hl">
		<IconStyle>
			<scale>1.3</scale>
			<Icon>
				<href>http://maps.google.com/mapfiles/kml/pushpin/ylw-pushpin.png</href>
			</Icon>
			<hotSpot x="20" y="2" xunits="pixels" yunits="pixels"/>
		</IconStyle>
		<LineStyle>
			<color>d600ffff</color>
			<width>2.8</width>
		</LineStyle>
		<PolyStyle>
			<color>8affffaa</color>
		</PolyStyle>
	</Style>
	<Placemark>
		<name>केळवणपाडा _५७_३75</name>
		<styleUrl>#m_ylw-pushpin</styleUrl>
		<Polygon>
			<tessellate>1</tessellate>
			<outerBoundaryIs>
				<LinearRing>
					<coordinates>
						73.73853683240387,21.13788289816091,0 73.73857217753857,21.13785011493677,0 73.73864271896571,21.1378338597937,0 73.73869568698593,21.13780112209376,0 73.7387838011357,21.13780134951712,0 73.73903106667808,21.13762117934401,0 73.73933149553133,21.13734252462627,0 73.73941990563695,21.13724413057741,0 73.73947282292005,21.13722783016454,0 73.7395080679476,21.13722792115717,0 73.73959623053661,21.13721171173293,0 73.73964914765915,21.13719541132092,0 73.73971963793315,21.13719559328171,0 73.7398077503958,21.13719582071426,0 73.73989586317377,21.13719604812824,0 73.73998397546553,21.13719627552156,0 73.74005446547984,21.13719645742273,0 73.74016020020214,21.13719673025044,0 73.74026593480866,21.13719700304993,0 73.74033642461706,21.13719718490091,0 73.74040691437581,21.13719736673937,0 73.74051264872169,21.13719763947303,0 73.74056551585417,21.13719777582927,0 73.74065367684311,21.13718156624634,0 73.74074183812944,21.13716535665684,0 73.74079480366501,21.13713261936277,0 73.74086544082772,21.13708349072949,0 73.74090088226602,21.13701783492135,0 73.7409363236312,21.13695217870937,0 73.74098943652355,21.13687013125033,0 73.74102477969717,21.13683734865193,0 73.74111308747037,21.13677182894538,0 73.74116619998429,21.13668978214958,0 73.74123693466159,21.13660778042724,0 73.7413252418829,21.1365422609176,0 73.7413604864187,21.13654235181172,0 73.7414308276765,21.13659184362802,0 73.74150121767684,21.13662489874751,0 73.74157141164439,21.13672370063313,0 73.74162417983506,21.13675670985018,0 73.74167689893918,21.13680615623406,0 73.74172961807008,21.13685560262369,0 73.74180015582213,21.13683934755797,0 73.74187069351507,21.1368230924867,0 73.74194128000153,21.13679040070982,0 73.7420119156438,21.1367412722529,0 73.74208259999814,21.13667570760973,0 73.74211794222491,21.13664292507598,0 73.74218857737344,21.136593796699,0 73.74225921261598,21.13654466834668,0 73.74232984755211,21.13649554001719,0 73.74240043362232,21.13646284833677,0 73.7424710685648,21.13641372004206,0 73.74254170320287,21.13636459223036,0 73.74259466693474,21.13633185518835,0 73.74266530160199,21.13628272694735,0 73.74273588706934,21.1362500353075,0 73.74277127766319,21.13620081633254,0 73.74282433892756,21.13613520642778,0 73.74287730235821,21.13610246944408,0 73.74293036346583,21.13603685936726,0 73.74300099762414,21.13598773147365,0 73.7430891557958,21.13597152179719,0 73.74317726508504,21.13597174863171,0 73.74326537434287,21.13597197544007,0 73.74335348336993,21.13597220222179,0 73.74342392202931,21.13598882015698,0 73.74349436059273,21.1360054380749,0 73.74356479916203,21.1360220557448,0 73.74365290834052,21.13602228243367,0 73.74377611490695,21.13607190934894,0 73.74382893164892,21.13608848186118,0 73.74391699211051,21.13610514500425,0 73.74402262574398,21.13613828997489,0 73.74411068613705,21.13615495306345,0 73.74419879530437,21.1361551795845,0 73.74426913665538,21.13620467018667,0 73.74433957539401,21.13622128791674,0 73.74442768453237,21.1362215143695,0 73.74451569648645,21.13625461390091,0 73.7445685133618,21.13627118630023,0 73.74465652538881,21.13630428580414,0 73.74476215928554,21.13633743056145,0 73.74485012283465,21.13638696660114,0 73.74492056169809,21.13640358422317,0 73.74500867098506,21.13640381051131,0 73.74509678025784,21.13640403677567,0 73.74518488953036,21.13640426301627,0 73.74527309579454,21.13637161608716,0 73.74534368014723,21.13633892390721,0 73.74539664261759,21.13630618648783,0 73.74546727534678,21.13625705774522,0 73.74553795645815,21.13619149246307,0 73.74559091879672,21.13615875528398,0 73.74567917317746,21.13610967177635,0 73.74573213541311,21.13607693436278,0 73.74578514607722,21.13602776042622,0 73.74587330343823,21.1360115501752,0 73.74592626562824,21.1359788127507,0 73.74601437457443,21.13597903874498,0 73.74610253194375,21.13596282819766,0 73.74617301913287,21.13596300895273,0 73.74626112816,21.13596323487311,0 73.74649974777104,21.13576666095521,0 73.7465703352253,21.13573396674543,0 73.74662334890125,21.13568479122771,0 73.74671160782606,21.13563570515518,0 73.74678224390489,21.13558657429454,0 73.74687050205385,21.13553748828372,0 73.74692351522229,21.13548831289966,0 73.74697643115752,21.13547201066885,0 73.74704706671184,21.13542287991152,0 73.74711765358393,21.13539018584135,0 73.74718824034233,21.13535749201145,0 73.74725882658778,21.13532479795794,0 73.74732936462202,21.13530854054685,0 73.74739999954906,21.13525940987716,0 73.7474529634348,21.13522667104597,0 73.74752359812588,21.13517754065044,0 73.74755903635574,21.13511188384888,0 73.74761209687944,21.1350462721257,0 73.7476474869093,21.13499705198841,0 73.74770049881823,21.1349478766798,0 73.74773593672715,21.13488222025904,0 73.74778894846322,21.13483304500665,0 73.74785948561858,21.13481678767342,0 73.74794759618442,21.1348170116672,0 73.74798298580893,21.13476779164522,0 73.74798322762076,21.13468560922193,0 73.74798342104945,21.13461986312526,0 73.74800123627323,21.13455416209196,0 73.74801905185711,21.13448846085828,0 73.74803686739908,21.13442275965368,0 73.74807240131547,21.13432423053948,0 73.74810774227262,21.13429144719803,0 73.74812560556899,21.1342093097162,0 73.74814342091223,21.13414360874759,0 73.74814366239319,21.13406142650695,0 73.74816147766097,21.13399572559066,0 73.7481969628513,21.13391363307518,0 73.74823239968705,21.13384797704888,0 73.74823268926808,21.13374935848094,0 73.74826807813108,21.13370013895465,0 73.74826831937796,21.13361795688132,0 73.74830380422509,21.13353586452904,0 73.74832161916321,21.13347016378391,0 73.74833943406296,21.13340446294096,0 73.74835724852235,21.13333876222965,0 73.74837511155442,21.13325662512076,0 73.74839287812929,21.13320736085736,0 73.74841074067074,21.13312522378416,0 73.74842855537315,21.13305952307989,0 73.74848156527919,21.13301034858271,0 73.74853462327913,21.13294473763671,0 73.74855243782989,21.13287903703435,0 73.74858782565518,21.13282981764344,0 73.74862326198323,21.13276416190076,0 73.74862345456422,21.132698416463,0 73.74867646409254,21.13264924196712,0 73.74869427803958,21.13258354138634,0 73.74872971415932,21.13251788569929,0 73.74876510170513,21.13246866637002,0 73.74880058541568,21.13238657433519,0 73.74883597325982,21.13233735501887,0 73.7488890304985,21.13227174422119,0 73.7489244659146,21.13220608856139,0 73.74897752299374,21.13214047776506,0 73.74901295868281,21.13207482210791,0 73.74906596755206,21.13202564768216,0 73.74910140272092,21.13195999202851,0 73.74915450753485,21.13187794493003,0 73.74918994297389,21.1318122892507,0 73.7492430956281,21.13171380581653,0 73.74929615214543,21.13164819499034,0 73.74934920858156,21.13158258421609,0 73.74940231292803,21.13150053707217,0 73.74945536919594,21.13143492628297,0 73.74952599896692,21.13138579657499,0 73.74959658028406,21.131353103322,0 73.74968487936258,21.13128758215773,0 73.74975550885529,21.13123845238137,0 73.7498260899272,21.13120575905447,0 73.74987909777899,21.13115658442189,0 73.74993210597445,21.13110740989256,0 73.75000268685662,21.13107471639011,0 73.75007326807544,21.13104202297797,0 73.75014394502003,21.13097645671236,0 73.75021452589608,21.13094376324724,0 73.750267485503,21.13091102486585,0 73.75033811434024,21.13086189499687,0 73.75040874290066,21.13081276509861,0 73.75047932373241,21.13078007141274,0 73.75053233099092,21.13073089670851,0 73.75062058070068,21.13068181135207,0 73.75069116114524,21.13064911769101,0 73.75077945850724,21.13058359588742,0 73.75081479658702,21.13055081272227,0 73.75092066708379,21.13050177191413,0 73.75097362618826,21.1304690334166,0 73.75106182763128,21.13043638417085,0 73.75113240792986,21.13040369019146,0 73.7512382780843,21.13035464938915,0 73.75130881049328,21.1303383916897,0 73.75137943819104,21.13028926122306,0 73.75144997052057,21.13027300345522,0 73.75153807610273,21.13027322665404,0 73.75164385042036,21.13025705805308,0 73.75173195583093,21.13025728112769,0 73.75180239247477,21.13027389590729,0 73.75189040250849,21.1303069915923,0 73.75199603365864,21.13034013178365,0 73.75206651799964,21.1303403100596,0 73.75215462343189,21.13034053285353,0 73.75224272874389,21.13034075559047,0 73.75233073877176,21.13037385096198,0 73.75241879648816,21.13039050969501,0 73.75250680653407,21.13042360493856,0 73.75259486420654,21.13044026378142,0 73.7526652055228,21.13048975074642,0 73.75275312031984,21.13055571834796,0 73.75285870386338,21.13060529400983,0 73.75294676160574,21.13062195260648,0 73.75305248811128,21.13062221926393,0 73.75315821458408,21.13062248584183,0 73.7532639410643,21.1306227523403,0 73.75333442537443,21.13062292996179,0 73.75338728860669,21.13062306315472,0 73.75345777291651,21.13062324071441,0 73.75354592589807,21.13060702629425,0 73.75361655292745,21.13055789492196,0 73.75366946371506,21.13054159168313,0 73.75374009069344,21.1304924602322,0 73.75381067008206,21.13045976495019,0 73.75388134458146,21.1303941969524,0 73.7539343028362,21.13036145748738,0 73.75398730867188,21.13031228141957,0 73.75405788797472,21.13027958597476,0 73.7541284197288,21.13026332683703,0 73.75421652498396,21.13026354830009,0 73.75432225138857,21.13026381398058,0 73.75441035672578,21.13026403531814,0 73.75449846197938,21.13026425659836,0 73.75455123026515,21.13029726204714,0 73.75463933556314,21.13029748323848,0 73.75469215138649,21.1303140522801,0 73.75478025672527,21.13031427338177,0 73.75485069360073,21.13033088657735,0 73.75495632528441,21.13036402448171,0 73.7550444308183,21.13036424541813,0 73.75511486769538,21.13038085848212,0 73.75520283096465,21.13043038815253,0 73.75527326812286,21.13044700113975,0 73.75537875773793,21.13052944767134,0 73.7554491475845,21.13056249692444,0 73.75550191619537,21.13059550190032,0 73.75557225852573,21.13064498744063,0 73.75564264851661,21.13067803648612,0 73.7557306596687,21.13071112971934,0 73.75581867089218,21.13074422290303,0 73.75588915559729,21.13074439925934,0 73.75623639264714,21.13082740847618,0 73.75625401499936,21.13082745275462,0 73.75632436469998,21.13087694005629,0 73.75641247788572,21.13087716134909,0 73.75648287369663,21.13091021185309,0 73.75655331650785,21.13092682542893,0 73.75662371297189,21.13095987581012,0 73.75669410856098,21.13099292600733,0 73.75676445701251,21.13104241297304,0 73.75685247544784,21.1310755072108,0 73.7569228716125,21.13110855730867,0 73.7569933139613,21.13112517064863,0 73.75706375623476,21.13114178394045,0 73.757134199237,21.13115839707071,0 73.75723993335305,21.13115866184848,0 73.75732804523923,21.13115888243937,0 73.75739858119124,21.13114262233579,0 73.75750431482817,21.13114288693355,0 73.75759252031601,21.13111023410116,0 73.75768067784946,21.13109401787268,0 73.75776892999274,21.13104492847433,0 73.75783955926838,21.13099579487784,0 73.75792767021521,21.130996015186,0 73.75799825309775,21.13096331829139,0 73.75806874119729,21.13096349447573,0 73.75815685181774,21.13096371465933,0 73.75824500843891,21.13094749819673,0 73.75829801525737,21.13089832060394,0 73.75836859762225,21.13086562349699,0 73.7584567546954,21.13084940696056,0 73.758527382919,21.13080027334796,0 73.75863325512923,21.13075122771075,0 73.75870378975264,21.13073496708925,0 73.75877437114333,21.13070226987766,0 73.75886248034149,21.1307024897362,0 73.75893296786505,21.13070266558397,0 73.75903869882497,21.13070292928904,0 73.75912680771168,21.13070314898233,0 73.75921491689896,21.13070336862155,0 73.7593030255852,21.1307035882047,0 73.75939113457487,21.13070380773379,0 73.7594439997616,21.13070393942441,0 73.75956721152039,21.13075355614794,0 73.7596553198464,21.13075377549349,0 73.75972575991223,21.13077038731033,0 73.75981377455373,21.13080347952692,0 73.75988421451839,21.13082009135394,0 73.75995465443791,21.13083670313627,0 73.76002509391175,21.13085331475751,0 73.76011315548023,21.1308699702518,0 73.76018359525676,21.13088658189149,0 73.76027160956924,21.13091967371764,0 73.76032442755658,21.13093624137083,0 73.76039486721506,21.13095285287432,0 73.76046535355033,21.13095302789629,0 73.76057108275775,21.13095329036431,0 73.76065919021141,21.13095350902828,0 73.76072967636046,21.13095368392141,0 73.76080025582947,21.13092098605257,0 73.76087074187049,21.13092116088427,0 73.76095884905538,21.1309213793747,0 73.76102933499287,21.13092155412887,0 73.76109982088555,21.13092172884859,0 73.76118792788839,21.13092194719904,0 73.76125850696373,21.13088924903936,0 73.76134661383018,21.13088946730107,0 73.76145234214498,21.13088972914423,0 73.76154044927209,21.13088994728813,0 73.76161093484896,21.13089012176417,0 73.76171666294108,21.13089038341295,0 73.7618223909485,21.130890644984,0 73.7618928763747,21.13089081932183,0 73.7619986040456,21.13089108076282,0 73.76210433203984,21.13089134212708,0 73.7622276809699,21.13089164695307,0 73.76235103000158,21.13089195167379,0 73.76245675755246,21.13089221277852,0 73.76254481733719,21.13090886665737,0 73.76259763454581,21.13092543349465,0 73.76266802660487,21.13095848002153,0 73.76272089030984,21.13095861046067,0 73.76280895001663,21.13097526415535,0 73.7628970561916,21.1309754814551,0 73.76300278346902,21.13097574214399,0 73.76307317526819,21.13100878843837,0 73.76316118840363,21.13104187822534,0 73.7632316733326,21.13104205189154,0 73.76330206512216,21.13107509816503,0 73.76337250356903,21.13109170796236,0 73.7634429418071,21.13110831783693,0 73.76349561979391,21.13117419311705,0 73.76351310158977,21.13122354542039,0 73.76351286937097,21.13130572683457,0 73.76347744110127,21.13137138518366,0 73.76347720884692,21.13145356656981,0 73.7634769765822,21.13153574794019,0 73.76347674430707,21.13161792929611,0 73.76347655847958,21.13168367434822,0 73.76349399403023,21.13174946281611,0 73.76351142938692,21.13181525121374,0 73.7635288182929,21.13189747588479,0 73.76354620740666,21.13197970054217,0 73.76358126399612,21.13204553228318,0 73.7636338957698,21.13212784359958,0 73.76368662017509,21.13217728235823,0 73.76370405570906,21.13224307071043,0 73.76375664092839,21.13234181819958,0 73.7638092727352,21.1324241294143,0 73.76386190448277,21.13250644060312,0 73.76393206476915,21.13262166755639,0 73.76400231798389,21.13270402198507,0 73.76403737503374,21.13276985356574,0 73.76405485704868,21.13281920558217,0 73.76410753552102,21.1328850804317,0 73.76414259254219,21.13295091199111,0 73.76421293878272,21.13300039383606,0 73.76426561726551,21.13306626860874,0 73.76430067448356,21.13313210017028,0 73.76431806392243,21.1332143246387,0 73.76431783195002,21.13329650592215,0 73.76433526770201,21.13336229424455,0 73.76437032500938,21.13342812582078,0 73.76437004666329,21.13352674331442,0 73.76442272538247,21.13359261820418,0 73.76444016130759,21.13365840650064,0 73.76433391978428,21.13383632203853,0 73.76428096224051,21.13386906560723,0 73.76429839864342,21.13393485602066,0 73.76433341030913,21.13401712598889,0 73.76428040641397,21.13406630623246,0 73.76422735617211,21.13413192315299,0 73.76419197381841,21.13418114663314,0 73.76420945653207,21.13423050011344,0 73.76426222886157,21.13426350306975,0 73.76433262288516,21.13429654977011,0 73.76440297059351,21.13434603309549,0 73.76445569671942,21.13439547304627,0 73.76449070843002,21.13447774297476,0 73.76447290156781,21.13454344629675,0 73.76447262366436,21.13464206567313,0 73.76449015263539,21.13467498222249,0 73.76445472404043,21.13474064211657,0 73.76443691704142,21.13480634525783,0 73.76436619863657,21.13488835503598,0 73.76436605965597,21.13493766433667,0 73.76436582801514,21.13501984722319,0 73.76436559636898,21.13510203004586,0 73.76434783563786,21.1351512961721,0 73.76429473883351,21.13523334896561,0 73.7642769780721,21.13528261525797,0 73.76427679272024,21.1353483611374,0 73.76427660736397,21.13541410721059,0 73.76427637566401,21.13549628951925,0 73.76429381207136,21.13556207882205,0 73.76431124848369,21.13562786808541,0 73.76434635291972,21.13567726390429,0 73.76436383568455,21.13572661662632,0 73.76441651558554,21.13579249237326,0 73.76446924194047,21.13584193137502,0 73.76450434642139,21.13589132728913,0 73.76455707275484,21.13594076644291,0 73.76459213098693,21.13600659849689,0 73.76460952111016,21.13608882390691,0 73.76464453304912,21.13617109229039,0 73.76464439407982,21.13622040152916,0 73.76464416246181,21.13630258332721,0 73.76464397716408,21.1363683289196,0 73.76462617008585,21.13643403123243,0 73.76462598477826,21.13649977654115,0 73.76460817762771,21.13656547880155,0 73.76459037051373,21.13663118080488,0 73.76459018518638,21.13669692627159,0 73.76460762166339,21.13676271496939,0 73.76462505819973,21.13682850340993,0 73.76462487287607,21.13689424880726,0 73.76464230937424,21.13696003720026,0 73.7646597922604,21.13700938946392,0 73.76465956061197,21.13709157101913,0 73.7646593289597,21.13717375254414,0 73.76469438738266,21.13723958420114,0 73.76469415573912,21.13732176567388,0 73.76469392409196,21.13740394712016,0 73.76469369244109,21.13748612854133,0 73.76471112899611,21.13755191687272,0 73.76471085101647,21.13765053454767,0 73.76469309013174,21.13769980008216,0 73.76472814864992,21.13776563171399,0 73.76472796333015,21.13783137675259,0 73.76474539992074,21.13789716500762,0 73.76476283657264,21.13796295324884,0 73.76478027318551,21.13802874153455,0 73.7648152854684,21.13811100924472,0 73.76481510017219,21.1381767542277,0 73.76481482222404,21.1382753717451,0 73.76481463692296,21.13834111670927,0 73.76483202731154,21.13842334114931,0 73.76481417366156,21.13850547915128,0 73.76481394202629,21.13858766036079,0 73.76479613472193,21.13865336211473,0 73.76479594940201,21.13871910706671,0 73.76479571774919,21.1388012882642,0 73.76479543976171,21.13889990569236,0 73.76479525443418,21.13896565064428,0 73.76483031323106,21.13903148202387,0 73.76486537205641,21.13909731338651,0 73.76491800666841,21.13917962419124,0 73.76493544347601,21.13924541233982,0 73.76497050239296,21.13931124369898,0 73.76504080554504,21.13937716143196,0 73.76507586453879,21.13944299277602,0 73.76509320884394,21.13954165338433,0 73.76514584373636,21.13962396414856,0 73.76519852499115,21.13968983869399,0 73.76521600827176,21.13973919056486,0 73.76525106742912,21.13980502193807,0 73.7652861266299,21.13987085325565,0 73.76532113959054,21.13995312091401,0 73.76533843786166,21.14006821782023,0 73.76535578243291,21.14016687858613,0 73.76535550481344,21.14026549622306,0 73.76533760496274,21.14036407073317,0 73.76531979763364,21.14042977266551,0 73.76530199028589,21.1404954746117,0 73.76530175890085,21.14057765604679,0 73.76530152751533,21.14065983750833,0 73.76528367384174,21.14074197583554,0 73.76526586643224,21.14080767786126,0 73.76526568130369,21.14087342306983,0 73.76524787385488,21.14093912524911,0 73.76521244407631,21.141004784049,0 73.76521225891686,21.14107052943536,0 73.76522969609378,21.14113631778002,0 73.765282331723,21.14121862906672,0 73.7653174376095,21.14126802448257,0 73.76537011962829,21.14133389920432,0 73.76544042408324,21.14139981732236,0 73.76547557635556,21.14143277638347,0 73.76552825853973,21.14149865113518,0 73.76558098702341,21.14154808973921,0 73.76565129174307,21.14161400788565,0 73.76566872926456,21.14167979640981,0 73.7657037892462,21.14174562832697,0 73.7657564717224,21.1418115031692,0 73.76575628688087,21.14187724887756,0 73.76575605583142,21.14195943082469,0 73.76575582478321,21.14204161305191,0 73.76572034873669,21.14212370883201,0 73.76568487263852,21.14220580488859,0 73.76563186641728,21.14225498489393,0 73.7656316815084,21.14232073058749,0 73.76563149659965,21.1423864765473,0 73.76557849026764,21.14243565638098,0 73.76552543764373,21.14250127296438,0 73.76550758385224,21.14258341239458,0 73.76548977628295,21.14264911511887,0 73.76545439233581,21.14269833842006,0 73.76543658471364,21.14276404120836,0 73.76541877707461,21.14282974426629,0 73.76540096940657,21.14289544736337,0 73.76540078435508,21.1429611936566,0 73.76540055304206,21.14304337611946,0 73.76543561331567,21.14310920881768,0 73.76548834258125,21.14315864809595,0 73.76554107188829,21.14320808739134,0 73.76559380124991,21.14325752670446,0 73.76564648444678,21.14332340221116,0 73.76568159121317,21.14337279842816,0 73.76571660559901,21.1434550679877,0 73.76578691173737,21.14352098722105,0 73.76583959524649,21.1435868633561,0 73.76587465603912,21.14365269593755,0 73.76592738581132,21.14370213545205,0 73.76564252212999,21.14398010942881,0 73.76567755517731,21.14396385961798,0 73.76567749760073,21.14402921922494,0 73.76573001018912,21.14407839801981,0 73.7658000774411,21.14411128405472,0 73.76587016681364,21.14412781730862,0 73.76595780366543,21.14416076374758,0 73.76595781400265,21.14417713389668,0 73.76594028614403,21.14417709097396,0 73.7659929369686,21.14425911436865,0 73.76601051761588,21.14430832876435,0 73.76602812410044,21.144373974149,0 73.7660633154307,21.14445612837088,0 73.76611612428833,21.14455483503163,0 73.76609853789785,21.14453835518397,0 73.76604581563535,21.14450536117082,0 73.76601065275673,21.14445599942381,0 73.76594043583131,21.14445582747448,0 73.76588777728004,21.14447212078218,0 73.76585266995548,21.1445377530858,0 73.76585267525964,21.14461996628084,0 73.76587025290149,21.14466937215284,0 73.76588784818902,21.14475174479167,0 73.76590545337992,21.14481770403636,0 73.76597585507704,21.14488383927348,0 73.76604627025888,21.14491701062783,0 73.7661343373636,21.1449667465779,0 73.7662048119018,21.14499994728878,0 73.76624016490918,21.14506612529778,0 73.76632835406134,21.14511594052765,0 73.76638134765707,21.14516569598393,0 73.76643447495368,21.14524859429526,0 73.7664875345104,21.14529842037276,0 73.76652292333488,21.14533165249289,0 73.76652304460241,21.14536481008673,0 73.76647006856079,21.14534810033221,0 73.76647040433485,21.14544762603183,0 73.76645291974283,21.14549738547995,0 73.76647079653586,21.14556387348956,0 73.76647102087581,21.14563036558218,0 73.76640031042869,21.14561356519764,0 73.76640021083132,21.14558031917012,0 73.76647096477551,21.14561373813316,0 73.76650652894551,21.14568035219568,0 73.76652444236022,21.14574697037678,0 73.76654236854692,21.14581363604639,0 73.76654268128669,21.14589698074631,0 73.76657839074581,21.14598048626004,0 73.76657858816978,21.1460305733381,0 73.76661433925661,21.14611419800796,0 73.76663233267328,21.14618112545585,0 73.76663268623001,21.14626479767163,0 73.76659743884065,21.14631495000543,0 73.76659777706921,21.14639874172424,0 73.76659811560745,21.14648260829037,0 73.76654506747489,21.14653283391425,0 73.76649204906352,21.14659988664752,0 73.766456756008,21.14666703082358,0 73.76642138556838,21.14671739869716,0 73.766386045085,21.14678462697023,0 73.76633285445786,21.14683501454047,0 73.7662796744938,21.14690228349509,0 73.766244212167,21.14695277769517,0 73.76622656033578,21.14702021831814,0 73.7661910928056,21.14708766356793,0 73.76619125014523,21.14717214726108,0 73.76620919354224,21.1472398322813,0 73.76622714983672,21.14730756613016,0 73.76626294927196,21.14737539229802,0 73.7662809377122,21.14744322326509,0 73.76633462531458,21.14751119063187,0 73.76637045430401,21.14756218729204,0 73.76644206215387,21.14763028369311,0 73.76649574288389,21.1476643941151,0 73.76656736911603,21.1477155608778,0 73.76663896215784,21.1477497454874,0 73.76671065937096,21.1478009582985,0 73.76676452023051,21.14785215499186,0 73.7668362004527,21.14788638903726,0 73.76690800274042,21.14793767540349,0 73.76697984388903,21.14798898972388,0 73.76705172382819,21.14804033178196,0 73.76712364289483,21.14809170136177,0 73.76723153158191,21.14816026689978,0 73.76730354483944,21.14821170159415,0 73.76737559692791,21.14826316388701,0 73.76744768829225,21.14831465428383,0 73.76751981855537,21.14836617256672,0 73.76757421614252,21.14843480438173,0 73.76762865330075,21.14850348603964,0 73.76762930021165,21.14857208558472,0 73.76763010951883,21.14865790454351,0 73.76763075750372,21.14872661578536,0 73.76766733436924,21.14879546448,0 73.76766799632884,21.14886427527631,0 73.7676866362071,21.14893317968917,0 73.76768730566351,21.14900209024162,0 73.76774177420877,21.1490539380761,0 73.76781372900174,21.14905411425958,0 73.76786824680602,21.14910599009922,0 73.76792279451607,21.14915789440447,0 73.76797737174437,21.1492098269555,0 73.76803217768999,21.14927907023726,0 73.7680688046442,21.14933102466376,0 73.7681234712947,21.14938305102826,0 73.76816035393571,21.14945237598052,0 73.76823311158557,21.14950451314641,0 73.76828809539163,21.14957397052685,0 73.76832484889894,21.14962608566553,0 73.76837967010914,21.14967827343791,0 73.76841670318463,21.14974781252356,0 73.76843570227692,21.14981735848426,0 73.76843664786824,21.14988691083259,0 73.768437594161,21.14995651384242,0 73.76842046062407,21.15002612327663,0 73.76840331439018,21.1500957829558,0 73.76834973931243,21.150147961676,0 73.76827781552564,21.15018267466272,0 73.76820608118975,21.15023485656275,0 73.76813430781151,21.15028706700333,0 73.76804438474126,21.15033926162603,0 73.76797213818708,21.1503565626088,0 73.76789969059959,21.15035638505881,0 73.76782742428813,21.15037368867947,0 73.76775462049464,21.15033855149454,0 73.7676821794003,21.15033837395542,0 73.76759146827622,21.15032067680205,0 73.76753698765302,21.15030307163347,0 73.76744645302128,21.15030284974584,0 73.76735564175135,21.15026769345761,0 73.76726486387314,21.15023254999853,0 73.76717411895426,21.15019741935986,0 73.76713768818934,21.15016243456997,0 73.76706520163708,21.15014481393598,0 73.76699262343415,21.15010975963763,0 73.76692007161856,21.15007471811726,0 73.76682946413757,21.15003964505021,0 73.76673888971995,21.15000458525192,0 73.7666844224962,21.14995221810405,0 73.76661205670874,21.14993463586433,0 73.76655770935636,21.14989970241706,0 73.76648531615777,21.14986473740917,0 73.76641284506832,21.14979502261655,0 73.76637662926818,21.14976018424445,0 73.7663043217706,21.149725270052,0 73.76619600692689,21.14972500456328,0 73.76612379712951,21.14972482756519,0 73.76605162575787,21.14975938761584,0 73.76597941544642,21.14977658382447,0 73.76588913294057,21.14979373888563,0 73.76583495539887,21.14981098561184,0 73.76576270565388,21.14982819119268,0 73.76569044272985,21.14984539989963,0 73.76561816667369,21.14986261173387,0 73.76552783866495,21.14986239027487,0 73.76545561129305,21.1498448241595,0 73.7653833554653,21.14984464699968,0 73.76531109963875,21.1498444698356,0 73.76522077985751,21.14984424837455,0 73.76513058932886,21.1498092586576,0 73.76504043164456,21.14977428166449,0 73.76496836087082,21.1497393616605,0 73.7648961444998,21.14973918456694,0 73.76482420555324,21.14968691692998,0 73.76475220688619,21.149652029152,0 73.76468012888871,21.14963450126556,0 73.76460828810636,21.14958229064217,0 73.76453636796036,21.1495474403839,0 73.76446434887892,21.14952993153184,0 73.76439260608005,21.14947777782377,0 73.76433892688401,21.14942569673065,0 73.76426725734312,21.14937359979001,0 73.76419547747226,21.14933882531858,0 73.76412372365503,21.14930406394433,0 73.76403382209638,21.14928655517133,0 73.76398012529772,21.14925185641473,0 73.76385406767319,21.14925154711598,0 73.7637283934226,21.14921668425693,0 73.76363876811597,21.14918192236779,0 73.76358496764573,21.14916452405691,0 73.76345939910338,21.14912969270935,0 73.76338741167967,21.14912951602385,0 73.76329765813495,21.14911203882636,0 73.76324414351841,21.14907740329649,0 73.76313643708043,21.14905989138098,0 73.76310095320513,21.14902531860427,0 73.7630295147254,21.1489906700442,0 73.76295784066616,21.14897326216436,0 73.76286900697313,21.14890414785423,0 73.76279765572964,21.1488695431335,0 73.76270836100055,21.14883490679357,0 73.76265531890924,21.14878317429259,0 73.7625481291071,21.14874852508389,0 73.76253076735466,21.14871410918109,0 73.76245985393385,21.14866239804087,0 73.76240661654541,21.14862792481768,0 73.7623348178242,21.14862774842268,0 73.76226366604615,21.14859324357516,0 73.76217393364179,21.14859302309139,0 73.76213904523074,21.14854146580388,0 73.76206796092089,21.1485069920795,0 73.76199690248093,21.14847253079052,0 73.76192622324621,21.14842095030347,0 73.76187350784581,21.1483694420338,0 73.76180253557035,21.14833503039157,0 73.76171292466597,21.14833481007948,0 73.76160615628491,21.14830032273567,0 73.76149942637471,21.14826584779689,0 73.7614460754306,21.14824861497599,0 73.76133859041931,21.14824835062114,0 73.76126775965858,21.14821398264756,0 73.76119653489289,21.14819671506816,0 73.76112532293902,21.14817945058596,0 73.76105455569345,21.1481451071247,0 73.76098425246931,21.14809370319757,0 73.76091398681959,21.14804232726925,0 73.76084375913271,21.14799097883726,0 73.7607726557835,21.14797375143453,0 73.76070249152185,21.14792243996497,0 73.76064884070357,21.14792230788249,0 73.76055942274625,21.14792208773142,0 73.76050481006685,21.14795604271811,0 73.76043228742414,21.14798996589705,0 73.76037664660127,21.14805806927751,0 73.76033886873975,21.1481262656291,0 73.76028265226282,21.14821155853885,0 73.76026323063464,21.14826280627359,0 73.76022537073858,21.14833115067647,0 73.76015213928628,21.1483823310683,0 73.7600788680613,21.14843353896639,0 73.76002349423129,21.14848481902359,0 73.75996755922725,21.14855327986593,0 73.75993060325456,21.14858750653354,0 73.75985773342796,21.14862165747643,0 73.7597842891455,21.14867299544162,0 73.75971080489926,21.14872436128721,0 73.75960248092242,21.148741282924,0 73.75954745691456,21.14877553375678,0 73.75945647695529,21.14880970856464,0 73.75938401981904,21.14882673427981,0 73.75929357800318,21.14884371885195,0 73.75922109324134,21.14886075073265,0 73.75913122793354,21.14886052956725,0 73.75905933569392,21.14886035262626,0 73.75880540055807,21.14880900082708,0 73.75860859834449,21.14880851294914,0 73.75841192767919,21.1487621375306,0 73.75816592463532,21.14876152726119,0 73.75791992139557,21.14876091674978,0 73.75767391794875,21.14876030599635,0 73.75747698332742,21.14880570465447,0 73.75728017996323,21.14880521573338,0 73.75708311258867,21.14889650161555,0 73.75688617645908,21.14894189992132,0 73.75664017161689,21.14894128821505,0 73.75639416650961,21.14894067626938,0 73.75614816112605,21.14894006408429,0 73.75595135694907,21.14893957416466,0 73.75575468478335,21.14889319649982,0 73.75550854642827,21.14893847128406,0 73.7553604103982,21.14912165411028,0 73.7552124072743,21.14925894878407,0 73.7551134724585,21.14944225464982,0 73.75501453662753,21.14962556013597,0 73.7549156003345,21.14980886654153,0 73.7547675951501,21.14994616258877,0 73.75466865787712,21.15012946884342,0 73.75447158314103,21.15022075446014,0 73.75432410973818,21.1501744983016,0 73.75412756849208,21.15008223120607,0 73.7540296983875,21.14989843399996,0 73.75393182847326,21.14971463628823,0 73.75378462330346,21.14957660382401,0 73.75368662067369,21.14943869486242,0 73.75358875131552,21.14925489739445,0 73.75344154669352,21.14911686557464,0 73.75334367771079,21.14893306824559,0 73.75324567511841,21.14879515879711,0 73.75314780644696,21.14861136226982,0 73.75300060309205,21.14847332977216,0 73.75290286806003,21.14824364502314,0 73.75275566451685,21.14810561312238,0 73.75260846111732,21.14796758049933,0 73.75246152578384,21.14773777326305,0 73.75236352475842,21.14759986387944,0 73.75221632183126,21.14746183108209,0 73.75206911902666,21.1473237981884,0 73.75192204930877,21.14713987833727,0 73.75177484677229,21.14700184525138,0 73.75167698046789,21.14681804885714,0 73.75157911428225,21.14663425183908,0 73.7514319121324,21.14649621885444,0 73.75128470895673,21.14635818541886,0 73.75118684314742,21.14617438860588,0 73.75108897744001,21.14599059178987,0 73.75094177572197,21.14585255807386,0 73.75079470837966,21.14566863719503,0 73.75069697618866,21.14543895289481,0 73.75059911091128,21.14525515589988,0 73.750451909617,21.14511712202042,0 73.75030470838048,21.14497908765276,0 73.75020670788608,21.14484117767804,0 73.75015804471813,21.14465750463908,0 73.75001111247344,21.1444276957124,0 73.74991297777467,21.14433567245711,0 73.74981511303248,21.14415187492616,0 73.74971724722714,21.14396807731328,0 73.74971778478525,21.14378452852472,0 73.74957058414604,21.1436464933342,0 73.74947271959235,21.14346269549971,0 73.74927631737287,21.14332453523703,0 73.74917831849164,21.14318662433038,0 73.74908045297605,21.14300282589085,0 73.7491792594665,21.14286541394797,0 73.74932726591922,21.14272812702911,0 73.74942620472477,21.14254482802502,0 73.74937754154175,21.14236115482852,0 73.74918087163306,21.14231476815536,0 73.74898433580663,21.14222249413778,0 73.74878793419731,21.14208433261225,0 73.74859126475511,21.14203794502217,0 73.74844406448251,21.14189990794856,0 73.74824752804659,21.14180763258011,0 73.7480509914123,21.14171535686486,0 73.7478545891627,21.14157719348551,0 73.74765805215402,21.14148491703458,0 73.74751071686347,21.14139276578757,0 73.74731418060709,21.14130048870476,0 73.74711750824903,21.14125409870825,0 73.74692110514613,21.14111593343838,0 73.74672443221702,21.14106954277984,0 73.74652789494471,21.14097726424782,0 73.74638055871162,21.14088511132401,0 73.74623335615854,21.14074707051293,0 73.7460368182997,21.14065479099648,0 73.74584054901386,21.1404707356454,0 73.74564400954436,21.14037845526884,0 73.74544760482803,21.14024028665033,0 73.74530040270966,21.14010224407902,0 73.74510399871221,21.13996407457723,0 73.74495652610302,21.13991780703557,0 73.74476012050276,21.13977963679786,0 73.74456357946508,21.13968735386644,0 73.74441624134555,21.1395951975128,0 73.74431837673073,21.13941139169539,0 73.7441711735752,21.13927334662712,0 73.74397436120952,21.13927283861133,0 73.74372861644167,21.13918042688573,0 73.74353193718984,21.13913402991636,0 73.74333512434319,21.13913352097014,0 73.74303990290657,21.1391327570813,0 73.74284322193984,21.13908635920353,0 73.74264640717543,21.13908584934169,0 73.74244972745834,21.13903945067214,0 73.74225304501495,21.13899305181396,0 73.74205636432441,21.13894665245457,0 73.7418103413753,21.13894601366308,0 73.74156431748712,21.13894537447975,0 73.74136749903822,21.13894486285445,0 73.74112147343155,21.13894422296576,0 73.74087544909669,21.13894358269099,0 73.74067835402448,21.13903484799907,0 73.7404323277764,21.1390342071425,0 73.74023536711765,21.13907958326411,0 73.73998933674687,21.13907894176165,0 73.73979251306048,21.13907842828241,0 73.73954648084248,21.13907778607795,0 73.7393496556638,21.13907727203706,0 73.73915296636721,21.1390308683685,0 73.73895627424643,21.13898446449608,0 73.73875985701054,21.13884628127185,0 73.73871106050667,21.13870848406334,0 73.73871160667301,21.13852492623172,0 73.73871228905477,21.1382954787513,0 73.73871297107394,21.13806603113873,0 73.73853683240387,21.13788289816091,0 
					</coordinates>
				</LinearRing>
			</outerBoundaryIs>
		</Polygon>
		<atom:link rel="app" href="https://www.google.com/earth/about/versions/#earth-pro" title="Google Earth Pro 7.3.7.1094"></atom:link>
	</Placemark>
</Document>
</kml>
