<?xml version="1.0" encoding="UTF-8"?>
<kml xmlns="http://www.opengis.net/kml/2.2" xmlns:gx="http://www.google.com/kml/ext/2.2" xmlns:kml="http://www.opengis.net/kml/2.2" xmlns:atom="http://www.w3.org/2005/Atom">
<Document>
	<name>देवळीपाडा_१११_174.kml</name>
	<StyleMap id="m_ylw-pushpin">
		<Pair>
			<key>normal</key>
			<styleUrl>#s_ylw-pushpin</styleUrl>
		</Pair>
		<Pair>
			<key>highlight</key>
			<styleUrl>#s_ylw-pushpin_hl</styleUrl>
		</Pair>
	</StyleMap>
	<Style id="s_ylw-pushpin">
		<IconStyle>
			<scale>1.1</scale>
			<Icon>
				<href>http://maps.google.com/mapfiles/kml/pushpin/ylw-pushpin.png</href>
			</Icon>
			<hotSpot x="20" y="2" xunits="pixels" yunits="pixels"/>
		</IconStyle>
		<LineStyle>
			<color>d600ffff</color>
			<width>2.8</width>
		</LineStyle>
		<PolyStyle>
			<color>8affffaa</color>
		</PolyStyle>
	</Style>
	<Style id="s_ylw-pushpin_hl">
		<IconStyle>
			<scale>1.3</scale>
			<Icon>
				<href>http://maps.google.com/mapfiles/kml/pushpin/ylw-pushpin.png</href>
			</Icon>
			<hotSpot x="20" y="2" xunits="pixels" yunits="pixels"/>
		</IconStyle>
		<LineStyle>
			<color>d600ffff</color>
			<width>2.8</width>
		</LineStyle>
		<PolyStyle>
			<color>8affffaa</color>
		</PolyStyle>
	</Style>
	<Placemark>
		<name>देवळीपाडा_१११_174</name>
		<styleUrl>#m_ylw-pushpin</styleUrl>
		<Polygon>
			<tessellate>1</tessellate>
			<outerBoundaryIs>
				<LinearRing>
					<coordinates>
						74.07110191407735,21.20373940428509,0 74.07132543344805,21.20366865453005,0 74.07153419511596,21.20369535679125,0 74.0718024641332,21.20368001348964,0 74.07197362417986,21.20360261829501,0 74.07219689110077,21.20353192296629,0 74.07240556074279,21.20355861260505,0 74.07265915971007,21.20364067013717,0 74.07292001990241,21.20367403449506,0 74.07312870815221,21.20370072574841,0 74.07316467918015,21.20345730459803,0 74.07320061847655,21.20321409733313,0 74.0732365260851,21.20297110366012,0 74.07327240204943,21.20272832328597,0 74.07324901824965,21.20252759373903,0 74.07322565087071,21.20232700503513,0 74.07315027481566,21.20211990297773,0 74.07307495179512,21.20191294609574,0 74.07304449089698,21.20176114835958,0 74.07291727656619,21.20154779628722,0 74.07295320441119,21.20130623418179,0 74.07304102988972,21.20107152530307,0 74.07316636988858,21.20094009477677,0 74.07330593300146,21.20071234684094,0 74.07332735707327,21.20056783178127,0 74.07335590509591,21.20037526196903,0 74.07342915025102,21.20023755423345,0 74.07360602415348,21.2001131783835,0 74.07373808050323,21.19993418973147,0 74.0738182469081,21.19974870175702,0 74.07395013652595,21.19956996498611,0 74.07412664165101,21.19944592523072,0 74.07429601689658,21.19936988750699,0 74.07451708041303,21.19930049508178,0 74.074693328946,21.19917660082714,0 74.07490724647091,21.19915516471812,0 74.07516589419788,21.19918824378535,0 74.0753866901639,21.1991189174496,0 74.07541443085252,21.19892743958473,0 74.07559720550054,21.19875592407029,0 74.07577985262267,21.19858452772466,0 74.07590384094065,21.19845440781129,0 74.07603463466349,21.19827661685263,0 74.07616533706768,21.19809895005802,0 74.07619275070222,21.19790820845323,0 74.07637488782643,21.19773738865238,0 74.07655689814328,21.1975666879361,0 74.07673198478284,21.19744368371432,0 74.07690698018691,21.19732074332617,0 74.07708188404425,21.197197867349,0 74.07730146343232,21.19712916005053,0 74.07747618884314,21.19700638604277,0 74.07765082278378,21.19688367628441,0 74.07778058855079,21.19670699800642,0 74.07780736208115,21.19651728336212,0 74.0778408027783,21.19628032545172,0 74.07791894550111,21.19609748038181,0 74.07814455877981,21.19598179055137,0 74.07830539228134,21.19595419324849,0 74.07853082706184,21.1958385792953,0 74.07874954638089,21.19577029478615,0 74.07887863916756,21.19559439726423,0 74.0790076420224,21.19541862243933,0 74.07918131901238,21.19529671349741,0 74.07931013909926,21.19512114600784,0 74.07952840200377,21.19505308419676,0 74.07974658951974,21.19498504552094,0 74.07997118284254,21.19486991924337,0 74.08014439962626,21.19474829807309,0 74.08017670510677,21.1945129808545,0 74.08020252957969,21.19432487200224,0 74.08022833624501,21.19413689276082,0 74.08030531023503,21.19395558740683,0 74.08047814142114,21.19383441113111,0 74.080644475242,21.19376020297986,0 74.08085551612893,21.19373946166809,0 74.08106015007924,21.19376562464728,0 74.08124571642566,21.19393254817408,0 74.08145674279349,21.19391178626482,0 74.08143093988762,21.19371760465658,0 74.0815010880528,21.19358349613767,0 74.08171194750977,21.19356277811011,0 74.08196760797335,21.19359546320488,0 74.08222326947063,21.19362814792974,0 74.08247893143098,21.19366083221177,0 74.08268346157377,21.19368697934935,0 74.08288799144421,21.19371312613081,0 74.08310490670908,21.19364552862274,0 74.08331557491144,21.19362480806644,0 74.0835262076679,21.19360409081222,0 74.08378791505011,21.19358991029359,0 74.08406179082806,21.19348206381419,0 74.08442554932051,21.19348095963628,0 74.08464203356218,21.19341345159657,0 74.08484637254662,21.1934395707728,0 74.08509578251831,21.19351903656107,0 74.08539632982826,21.19360504634564,0 74.08554961168618,21.19362463840615,0 74.08567903207113,21.19383163892338,0 74.08582045676498,21.19394499356656,0 74.08600117707196,21.19415874738165,0 74.08614273129436,21.19427221671134,0 74.08627249226856,21.19447965260736,0 74.08651061327734,21.19465331260751,0 74.08659528201578,21.19480743361191,0 74.08651456794146,21.19503611452314,0 74.08649684259323,21.19517734609357,0 74.08657568514282,21.1953788679817,0 74.08659741429419,21.1956211357871,0 74.08662506707502,21.19581641246529,0 74.08649883231412,21.19599215282116,0 74.0863152532016,21.19620871861666,0 74.08624015494229,21.19639129163684,0 74.08616500454357,21.19657399212795,0 74.08603245730654,21.19679761974339,0 74.08601454877463,21.19693977222907,0 74.08598468070905,21.19717685637536,0 74.08606363959929,21.19737982098084,0 74.08608522878639,21.19762385798466,0 74.08606133222352,21.19781397661223,0 74.08603741922931,21.19800422639522,0 74.08601348961783,21.19819460881454,0 74.08598954345523,21.19838512334436,0 74.08595958753405,21.19862345183447,0 74.0860327555838,21.19887517274761,0 74.08595119584498,21.19910732594574,0 74.08592118446354,21.1993462796376,0 74.08588513655535,21.19963329767993,0 74.08586108372297,21.19982480994927,0 74.08583099429347,21.2000643871331,0 74.08570349143282,21.20024298081677,0 74.0855302276489,21.2003670903027,0 74.08545428093396,21.20055251169651,0 74.08528084607238,21.20067677806747,0 74.08504945812068,21.20084256654206,0 74.08488192590588,21.20091888544423,0 74.08466868177673,21.20094050594339,0 74.0844948900571,21.20106498112395,0 74.08441846744839,21.20125091942003,0 74.08439382376129,21.20144361428154,0 74.08436299508116,21.20168467154127,0 74.08433831271843,21.20187766955967,0 74.08431361313606,21.20207080255395,0 74.08439271599462,21.20227734211517,0 74.0843618413134,21.20251912305131,0 74.08433093967267,21.20276111564269,0 74.08430001103564,21.20300332017898,0 74.08426905536544,21.20324573695035,0 74.08429009541038,21.20349501688675,0 74.08431735032751,21.2036959289818,0 74.08445492921517,21.20386167924481,0 74.08442399595229,21.20410483460309,0 74.08434713245319,21.20429285232908,0 74.08431612744209,21.20453638928957,0 74.0842391663557,21.20472470747378,0 74.08406406730393,21.20485103132041,0 74.08388262843198,21.20502623664927,0 74.08370106062601,21.20520156451451,0 74.08363005561434,21.20534148382465,0 74.08345457969625,21.20546812551836,0 74.08332493658946,21.20565044125982,0 74.0832474549179,21.20583956572262,0 74.08321587163141,21.20608451335449,0 74.08304003821833,21.20621152953874,0 74.08291006555307,21.20639436412923,0 74.08273404247775,21.20652154035792,0 74.08255792616758,21.20664878362561,0 74.08237531378948,21.2068252397826,0 74.08219899344138,21.20695264172454,0 74.08212091458107,21.20714271005139,0 74.08199037572534,21.20732621231777,0 74.08191216768533,21.20751654703903,0 74.08188634730196,21.20771372176329,0 74.081762057188,21.20784828020579,0 74.08163121696414,21.20803227540219,0 74.08150028393126,21.20821640080649,0 74.08136925798827,21.20840065654247,0 74.08123813962087,21.2085850428976,0 74.08111346673182,21.20872005902511,0 74.08103473889344,21.20891139377749,0 74.08090337352618,21.2090961409735,0 74.08082451501673,21.20928774495573,0 74.08074560099185,21.20947948524048,0 74.08071926915149,21.20967809229669,0 74.08048889735241,21.20980020990033,0 74.08031106962154,21.20992912685243,0 74.08012650357645,21.2101078596064,0 74.07999450986877,21.21029345864582,0 74.07980969943506,21.21047244811549,0 74.07978298201019,21.21067179750073,0 74.07980900644995,21.2108780354321,0 74.0797755826744,21.21112760260624,0 74.07964321619968,21.21131391222996,0 74.07942528294977,21.2113368758558,0 74.07922079344608,21.21125989510186,0 74.07914217472191,21.21104660604788,0 74.07917588136391,21.21079707530878,0 74.07904460085292,21.21057737785077,0 74.07890665674631,21.21040765031755,0 74.07882149946894,21.21024475447721,0 74.07874315704935,21.21003218723606,0 74.07882289745029,21.20983997919444,0 74.0790011533083,21.20971106432432,0 74.07902810912678,21.20951235811331,0 74.07900242153849,21.20930706363626,0 74.07879868100184,21.20923053057262,0 74.07860174736638,21.20910441467235,0 74.07840488473934,21.20897834339944,0 74.07815550120574,21.20884559179224,0 74.07789937756804,21.20876242212399,0 74.07775530479584,21.20864319078349,0 74.07755185771539,21.20856678383062,0 74.0772889980197,21.20853316937758,0 74.07703304377372,21.20845005623532,0 74.0767771353612,21.20836695773056,0 74.07647566817249,21.20822768710693,0 74.07612176496293,21.20808174608471,0 74.07580650354178,21.20804142869788,0 74.0757609745263,21.20798527827448,0 74.07555081926819,21.20795840218782,0 74.07529518082816,21.20787539028651,0 74.07508504457888,21.20784851623279,0 74.07488199992024,21.20777223898825,0 74.07467899148602,21.20769597512347,0 74.07448314428338,21.2075703526069,0 74.07422771500121,21.20748741085572,0 74.07402483722696,21.20741119878428,0 74.07382917619697,21.20728567078104,0 74.07362638808226,21.20720949653041,0 74.07349774758703,21.20699217805538,0 74.0733619827585,21.20682425812294,0 74.07316661335398,21.20669894461133,0 74.07297131334441,21.20657367529597,0 74.07277608269766,21.20644845012814,0 74.07258092137286,21.20632326911856,0 74.07227369773069,21.20623387825741,0 74.07217617898996,21.20617131761384,0 74.0719141160957,21.20613779909189,0 74.07165205317294,21.20610428026492,0 74.07144978242835,21.20602832982793,0 74.0713147312363,21.20586087206548,0 74.07139665148517,21.20567122871112,0 74.07162822842602,21.20555085032521,0 74.07180733479051,21.20542384010449,0 74.07183667903097,21.20522782510766,0 74.0718660024567,21.20503194852663,0 74.07178338815419,21.20487175372538,0 74.07170815602072,21.20466275011791,0 74.07152110617507,21.20448938199559,0 74.07133415555603,21.20431610515907,0 74.07114730404984,21.20414291969946,0 74.0710201648203,21.20392773267318,0 74.07099012476773,21.20377478850279,0 74.07110191407735,21.20373940428509,0 
					</coordinates>
				</LinearRing>
			</outerBoundaryIs>
		</Polygon>
		<atom:link rel="app" href="https://www.google.com/earth/about/versions/#earth-pro" title="Google Earth Pro 7.3.7.1094"></atom:link>
	</Placemark>
</Document>
</kml>
