<?xml version="1.0" encoding="UTF-8"?>
<kml xmlns="http://www.opengis.net/kml/2.2" xmlns:gx="http://www.google.com/kml/ext/2.2" xmlns:kml="http://www.opengis.net/kml/2.2" xmlns:atom="http://www.w3.org/2005/Atom">
<Document>
	<name>Gaymukhi_271.kml</name>
	<StyleMap id="msn_ylw-pushpin">
		<Pair>
			<key>normal</key>
			<styleUrl>#sn_ylw-pushpin</styleUrl>
		</Pair>
		<Pair>
			<key>highlight</key>
			<styleUrl>#sh_ylw-pushpin</styleUrl>
		</Pair>
	</StyleMap>
	<Style id="sh_ylw-pushpin">
		<IconStyle>
			<scale>1.3</scale>
			<Icon>
				<href>http://maps.google.com/mapfiles/kml/pushpin/ylw-pushpin.png</href>
			</Icon>
			<hotSpot x="20" y="2" xunits="pixels" yunits="pixels"/>
		</IconStyle>
		<BalloonStyle>
		</BalloonStyle>
		<LineStyle>
			<color>c77fffaa</color>
		</LineStyle>
		<PolyStyle>
			<color>a63affa0</color>
		</PolyStyle>
	</Style>
	<Style id="sn_ylw-pushpin">
		<IconStyle>
			<scale>1.1</scale>
			<Icon>
				<href>http://maps.google.com/mapfiles/kml/pushpin/ylw-pushpin.png</href>
			</Icon>
			<hotSpot x="20" y="2" xunits="pixels" yunits="pixels"/>
		</IconStyle>
		<BalloonStyle>
		</BalloonStyle>
		<LineStyle>
			<color>c77fffaa</color>
		</LineStyle>
		<PolyStyle>
			<color>a63affa0</color>
		</PolyStyle>
	</Style>
	<Placemark>
		<name>Gaymukhi_271</name>
		<styleUrl>#msn_ylw-pushpin</styleUrl>
		<Polygon>
			<tessellate>1</tessellate>
			<outerBoundaryIs>
				<LinearRing>
					<coordinates>
						74.28191394058263,21.67689318238772,0 74.28205414029425,21.67704430491949,0 74.28205370153532,21.6770500359528,0 74.28217429166305,21.67717038808719,0 74.28226389863367,21.67712804559327,0 74.28239852549329,21.67714529186171,0 74.28251551718701,21.6771502592782,0 74.28263522827551,21.67720728332444,0 74.28274563805149,21.67731613112505,0 74.2830926800611,21.67745190885581,0 74.28316642876258,21.67749298870608,0 74.28317282289068,21.67760741084924,0 74.28324083471415,21.67764845106252,0 74.28328718275857,21.67772687790265,0 74.28337850216212,21.67784033947648,0 74.28339493486936,21.67785751114245,0 74.28339882305528,21.67787965640637,0 74.28346755052063,21.67798169535194,0 74.2834722533247,21.67805922730422,0 74.28363049740369,21.6781157698947,0 74.28374422868163,21.67819827531206,0 74.28381577352211,21.67821242659436,0 74.28381688852707,21.67826810800523,0 74.28385777891629,21.6782865552197,0 74.28386334284835,21.67829236401051,0 74.28388052866858,21.67830424201511,0 74.28390983307808,21.67831663881545,0 74.28394568755965,21.67832373893446,0 74.28415858882688,21.67832162217246,0 74.28426758568837,21.6783262492215,0 74.28454359259131,21.67837144331579,0 74.28456176923817,21.67837221489543,0 74.28466477013829,21.67837658713685,0 74.28483652637249,21.67843976058129,0 74.28490151995837,21.67855461122968,0 74.28494318658241,21.67865763643496,0 74.28494241330785,21.6786688763011,0 74.28502082834265,21.67877385724131,0 74.28502692746379,21.67877411611899,0 74.28504106965651,21.67883701361533,0 74.28496581080533,21.67895312353306,0 74.28493521933122,21.67895182507714,0 74.28490345054492,21.67896756022892,0 74.28485862509537,21.67899415259193,0 74.28479948769439,21.67904871647678,0 74.28478561066399,21.67907098845113,0 74.28476558872649,21.67909301758066,0 74.28474842015841,21.67924719384859,0 74.28471785106522,21.67934805828937,0 74.28481076792126,21.67937350432945,0 74.28483940978676,21.6793854770834,0 74.28501797478575,21.67945229328523,0 74.28507103548023,21.6794599370893,0 74.28508733199229,21.67947680866852,0 74.28510415874314,21.67948831469044,0 74.28524205512116,21.67954818893738,0 74.28525398103388,21.67954869518442,0 74.2852827870869,21.67956073443541,0 74.28542698226461,21.67962099960848,0 74.28547876544656,21.67964488439774,0 74.2854957121472,21.679656453324,0 74.28549328710315,21.67968349246844,0 74.28553580236998,21.67974510146342,0 74.28554082234551,21.67975620159995,0 74.28554440099569,21.6797835893428,0 74.28562218118496,21.67999474059443,0 74.28562723954042,21.68000593687928,0 74.28562533856989,21.68002783206046,0 74.28565337252874,21.68012260865488,0 74.28566352555161,21.68014510460193,0 74.28566021437575,21.68018361879448,0 74.28575340319846,21.68029830488405,0 74.2857589781851,21.6803040892908,0 74.28578690271678,21.68040531867314,0 74.28578643981737,21.68041086727817,0 74.28578412397042,21.68043862645143,0 74.28580429937544,21.68063524427126,0 74.28580290992683,21.68065202694366,0 74.28581043790369,21.68070855636608,0 74.28580997485427,21.68071416373478,0 74.28578471079679,21.6807243488623,0 74.28571394298508,21.68083981318481,0 74.2857195669595,21.68084570530854,0 74.28571767413085,21.68086824980092,0 74.28574862903385,21.68093754425758,0 74.28578059340282,21.68099567353705,0 74.28586065088531,21.6810673452835,0 74.28585972880761,21.68107870081484,0 74.28592682235904,21.681161436152,0 74.28592500095257,21.6811842243691,0 74.28599934155955,21.68125608372636,0 74.28608353247125,21.68128259404723,0 74.2860892343417,21.68128857322647,0 74.28615376561969,21.68133150383445,0 74.28624999055431,21.68136432980969,0 74.28631512767515,21.68140162247255,0 74.28642344140441,21.6814407881441,0 74.28647776115571,21.68154704745932,0 74.28698536998158,21.68188626854455,0 74.28700184411761,21.68190372121187,0 74.28701776129657,21.68192674986629,0 74.28711191754951,21.68202033207917,0 74.2871279085563,21.68204345093264,0 74.28713839086365,21.68206073742828,0 74.28731368826097,21.68214127002368,0 74.28737293188578,21.68216067801588,0 74.2874150059526,21.68216809682775,0 74.28743220986722,21.68218009732308,0 74.28756511684097,21.68219701144077,0 74.28769097795745,21.68222491455848,0 74.2877387133536,21.68223822799126,0 74.28775089894808,21.68223874499386,0 74.28776868135546,21.68224514517306,0 74.28791106576067,21.68229639154008,0 74.28806166453658,21.68239907740042,0 74.28807294620059,21.68241090610773,0 74.28809034288712,21.68242299872589,0 74.28816169162165,21.6823749652536,0 74.28823697240024,21.68227630756192,0 74.28840762029684,21.68228354713805,0 74.28843199858501,21.68228458135068,0 74.28843852394145,21.68227921026864,0 74.28848927097906,21.68217426196638,0 74.28849662628558,21.68215769955878,0 74.28858674283688,21.68209412337375,0 74.28866451550343,21.68203018076218,0 74.28869444516162,21.68203704796749,0 74.28871224480486,21.68204340166817,0 74.2887296473273,21.68205534037774,0 74.28874825328418,21.6820505289185,0 74.2888594252706,21.68202725755551,0 74.28894472186094,21.68202528173092,0 74.28903495423376,21.68204029903638,0 74.28919767383725,21.68206399412518,0 74.28921623060504,21.68205918271122,0 74.28923258419606,21.68199277821623,0 74.28932954723365,21.68199689132013,0 74.28944071929413,21.68206870527122,0 74.28947613913228,21.68208700672727,0 74.28969155379095,21.68215221159803,0 74.28970309121983,21.68216392758952,0 74.28973591103606,21.68223277129197,0 74.28973469683602,21.68225523873864,0 74.28975541948338,21.68232378016681,0 74.28976700321755,21.68233556398259,0 74.28981308679404,21.68238838944768,0 74.28981888995462,21.68239429342776,0 74.28988454005683,21.6824253837827,0 74.2898961683287,21.68243720706076,0 74.28998324498016,21.68253170078754,0 74.28998907847779,21.68253763268715,0 74.29004802573665,21.68258564882894,0 74.29004775110802,21.68259133169245,0 74.29005222544633,21.68262571200787,0 74.29005560822216,21.68268292931223,0 74.29019019075086,21.68269435104116,0 74.29029439835448,21.68269877084109,0 74.29039295849471,21.68269152509347,0 74.29046131142179,21.68267158563137,0 74.29051078037901,21.68266227120289,0 74.29061971886708,21.68270114247867,0 74.29069854700772,21.68272734212388,0 74.29078990647996,21.68274837089037,0 74.29080830512409,21.68274915119007,0 74.29093690792706,21.6827603255719,0 74.29107167019929,21.68277176222034,0 74.29115141353995,21.68277514407362,0 74.29127455970136,21.68276320566334,0 74.29134844200577,21.68275490390995,0 74.29144165195204,21.6827074549245,0 74.29148493315812,21.68269217656372,0 74.29149718101338,21.6826926959601,0 74.29155280431625,21.68267225209141,0 74.29163897936873,21.6826531216757,0 74.29169971996623,21.68267848225269,0 74.29180878589968,21.68274585785015,0 74.29184535771617,21.68275883245792,0 74.29187581335269,21.68277155219223,0 74.29205273992486,21.68284199053791,0 74.29209525626969,21.68287817951219,0 74.29210117677097,21.68289563880399,0 74.29210088277122,21.68291858651237,0 74.29214935552643,21.68297812162517,0 74.29234004000485,21.68298620749356,0 74.29245695004077,21.6829854118484,0 74.29246313834351,21.68297992229931,0 74.29250044815579,21.68291256944186,0 74.29250109586913,21.6828037824246,0 74.29250762788581,21.68273554351726,0 74.29256924962139,21.68265842490459,0 74.29257560486984,21.68260755380947,0 74.29261846593667,21.68258667095121,0 74.29269791093472,21.68257302595726,0 74.29288110782701,21.68260915486677,0 74.29298464738947,21.68275577228147,0 74.29307136952825,21.68269678361792,0 74.29311448748714,21.68264176046546,0 74.29316465107595,21.68263253016593,0 74.2932074230485,21.68263434339057,0 74.29325630545428,21.68263641564188,0 74.29332289851624,21.68264491657172,0 74.29337605143181,21.68266421007213,0 74.29343045556455,21.68267219865124,0 74.29348856704404,21.68270309028916,0 74.29356464199434,21.68279747299013,0 74.29356957277007,21.68280909686683,0 74.2936357881798,21.68282332304933,0 74.2936401439576,21.68284064511172,0 74.29364213879711,21.68288075630118,0 74.29366314110581,21.68291599896931,0 74.29373737791988,21.68291341753566,0 74.29380661391455,21.68289917444328,0 74.29385941981218,21.68298740364439,0 74.29392632229177,21.68312258651272,0 74.29400247687093,21.68316621326624,0 74.29401647296467,21.68314948586625,0 74.29406962089512,21.68311136362793,0 74.29412433149864,21.68305610077237,0 74.29418723255172,21.68297834278641,0 74.29426199913075,21.68297004078476,0 74.29437867541208,21.682974986144,0 74.29450149210024,21.6829801916971,0 74.29460340033616,21.68301319705403,0 74.29463976956525,21.68302047911841,0 74.29479952520082,21.68302725008487,0 74.29493666526373,21.6830847786886,0 74.29505785042952,21.68311292920358,0 74.29515026730057,21.682956124938,0 74.29520153972781,21.68292969085044,0 74.29533456476351,21.68287819870511,0 74.2955020137003,21.68285677235791,0 74.29560610963183,21.68286118393954,0 74.29566734242016,21.68286377895732,0 74.29580212844031,21.68296086294507,0 74.29588724851337,21.68297591187692,0 74.29598214868267,21.68293419377043,0 74.29599295419033,21.68286047763756,0 74.29604076832395,21.68278283547883,0 74.29611655163258,21.68274629463754,0 74.29617053944489,21.68266358216552,0 74.29626832826696,21.6825604161788,0 74.29637215204288,21.68245228706717,0 74.29649130695978,21.68239002924023,0 74.2966672962435,21.68229681786461,0 74.29676359115749,21.6822562697519,0 74.29687050754478,21.68222737432506,0 74.29698204118509,21.68220983813346,0 74.29718833075322,21.68221301652993,0 74.29734015208399,21.68221388781111,0 74.29744779138981,21.68222957338904,0 74.2975712370109,21.6822682038463,0 74.29766807196312,21.682272306763,0 74.2978078451752,21.68227265953303,0 74.29786174106486,21.68228051238274,0 74.29788594955143,21.68228153806196,0 74.29792662894396,21.68229997608325,0 74.29801633061577,21.68231492495072,0 74.29814358955736,21.68238171019005,0 74.29821971762695,21.68241288498206,0 74.29822578199887,21.68241314190333,0 74.29827771741886,21.68244331887921,0 74.29832415800779,21.68246768728625,0 74.29837653907147,21.68255968472609,0 74.29846414286926,21.68260276201274,0 74.29857521245847,21.68265815973719,0 74.29868480898497,21.68266280247171,0 74.29872742986083,21.68266460796132,0 74.29885015402037,21.68265853402341,0 74.29907493777839,21.68267369169388,0 74.29922105148627,21.68267988094386,0 74.29924321982881,21.68270901543807,0 74.29931293883308,21.68283635596695,0 74.29932471723598,21.6828425215637,0 74.29936062645298,21.68293486069849,0 74.29935934457029,21.68295186649994,0 74.29936431886853,21.68304894094052,0 74.29936217958101,21.68307740121532,0 74.29935090008127,21.68314556014127,0 74.29934390286384,21.68315671896477,0 74.29933104461146,21.68340933408887,0 74.29941266620828,21.68347642539397,0 74.29957600899448,21.68352971015425,0 74.29958095591282,21.6835473260208,0 74.29964447408855,21.68361392808444,0 74.29965523174116,21.68363765894157,0 74.2997077327487,21.68368648842764,0 74.29971352712938,21.68369256478655,0 74.29972472282937,21.68371053873004,0 74.2998013604649,21.68377219245217,0 74.29980097102626,21.6837780231318,0 74.29983043091526,21.68380267118022,0 74.29989486845443,21.68386398260297,0 74.29979693295522,21.68389960663547,0 74.29993644873261,21.6839055158952,0 74.30016298852895,21.68394869949871,0 74.30018119675019,21.68394947067777,0 74.30040703876418,21.68394783512549,0 74.3005424111476,21.68393677571978,0 74.30054847746143,21.68393703263601,0 74.3005861150955,21.68392743698198,0 74.30060010000777,21.68391125293599,0 74.3006462248329,21.6838796829804,0 74.30079166277427,21.68388584237506,0 74.30102280940108,21.68394593089226,0 74.30105198695179,21.68395835612855,0 74.30106411973438,21.68395886992951,0 74.30122791080065,21.68396580609095,0 74.30136734973239,21.68391022180948,0 74.30136789273092,21.68390466140854,0 74.30149756315183,21.68382096542154,0 74.30163928807319,21.68379915266708,0 74.30165742872487,21.68379992084255,0 74.30168263909137,21.6837898702427,0 74.30185290824194,21.6837859664317,0 74.30209885019249,21.68381861240956,0 74.30210489708629,21.68381886845069,0 74.30220539010332,21.6838509376972,0 74.30234050485225,21.68390679207793,0 74.30252433840585,21.68396479672352,0 74.30255292830354,21.68398835584246,0 74.3025585634888,21.6839941843058,0 74.30257547547816,21.68401167648446,0 74.30282337365017,21.68411742183726,0 74.30282864438577,21.68412887157336,0 74.30301578906283,21.68424366562709,0 74.30302758057462,21.68424980059217,0 74.30317313457826,21.68435759480263,0 74.30333709457884,21.68437585042277,0 74.30343813646172,21.68432359943803,0 74.30359887847884,21.68429089983809,0 74.30373180482016,21.68420643373906,0 74.30395590090521,21.68423279098888,0 74.30409523223865,21.68424994171434,0 74.30431242665502,21.68429855483129,0 74.30433575313165,21.68432209189558,0 74.3043410766272,21.68433924100012,0 74.30433851881767,21.68439561695956,0 74.30432580904723,21.68440638907219,0 74.30430569761553,21.68444515796027,0 74.30429088248805,21.68450122529585,0 74.3042847735221,21.68450096671313,0 74.30420715609422,21.68458862365489,0 74.30419383460354,21.68461083995843,0 74.30417465249965,21.68462712487518,0 74.30416130908036,21.68464937159611,0 74.30413989003011,21.68471128902356,0 74.30405962088629,21.68496631949852,0 74.30408701468899,21.68503678143224,0 74.30410410322597,21.68506642930747,0 74.3041863631185,21.6851568567047,0 74.30419226774724,21.68516291218717,0 74.30420326179689,21.68519242253299,0 74.30421426674849,21.68522196214219,0 74.30422555366582,21.68524571967716,0 74.30424977695029,21.68539266314581,0 74.30423574663038,21.68542719759757,0 74.30422224423141,21.68545006827576,0 74.30419812245331,21.6855665387552,0 74.30418457270869,21.68558951977192,0 74.30417696122137,21.68561866723741,0 74.30415660158356,21.68565320790756,0 74.30414048119619,21.68572937656056,0 74.30412006093094,21.68576404936433,0 74.30408424540359,21.6858575079696,0 74.30407029247151,21.68588665942985,0 74.3040622941525,21.68592205075147,0 74.30407162784343,21.68598806256732,0 74.30407702633671,21.68600621170444,0 74.30408184990328,21.68603630760902,0 74.30409807745987,21.68609087541352,0 74.30410349318002,21.68610908665179,0 74.30413090591938,21.6861943067839,0 74.30413062093,21.68620030806962,0 74.30412862439394,21.68624235097319,0 74.30415443432669,21.68636413612303,0 74.30421576300832,21.68645795431471,0 74.30443588379717,21.68650551845294,0 74.30444764960319,21.68651148460721,0 74.3044647393934,21.68653409077404,0 74.30462503937339,21.6865846917103,0 74.30484359010974,21.68669827577922,0 74.30485561977956,21.68669878491561,0 74.30489170899946,21.68670031232752,0 74.30500494833065,21.68673813213711,0 74.30501663940711,21.68674964444668,0 74.30503418445464,21.68676692116329,0 74.30505173966309,21.68678420803232,0 74.30515744461024,21.68688261113625,0 74.30516935196584,21.68688865003156,0 74.30518713889697,21.68690047577635,0 74.30521669638601,21.68692388549436,0 74.30523993393254,21.68695813931551,0 74.30531658315691,21.68703360174135,0 74.30532248729943,21.68703941442086,0 74.30532176679007,21.68706721416826,0 74.30525673605609,21.68723201183746,0 74.3052052189993,21.68733645297621,0 74.30510394442769,21.68746741211243,0 74.30509108398425,21.68748947035608,0 74.30509533995793,21.68755189864881,0 74.30510471454491,21.68764876106202,0 74.30510454761077,21.68765443845238,0 74.30510354532008,21.68768852617217,0 74.30510732854486,21.68776847969198,0 74.30510682738679,21.68778558560455,0 74.30510582418623,21.68781982768574,0 74.30516747091968,21.68802899612031,0 74.30516730909575,21.6880347479667,0 74.30521720592348,21.68823913233086,0 74.3052108722876,21.68824466407427,0 74.30517950729821,21.68826074289241,0 74.30504680265832,21.68835395763783,0 74.30502788401283,21.68836480605168,0 74.30497818461026,21.68836852881508,0 74.30496580396986,21.68836800480019,0 74.30487044961583,21.68843981613784,0 74.30459266065485,21.68856273059264,0 74.30455802198775,21.68858911035727,0 74.30443779353118,21.68862712241507,0 74.30440175193495,21.68863638240144,0 74.30432218975015,21.68870322062975,0 74.3043038011826,21.6887186683181,0 74.30427943536873,21.68873387246858,0 74.30425505564752,21.68874908519064,0 74.30413910612977,21.68882010938132,0 74.30408829841841,21.68890498775031,0 74.30407538319554,21.68893169248119,0 74.30406264580689,21.6889529732304,0 74.30403521178008,21.68905020918646,0 74.30402843533403,21.68907183465986,0 74.30404220871394,21.68919323733966,0 74.30402377082603,21.68920346592805,0 74.30399911018681,21.68921894366522,0 74.30398065509031,21.68922918213846,0 74.3038957507346,21.68924212578548,0 74.30374342656616,21.68927982468097,0 74.3037246748698,21.68929560343305,0 74.30364561160016,21.68930883893733,0 74.30361499183904,21.68931860292027,0 74.303578089415,21.6893336389553,0 74.30354068137991,21.68935974060939,0 74.3035095212646,21.68938058892577,0 74.30349719835222,21.68938561172571,0 74.30343403174537,21.68944399848094,0 74.30341462232495,21.68947097470632,0 74.30338862795111,21.68950883660564,0 74.3033881127502,21.68951995659784,0 74.30336761558611,21.68956928055448,0 74.30335471470895,21.68958548455094,0 74.30333627015028,21.68959028926501,0 74.30326056275418,21.68964859673246,0 74.30288822143318,21.68978437820753,0 74.30286233612287,21.68981143367288,0 74.30279703652243,21.6898876392397,0 74.3026784527535,21.69003552963628,0 74.30258850545067,21.69007072758841,0 74.30233872029899,21.69001140973754,0 74.30232678903569,21.69001090462542,0 74.30228503003346,21.69000913674169,0 74.3022553194407,21.69000246808737,0 74.30210698369396,21.6899637452295,0 74.30208909894537,21.68996298804337,0 74.30190534538441,21.68991740522442,0 74.30189358190796,21.6899115109407,0 74.30186379686,21.68991024988135,0 74.30182805468908,21.68990873659573,0 74.30179231259537,21.68990722330292,0 74.30172116484603,21.68989342140462,0 74.30169121438891,21.68989754747463,0 74.3016137806156,21.68989426888857,0 74.30158977411428,21.68989864778117,0 74.30145198716123,21.68991440506512,0 74.30145179313305,21.68991979720385,0 74.30142140301598,21.68993471796167,0 74.30128857120218,21.68997235882362,0 74.30126428237995,21.68998215702526,0 74.30113052761376,21.69003611415726,0 74.30111215299112,21.69004618972058,0 74.30097879145012,21.69008399858071,0 74.3009668329326,21.6900834921839,0 74.30088337247389,21.69007452219449,0 74.30080718814021,21.69003870391466,0 74.30067456546543,21.69001775937405,0 74.30057929465569,21.69002456274059,0 74.30054944289357,21.69002329877708,0 74.30053164593056,21.69002796530785,0 74.30043108096808,21.69007253531774,0 74.30034780252093,21.69009073741471,0 74.30018565614816,21.69003500599866,0 74.30007764303207,21.68999248403356,0 74.30006570485698,21.68999197850936,0 74.300029823644,21.68998504200518,0 74.29984450660773,21.68994471414663,0 74.29982064608424,21.68994370372847,0 74.29979678530042,21.68994269329471,0 74.29971338077696,21.6899553969186,0 74.29958220363041,21.6899715036071,0 74.29945714778768,21.69010741430695,0 74.29944521077893,21.69012324708521,0 74.29943329400768,21.69015544740326,0 74.29942136351148,21.69018768496111,0 74.29940940584676,21.69020902795209,0 74.29940352382006,21.69030730931871,0 74.29940353641096,21.69031827875279,0 74.29940357421764,21.69035121240355,0 74.29938556273461,21.69037242541461,0 74.29936756863074,21.69045422383489,0 74.29935553536326,21.69048128737588,0 74.29934348915567,21.69049733398592,0 74.2993193778787,21.69052392858261,0 74.29926499411908,21.69062126356621,0 74.29925289983613,21.690631843745,0 74.29916205898617,21.6907057629956,0 74.2991559751605,21.69071663208704,0 74.29914378214593,21.69074395146431,0 74.29913161708353,21.69076015065163,0 74.29910127700056,21.69077558973178,0 74.29907094518393,21.6907854598343,0 74.2989801227113,21.69077603486334,0 74.2989498401256,21.69077475216234,0 74.29893170990887,21.6907684073175,0 74.29883515604143,21.69072530955527,0 74.29868890446399,21.69080835341176,0 74.29867613906563,21.69086372790286,0 74.29847525271067,21.69090002872991,0 74.2984449804719,21.69089314123117,0 74.2984085530032,21.69089159810555,0 74.29830584402475,21.69085923788967,0 74.29810618980014,21.69082279795043,0 74.2981277450634,21.69095265407044,0 74.29812119187891,21.69097486031457,0 74.29810246631725,21.6909965684225,0 74.29803402039329,21.69106127842555,0 74.29796910359596,21.69122824702426,0 74.29793856016443,21.69122695304068,0 74.29790801688061,21.6912256590584,0 74.29790190816917,21.69122540025903,0 74.2977618718174,21.69120245076708,0 74.29774965813715,21.69120193331767,0 74.29771301696445,21.69120038095907,0 74.2976580551553,21.69119805240557,0 74.29763973458047,21.69119727621868,0 74.29757866596893,21.69119468891483,0 74.2974326609406,21.69117149630361,0 74.29735426575711,21.69113985248977,0 74.2972991477433,21.69114317946856,0 74.29726843197177,21.69114754143644,0 74.29719498316604,21.69115009394067,0 74.29714674166728,21.69122933816454,0 74.29708524001403,21.69126238343203,0 74.29707306255051,21.69127376081834,0 74.29697939720148,21.69127573931686,0 74.29689446722466,21.69137941772382,0 74.29677156195606,21.69148187479885,0 74.29655754385682,21.6914428565014,0 74.29650063980021,21.69141650896191,0 74.29648809521568,21.6914159772203,0 74.29638041511807,21.69134568942014,0 74.29637396015744,21.6913334817066,0 74.29627246552084,21.69123982640788,0 74.29626604323528,21.69122766073102,0 74.29617075682468,21.69110494902539,0 74.29615124005824,21.69103905395628,0 74.29614472000581,21.69101515201932,0 74.29609393902699,21.69093045852407,0 74.29608142868663,21.69092404129485,0 74.29603105162904,21.69086310086698,0 74.29601856100467,21.69085669737381,0 74.29598093961327,21.69081988287092,0 74.29590578430749,21.69074053187059,0 74.29589953413203,21.69073441622552,0 74.29585585921973,21.69069748507686,0 74.29585581686887,21.69069164068791,0 74.29585530933394,21.69062159846634,0 74.29585509822854,21.69059246340957,0 74.2958853159445,21.69050073440859,0 74.29588464015288,21.6904137763605,0 74.29587829364516,21.69039036972613,0 74.29585919915837,21.69030872256088,0 74.29582825068459,21.69028435534455,0 74.29574185425466,21.69024039024125,0 74.29572952157663,21.69023411446299,0 74.29570491803736,21.69023307169657,0 74.29563711496934,21.69018995813722,0 74.29562480263861,21.69018369228537,0 74.29560634710846,21.69017716719798,0 74.29553867218716,21.69013413037764,0 74.29552023970089,21.69012761530598,0 74.29540972902596,21.69006565503341,0 74.29540359429875,21.69006539502315,0 74.29537292711676,21.69005837379501,0 74.29529326675539,21.69002069243131,0 74.29526876145783,21.69001394022612,0 74.2952504252703,21.6899960290661,0 74.29513428563105,21.68993406608548,0 74.29492663615109,21.68986833633016,0 74.29487798001998,21.68983785156177,0 74.29479302443414,21.68977748916567,0 74.29473826576205,21.68975816141055,0 74.29470177795638,21.68974528254224,0 74.29469574589621,21.68973936237586,0 74.29459874433758,21.68968997480149,0 74.29458061497175,21.68967789840989,0 74.29447208106865,21.68959990392628,0 74.29443013749881,21.68955868316959,0 74.29436918015057,21.68956173078464,0 74.29426480925943,21.68960239757877,0 74.29425262772884,21.68960188123267,0 74.29421608342388,21.68960033220148,0 74.29410645058972,21.68959568506601,0 74.29410035983391,21.689595426888,0 74.29397868732798,21.68958462914553,0 74.29392578550905,21.68950916426477,0 74.29385768737998,21.68948348061436,0 74.29377123174736,21.6894798150359,0 74.29372254889022,21.6895067563362,0 74.29364936590275,21.68954430923721,0 74.29346982914842,21.68952507520718,0 74.29341453709523,21.68954016504412,0 74.2934022829261,21.68954545917435,0 74.29334065686504,21.68955447706106,0 74.29332231072917,21.68956533466757,0 74.2933038545042,21.68957037157707,0 74.29323704836776,21.68964329723177,0 74.29323085324852,21.68964303454557,0 74.29319377569317,21.68964729803608,0 74.29310862587711,21.68975478557721,0 74.29310258498117,21.68976624839319,0 74.29307799325839,21.68978279283725,0 74.29302307863959,21.6898567969672,0 74.29301700957876,21.68986830066302,0 74.29299220353343,21.68987313105545,0 74.29294941041516,21.68993609901354,0 74.29293708997655,21.68994737053877,0 74.29293106036504,21.68996481458793,0 74.29291892573367,21.68999382314884,0 74.29291340267513,21.69005864377481,0 74.29290754705825,21.69009394032418,0 74.29289537366564,21.69012307740093,0 74.29284644230715,21.69022800053886,0 74.29284024134873,21.69023369324335,0 74.29282168725248,21.69025674104794,0 74.29279680122534,21.69027357422347,0 74.29274717689472,21.69033117617652,0 74.2927346846301,21.69033662363209,0 74.29260986654431,21.69043312730149,0 74.29260361931533,21.69043886127348,0 74.29254722634161,21.69046648235607,0 74.29250340012352,21.69050669227345,0 74.29236512772191,21.69055500354391,0 74.29230215445817,21.69051018783898,0 74.29225183422126,21.6904960232328,0 74.29215125475201,21.69046771116174,0 74.29202554778591,21.69045637124166,0 74.29198171859426,21.69041848640067,0 74.29188763955634,21.69039050326719,0 74.29183779172034,21.69033447518182,0 74.2918316493118,21.69031626502987,0 74.29180089862233,21.69023730394644,0 74.2917947297808,21.69022511310633,0 74.29178865919405,21.69020101158148,0 74.29179553474989,21.6901239419648,0 74.29179558201733,21.69011800145477,0 74.2917840961412,21.68999299600667,0 74.29175954990387,21.68994465691436,0 74.29169184780935,21.68985330523446,0 74.2916737094321,21.68979957472661,0 74.2916310698333,21.68971557079534,0 74.29153915901969,21.68961217141818,0 74.29145318145494,21.68955015178387,0 74.29143460280078,21.68954936388832,0 74.29138593476908,21.68948904226172,0 74.29136181664583,21.68944730776507,0 74.29133173898802,21.68939377154549,0 74.29133183163552,21.68938797448131,0 74.29127115353815,21.68932166600909,0 74.29122889083045,21.68926782976048,0 74.29109501849284,21.68917561786125,0 74.29108282548935,21.68916934090712,0 74.29104059224821,21.6891272625747,0 74.29093722069764,21.68907116241355,0 74.29087618528247,21.68905135553325,0 74.29078375054063,21.68905891321685,0 74.29073414517191,21.68907403461526,0 74.29064746467778,21.68909334118226,0 74.29050723224978,21.68911040829792,0 74.29039148623323,21.68915155567979,0 74.29017249136379,21.68926929844452,0 74.29017261053824,21.68927509081677,0 74.2901060936571,21.68934180631257,0 74.29007586659968,21.68937535460866,0 74.29002149242474,21.68944283341609,0 74.28995264069202,21.68939337063027,0 74.28992210282146,21.68941533695364,0 74.28987297628689,21.68943653314562,0 74.2898108439494,21.68941643549459,0 74.28971760323772,21.68937758742249,0 74.28967474537271,21.68941066190595,0 74.28961345922193,21.68946047876813,0 74.2895645766794,21.68952259723849,0 74.28955235381648,21.68953961001781,0 74.28952771934384,21.68955610672031,0 74.28949092219626,21.68960137486914,0 74.28948492107027,21.68962456287297,0 74.28947275316966,21.68965337611503,0 74.28945460013274,21.68971135266881,0 74.28943617698162,21.68973998832234,0 74.28939940493885,21.68981505061842,0 74.28937513592727,21.68990859889112,0 74.2892385597858,21.69005714067661,0 74.28921984141815,21.69006825185032,0 74.28916350339247,21.69005990824731,0 74.28914471471248,21.69005315899387,0 74.2890383072336,21.69000701315035,0 74.28896953550888,21.68999221139063,0 74.28883226447549,21.68987964621159,0 74.28874529088007,21.68977549750654,0 74.28867042643711,21.68979592775545,0 74.28862057641648,21.68979381269675,0 74.28862085341453,21.68974663005195,0 74.28862102632006,21.68971717916191,0 74.28862106088107,21.68971129250859,0 74.28860308387958,21.68959887822121,0 74.28851676106149,21.68951321606774,0 74.28841182195541,21.6894561700959,0 74.28839942868895,21.68945564427823,0 74.28833752554374,21.68944717993111,0 74.2883313295323,21.68944691704721,0 74.2882763211822,21.68938044234225,0 74.28825206133828,21.68933866899263,0 74.28801047091002,21.68935169409863,0 74.28798542925627,21.68936810025734,0 74.28792910845937,21.68940067910415,0 74.28780363348436,21.68947711053673,0 74.28778467626933,21.68949385479534,0 74.28775841996283,21.68956303993519,0 74.28769441132545,21.68964843451477,0 74.28767523582282,21.68967116152948,0 74.28756875567426,21.68969609567186,0 74.28755630439269,21.68969556734494,0 74.28751243488364,21.68970549501093,0 74.28748752750437,21.68970443814711,0 74.28746262013057,21.68970338128162,0 74.28739381071162,21.68971225542612,0 74.28735644229232,21.6897106698031,0 74.28728204207523,21.68969571896701,0 74.28726336161139,21.68969492630911,0 74.28716373246708,21.68969069878201,0 74.28698097332844,21.68974786809585,0 74.28690487433889,21.68976866054249,0 74.28686494044652,21.6897047207815,0 74.28685839391805,21.68969822533968,0 74.28680519309736,21.68960905660661,0 74.28679866246931,21.68960258109657,0 74.28673191092442,21.68946987476959,0 74.28668598125749,21.68940627651955,0 74.28656421350271,21.68935802772143,0 74.28643658774818,21.68932802035179,0 74.28641741062106,21.68932106216374,0 74.28638542320171,21.68930741968892,0 74.28621967542122,21.68926355954192,0 74.28620697307032,21.68926302025766,0 74.2860541307307,21.68921975305432,0 74.28604150349068,21.68922534345786,0 74.28600354231827,21.68923598870127,0 74.28587045644507,21.68926100261779,0 74.28585144689788,21.68926633202857,0 74.2858260797756,21.68927139293842,0 74.2857626587503,21.68928712118053,0 74.28573095145624,21.68929806188459,0 74.28547044250598,21.68937315005935,0 74.28544497797385,21.68937206891536,0 74.28529857481649,21.68935353111945,0 74.28524767042033,21.68934521086357,0 74.28520960761364,21.6893005162367,0 74.28517801588912,21.68923774078944,0 74.28517187515808,21.6891761709254,0 74.28514036171011,21.68911976125269,0 74.2850515569929,21.68912210515874,0 74.28502622733438,21.68911491559129,0 74.28492500598223,21.68908006642469,0 74.28486241991932,21.68898593975577,0 74.28486331174759,21.68888264818365,0 74.2848633641142,21.68887658328308,0 74.28485153468947,21.68878522142993,0 74.28480195773712,21.68869253221191,0 74.28477780334914,21.68858917536361,0 74.28477792481875,21.68857716458824,0 74.28477889484246,21.68848125235648,0 74.28477907637956,21.68846330317181,0 74.28474929778427,21.68831281841236,0 74.2847494877326,21.68829497029185,0 74.28473736378305,21.68825877544207,0 74.28470080710565,21.68817413645489,0 74.28467044499757,21.68810181506587,0 74.2846644243869,21.68808382799138,0 74.2846337785771,21.68804119486224,0 74.28460893845123,21.68803424047828,0 74.28454681846026,21.68801980711127,0 74.28453444802442,21.68801338561943,0 74.2845096277655,21.68800643678545,0 74.28436040350478,21.68798831509381,0 74.28434172875708,21.68798752230598,0 74.28423659028324,21.68794772673893,0 74.28420524993547,21.68795816894621,0 74.28415534823522,21.68796193858168,0 74.28413045603428,21.68796088183332,0 74.28406108105358,21.6879991862825,0 74.28405472123386,21.68800481383762,0 74.28402303900326,21.68802707063715,0 74.28401016721251,21.68804423792524,0 74.28399119245722,21.68805524743691,0 74.2839600244973,21.68805392423867,0 74.28391609650527,21.68806387910422,0 74.28389739197382,21.68806308502146,0 74.28379092284206,21.68807630348478,0 74.28377812898735,21.68808759192492,0 74.28375925296113,21.68809270812491,0 74.28372772931638,21.68810320849633,0 74.28367764040067,21.6881070031077,0 74.28366515948464,21.68810647323246,0 74.28363395723524,21.68810514854416,0 74.28360899541241,21.68810408879055,0 74.28348418657669,21.68809879000807,0 74.2834654652638,21.68809799518746,0 74.28337829941461,21.68808837339488,0 74.28325995518647,21.68807742905969,0 74.28322252010136,21.68807583971462,0 74.28319756333438,21.68807478014718,0 74.28312893234657,21.68807186633278,0 74.2830977364369,21.68807054186701,0 74.28297391589568,21.68804161697259,0 74.28291803200761,21.68803333030277,0 74.28286814355795,21.68803121218903,0 74.28273771492051,21.6880138500618,0 74.28270057399097,21.68800636268082,0 74.2826200814627,21.68799112775868,0 74.28259514971602,21.68799006921105,0 74.28239718649969,21.68795214121551,0 74.282378796868,21.68794545938808,0 74.28216860802134,21.68790704748043,0 74.28215025218742,21.68790037413805,0 74.28208996822553,21.68786247539519,0 74.28209029645303,21.68785660358812,0 74.28204119362817,21.68784275073812,0 74.28177959923529,21.68783752682766,0 74.28150705553827,21.68780830769315,0 74.28132913805956,21.6877654912753,0 74.28126692068993,21.68778829507804,0 74.28117728070299,21.68778448575903,0 74.28103165963543,21.68784069538997,0 74.28080648278545,21.68779367217552,0 74.28074856338689,21.68777873642062,0 74.28062664016001,21.68776108592006,0 74.28046038050257,21.68776648988885,0 74.28043486761368,21.68777164217068,0 74.28032598795484,21.68776701525577,0 74.28020974364101,21.68768732129703,0 74.28016481572529,21.68767297095872,0 74.28012637166988,21.68766511871803,0 74.28009432956249,21.68765753963641,0 74.28001102719607,21.6876353553453,0 74.27983192395473,21.68760911134975,0 74.27981914353377,21.68760856825103,0 74.2797808025821,21.68760693896815,0 74.27974246166012,21.68760530968658,0 74.27964643254462,21.68755159706438,0 74.27949961517437,21.68757636863281,0 74.27948040479826,21.68751975638133,0 74.27944210297058,21.68747480311366,0 74.27941023110691,21.68742400933685,0 74.27933383068118,21.68737756981581,0 74.27931471509643,21.68738292410459,0 74.27921268439925,21.68741561486156,0 74.27919993967942,21.68741507329184,0 74.27917444966708,21.6874139901279,0 74.27911075795485,21.68740510950326,0 74.27905345036572,21.68739650125909,0 74.27904070799276,21.68739595978928,0 74.27897704280272,21.68738708281954,0 74.27896430203695,21.68738654141809,0 74.27883064456299,21.68736852223812,0 74.27879886332653,21.68736100375231,0 74.27874168732995,21.6873462421152,0 74.27868453487213,21.68733148651788,0 74.27854466603256,21.6873132210455,0 74.27850647850303,21.68731159832141,0 74.27848102011183,21.68731051650336,0 74.27846182747228,21.68731586136539,0 74.27836624038225,21.68731796103582,0 74.2783406655597,21.68732303720598,0 74.2782642673115,21.68731979075959,0 74.27820696866782,21.68731735592501,0 74.27818137501994,21.68732243237962,0 74.27814927743925,21.68733340042479,0 74.27805431283157,21.68730470606596,0 74.27804794692932,21.68730443555449,0 74.27797866375722,21.68727069615559,0 74.27796593845757,21.68727015540982,0 74.27788637606027,21.6871439065301,0 74.27784322186125,21.6870930655481,0 74.27775559225144,21.68704652586394,0 74.27769606366488,21.68712968913783,0 74.27763147467734,21.6871637448268,0 74.27753002252598,21.6871532973219,0 74.27737163675374,21.68713429764445,0 74.27727659245824,21.68712412600341,0 74.2772663164929,21.68705631143459,0 74.27726939440977,21.68697090596291,0 74.2772458332842,21.68692113610099,0 74.27716401649207,21.68690547960747,0 74.27712511445199,21.68692819104968,0 74.27690841980615,21.68680342715965,0 74.27682918415007,21.68673336251993,0 74.27677426660318,21.68668866216449,0 74.27669615283442,21.68660078905855,0 74.27663656236906,21.6865259721048,0 74.27663224825696,21.68648370347507,0 74.27657826547329,21.68642738698967,0 74.27654889742696,21.68638418912199,0 74.27654291255647,21.68637794677914,0 74.27646372786087,21.68632672103965,0 74.27643358418288,21.68630153853178,0 74.27629885146432,21.68623614305026,0 74.27629259046044,21.68623587698858,0 74.27623094428421,21.6862153796874,0 74.27614463602644,21.68618789187047,0 74.27606566350704,21.68614289663108,0 74.27600101547505,21.68606890352674,0 74.27598331699519,21.68605036668788,0 74.27598052810239,21.68599104275419,0 74.2758600814949,21.68591503381571,0 74.27581611664259,21.68591906650355,0 74.27566923330254,21.68587154177735,0 74.27561434777877,21.68585153439573,0 74.27556181093045,21.6857963404324,0 74.2754608557546,21.68572158259121,0 74.27544301845981,21.68570909632732,0 74.27539035317164,21.68565999192019,0 74.27530139621283,21.68559773333519,0 74.27522910602447,21.68556546560023,0 74.27521671572889,21.68556493902015,0 74.27511035394782,21.68549046765084,0 74.2749847867649,21.6854768231028,0 74.27492370251782,21.68541717701444,0 74.27486075349955,21.68538918029972,0 74.27483614623118,21.68536915725833,0 74.27480711348926,21.6853173746492,0 74.27473306266198,21.68526376231431,0 74.27467801853417,21.68521733413447,0 74.27458659552919,21.68513801593094,0 74.27453262029148,21.6850792696149,0 74.27450181579201,21.68505916632678,0 74.27441171457653,21.68496778396988,0 74.2743095233641,21.68486991296481,0 74.27425512167439,21.68482405292832,0 74.27418255355487,21.68476507046984,0 74.27411011907492,21.6847061964531,0 74.27406190337361,21.68466700735016,0 74.27400832933081,21.68461528135879,0 74.27396024488783,21.68457620395214,0 74.2737296557102,21.68450478149139,0 74.27361823374275,21.6844631328713,0 74.27354612441016,21.68441092085417,0 74.27352758980223,21.68440399524572,0 74.27347995062541,21.68436517006084,0 74.27346725267098,21.68436463037978,0 74.27342915908406,21.68436301134765,0 74.27330021932845,21.68430853375481,0 74.27316290431493,21.68427822875266,0 74.27311614044385,21.68423346844243,0 74.27302281671686,21.68421118951248,0 74.27302396740885,21.68419903626049,0 74.2730389290421,21.68417528271273,0 74.27318491321525,21.68410843778179,0 74.27322151767191,21.68405532279602,0 74.27323004656668,21.68403141919097,0 74.27324488106241,21.6840078032413,0 74.27326711014109,21.68397241514015,0 74.27335360397461,21.68385529948626,0 74.27337570886429,21.6838200965076,0 74.27344497572825,21.68375088667927,0 74.273459124997,21.68373347684681,0 74.27347121187255,21.68359626516721,0 74.27347383205706,21.68356652033305,0 74.27348115454518,21.68348339370926,0 74.27349053895162,21.68337685896152,0 74.27349938131653,21.68334759933684,0 74.27350821482777,21.68331836901193,0 74.27356162664066,21.68320840675026,0 74.2735688752943,21.68319692566841,0 74.27362004078464,21.68311083133469,0 74.27362676130666,21.68310524176932,0 74.27362928201561,21.68307599025854,0 74.27367604128658,21.68296668119845,0 74.2737283209414,21.68286385156145,0 74.27376951879685,21.68274351541118,0 74.27377049279951,21.68273195591377,0 74.27377812669475,21.68271488767407,0 74.27382671672416,21.6825781820566,0 74.27388215776223,21.68250564529104,0 74.27393079316708,21.68236422496388,0 74.27400473838321,21.68228732292644,0 74.27406488166834,21.68222714096406,0 74.27414279249656,21.68217353519503,0 74.27422709634048,21.68211463808036,0 74.27427201640232,21.68208819169941,0 74.27434072882124,21.68198926077472,0 74.27441576519381,21.68189616502675,0 74.27446842467191,21.68178727881887,0 74.27458498748159,21.68158344192604,0 74.27459939383867,21.68155958547298,0 74.27462055408013,21.68152992677128,0 74.27468855528615,21.68146569866641,0 74.27477316011819,21.68134157472815,0 74.27488421400497,21.68119495403118,0 74.27489800673692,21.68117743071997,0 74.27498377776257,21.68112079012772,0 74.27510005816821,21.68107759099584,0 74.27513927187258,21.68105521613264,0 74.27524720483234,21.68104178500068,0 74.27526048997085,21.68103034341253,0 74.27533868555062,21.68098569024873,0 74.27545184685363,21.68087686438427,0 74.27553626700188,21.68082677620042,0 74.27554911473764,21.68082136421911,0 74.27561717549783,21.68072315313365,0 74.27571494872019,21.68065022590631,0 74.27582433226921,21.68058980740296,0 74.27588959788972,21.68053355302471,0 74.27596802967676,21.68046032573014,0 74.27600646730653,21.68043844210116,0 74.276056198928,21.68044055566693,0 74.27611430819881,21.68039604699737,0 74.27617826814543,21.68035772062732,0 74.27621810533644,21.6803008775624,0 74.27626634522474,21.68019202908251,0 74.27627506470949,21.68013419969585,0 74.27627758986401,21.68007622230261,0 74.27627935449954,21.68003570638487,0 74.27635587122481,21.67998106862728,0 74.27644361718554,21.67995011878362,0 74.27652464555848,21.6799304658686,0 74.27661901517367,21.679882576002,0 74.27669392803276,21.6798569658584,0 74.27678661132099,21.67984939502311,0 74.27691162139196,21.67977072835433,0 74.27692562731762,21.67973414571461,0 74.2769330339831,21.67970351368845,0 74.2769334438894,21.67969116127971,0 74.27694063711668,21.67966674249903,0 74.27707848007461,21.67954312798858,0 74.27708540708586,21.67952497162224,0 74.2771961621763,21.6794375933208,0 74.27729289864504,21.6793865882996,0 74.27743320629375,21.6793619744886,0 74.27745358279358,21.67930788073815,0 74.27748054570492,21.67924199007513,0 74.27750112891496,21.6791759775377,0 74.2775278363235,21.67911643523863,0 74.277554769413,21.67904492899378,0 74.27765221339065,21.67891633354727,0 74.277771990239,21.67890938590827,0 74.2778356723114,21.67886999824107,0 74.27784251021485,21.67884025807453,0 74.27784923164572,21.67881654087603,0 74.27793390753565,21.67864073222906,0 74.27794046914785,21.67862312977754,0 74.27804304523933,21.67846704021125,0 74.27813173210217,21.67837613665678,0 74.27813366069897,21.67823477642664,0 74.27815418869048,21.67809488154209,0 74.27815527833225,21.67801312345737,0 74.27815659744454,21.67791415080333,0 74.27825010423469,21.67785422426129,0 74.27825159970374,21.67772690486587,0 74.2783577002901,21.67759883061777,0 74.27849399967407,21.67747263903451,0 74.2785714621042,21.67741668846896,0 74.27862684203168,21.67740808303842,0 74.27870820670941,21.67738416239541,0 74.27883081139345,21.67736748843374,0 74.27898649473984,21.67732492707596,0 74.27913753467585,21.67732042795981,0 74.27923584452172,21.677302784507,0 74.27939452131574,21.67733680412628,0 74.27953243033167,21.67739729771118,0 74.2795720708727,21.67742086501002,0 74.27963263926978,21.67741796569034,0 74.27974344970222,21.67739532716015,0 74.2798116444316,21.67737636623701,0 74.2798569355987,21.67734553464711,0 74.27999524264928,21.67734595460755,0 74.2800191992078,21.67734697229931,0 74.28015412587158,21.67731999254347,0 74.28027796219911,21.67728169629475,0 74.28041356185629,21.67724396640372,0 74.28054189837479,21.67715180866954,0 74.28060204311126,21.67714895051181,0 74.28068318760388,21.67717947211748,0 74.28075246721065,21.6772095154327,0 74.2808167641962,21.67722851939348,0 74.28087649461288,21.67723105644495,0 74.28092980009014,21.67723874685094,0 74.28101343059063,21.67724229897496,0 74.28108220118273,21.67720725733003,0 74.28118326975431,21.67714118259897,0 74.28118369650157,21.67713579501645,0 74.28122027572699,21.67705099871822,0 74.28128271693276,21.67701595555569,0 74.28132641740459,21.67699091712516,0 74.28145247656754,21.67698014678863,0 74.28157213306778,21.67697448423412,0 74.28166317409948,21.67695150744398,0 74.28175895510613,21.67694484504513,0 74.28191394058263,21.67689318238772,0 
					</coordinates>
				</LinearRing>
			</outerBoundaryIs>
		</Polygon>
		<atom:link rel="app" href="https://www.google.com/earth/about/versions/#earth-pro" title="Google Earth Pro 7.3.6.10201"></atom:link>
	</Placemark>
</Document>
</kml>
