<?xml version="1.0" encoding="UTF-8"?>
<kml xmlns="http://www.opengis.net/kml/2.2" xmlns:gx="http://www.google.com/kml/ext/2.2" xmlns:kml="http://www.opengis.net/kml/2.2" xmlns:atom="http://www.w3.org/2005/Atom">
<Document>
	<name>जामणपाडा_१०२_421.kml</name>
	<StyleMap id="m_ylw-pushpin">
		<Pair>
			<key>normal</key>
			<styleUrl>#s_ylw-pushpin</styleUrl>
		</Pair>
		<Pair>
			<key>highlight</key>
			<styleUrl>#s_ylw-pushpin_hl</styleUrl>
		</Pair>
	</StyleMap>
	<Style id="s_ylw-pushpin">
		<IconStyle>
			<scale>1.1</scale>
			<Icon>
				<href>http://maps.google.com/mapfiles/kml/pushpin/ylw-pushpin.png</href>
			</Icon>
			<hotSpot x="20" y="2" xunits="pixels" yunits="pixels"/>
		</IconStyle>
		<LineStyle>
			<color>d600ffff</color>
			<width>2.8</width>
		</LineStyle>
		<PolyStyle>
			<color>8affffaa</color>
		</PolyStyle>
	</Style>
	<Style id="s_ylw-pushpin_hl">
		<IconStyle>
			<scale>1.3</scale>
			<Icon>
				<href>http://maps.google.com/mapfiles/kml/pushpin/ylw-pushpin.png</href>
			</Icon>
			<hotSpot x="20" y="2" xunits="pixels" yunits="pixels"/>
		</IconStyle>
		<LineStyle>
			<color>d600ffff</color>
			<width>2.8</width>
		</LineStyle>
		<PolyStyle>
			<color>8affffaa</color>
		</PolyStyle>
	</Style>
	<Placemark>
		<name>जामणपाडा_१०२_421</name>
		<styleUrl>#m_ylw-pushpin</styleUrl>
		<Polygon>
			<tessellate>1</tessellate>
			<outerBoundaryIs>
				<LinearRing>
					<coordinates>
						74.00612354059427,21.15544537886076,0 74.00632009972445,21.15538452376212,0 74.00658215247221,21.1553237425921,0 74.00684427994008,21.15520188422908,0 74.00710640779144,21.15508002558481,0 74.00736853454622,21.15495816708129,0 74.00763050673477,21.15495846046648,0 74.00795819980216,21.15477559780401,0 74.00822017027711,21.15477589030571,0 74.00848221653659,21.15471510660298,0 74.0087442604954,21.15465432209263,0 74.00900630514806,21.15459353720507,0 74.00926834901323,21.15453275193614,0 74.00959603453461,21.15434988716527,0 74.00985800065071,21.15435017709929,0 74.01025109942178,21.15422845921601,0 74.01044779930488,21.15404544846793,0 74.01070998960671,21.1538625092468,0 74.01084119665248,21.15367942597186,0 74.01097247998968,21.15343526656893,0 74.01116917675061,21.15325225507117,0 74.01136587273619,21.15306924292367,0 74.01149707749317,21.15288615906363,0 74.01169377210891,21.15270314651442,0 74.01182505138384,21.15245898620806,0 74.01195633003645,21.15221482567128,0 74.01202211817237,21.15197059308271,0 74.01208798133132,21.15166528352204,0 74.01228489626939,21.15129904168143,0 74.01248158665912,21.15111602772704,0 74.01254737358185,21.15087179445116,0 74.0126131594198,21.15062756003495,0 74.01261345654852,21.15038325443055,0 74.0127447308322,21.15013909118126,0 74.01281051566708,21.14989485586375,0 74.01300720290924,21.14971184137216,0 74.01320396344293,21.14946774877131,0 74.01340072314373,21.14922365569982,0 74.01353199446318,21.14897949151176,0 74.01372867897786,21.14879647465062,0 74.01372904741908,21.14849108962083,0 74.01372934201888,21.14824678044815,0 74.01372963648073,21.14800247171416,0 74.01366444365362,21.14775809010859,0 74.0136647379112,21.14751377961436,0 74.01353405717259,21.14726932613317,0 74.01353435128819,21.14702501466768,0 74.01353471873567,21.14671962553617,0 74.01360050013859,21.14647538482613,0 74.013731693887,21.14629229371371,0 74.01386303459726,21.14598704639251,0 74.01419068842594,21.14580416932764,0 74.01445292790943,21.14556014218956,0 74.01484606564118,21.1453773345604,0 74.01510822930835,21.14519438338719,0 74.01530476068956,21.14513351793864,0 74.0155014380822,21.14495049552965,0 74.01576352717035,21.14482862141713,0 74.01596020274407,21.14464559709603,0 74.01622236400495,21.14446264284653,0 74.01641896598251,21.14434069641966,0 74.01655022722629,21.14409652261524,0 74.01668148732644,21.14385234645439,0 74.01681282011951,21.14354709017594,0 74.01694393555006,21.14342507174682,0 74.01694422469495,21.14318075323148,0 74.01714096907376,21.14293664487999,0 74.01733771288978,21.14269253740569,0 74.01740341474533,21.14250936737348,0 74.01812446739534,21.14189933348377,0 74.01950021559203,21.14141214615254,0 74.01982763697909,21.14141249023969,0 74.02028588323419,21.14153513155295,0 74.02061316121663,21.14165763429333,0 74.02107155041325,21.14165811096999,0 74.02139882810665,21.14178060937859,0 74.02159520896724,21.14184189281944,0 74.02192255816419,21.14190331081578,0 74.02218442319342,21.14196466051163,0 74.02270808222048,21.1421484379774,0 74.02303550245185,21.1421487723315,0 74.02336292260797,21.14214910571386,0 74.02382131078437,21.14214957081673,0 74.02421414404705,21.14221104801198,0 74.02454149341668,21.14227245790752,0 74.02493439769316,21.14227285249013,0 74.02532716079803,21.14239540558844,0 74.02604727450948,21.14257936242826,0 74.02637462504902,21.14264076671526,0 74.02663649152319,21.14270210538353,0 74.02696384236449,21.14276350789241,0 74.02716022506844,21.14282478080167,0 74.02748750644912,21.14294725964617,0 74.02774937386909,21.14300859558865,0 74.02814221027647,21.1430700585496,0 74.02827310944402,21.1431312655894,0 74.02866601648245,21.1431316471784,0 74.02899329987613,21.1432541231675,0 74.02932058383516,21.14337659812445,0 74.02971342260767,21.14343805558335,0 74.03010619280346,21.1435605910719,0 74.03043361774195,21.14356090398572,0 74.03076097360459,21.14362229534494,0 74.0311538842781,21.14362266849484,0 74.03148124125084,21.14368405782472,0 74.03174318218201,21.14368430510624,0 74.03213609524182,21.14368467490095,0 74.03246352293904,21.14368498202829,0 74.03279081311132,21.14380744715365,0 74.03305275569566,21.14380769147741,0 74.03338011608828,21.1438690755115,0 74.03370754597475,21.14386937916927,0 74.03396942110177,21.14393070092021,0 74.03429671477203,21.1440531618918,0 74.03455859181796,21.1441144823435,0 74.0350169966292,21.14411490270114,0 74.03540991700757,21.14411526155501,0 74.03573735102121,21.14411555957462,0 74.03639222039813,21.14411615281789,0 74.03665423770261,21.14405530934306,0 74.03698180981854,21.1439334441125,0 74.03737480389779,21.14387271614028,0 74.03750584648556,21.14381175314358,0 74.0377677974687,21.1438119866632,0 74.03796426067463,21.14381216140868,0 74.03822621108469,21.14381239387661,0 74.03848816352597,21.14381262574565,0 74.03861941190425,21.14356842037792,0 74.03875059105852,21.14338529458238,0 74.03894732677333,21.14314114505492,0 74.03901308683655,21.1428968812452,0 74.03920975495622,21.14271381057638,0 74.03947164073986,21.14277512039079,0 74.03973352573368,21.14283642964201,0 74.04032272263019,21.14302018245061,0 74.04084649966946,21.14314279680055,0 74.0410429001723,21.14320404686807,0 74.04123923378809,21.14332637761547,0 74.04150099093319,21.14350984505203,0 74.04169725877506,21.14369325584515,0 74.04189359445122,21.1438155854231,0 74.04222084524508,21.1439991070807,0 74.04241718252369,21.1441214358057,0 74.04261352042514,21.14424376249512,0 74.04300633152481,21.14436625704776,0 74.0432681627881,21.14448863991354,0 74.04353012670657,21.1444888608598,0 74.04372640134791,21.14467226837976,0 74.04385711973949,21.14491670105709,0 74.04405339594385,21.14510010696618,0 74.04424967298783,21.14528351336798,0 74.04444581867978,21.14558908014804,0 74.04444555447304,21.14583340037052,0 74.04437986365218,21.14601658580145,0 74.04437953392275,21.1463219850226,0 74.04431377899179,21.14656624931614,0 74.04431351569211,21.14681056827529,0 74.04424775963903,21.14705483052958,0 74.04418193806843,21.14736017242268,0 74.04418160986263,21.1476655681485,0 74.0441812165426,21.14803204313688,0 74.04418095465017,21.14827635839766,0 74.04418069301282,21.14852067409747,0 74.04404944637292,21.14876487678247,0 74.04404918510244,21.14900919155119,0 74.04398343063718,21.149253449027,0 74.04391767632447,21.14949770682812,0 74.04378643019774,21.149741907848,0 74.04378610454148,21.15004729821099,0 74.04358943028106,21.15023036335828,0 74.04339269112667,21.15047450486263,0 74.04326144551175,21.15071870303827,0 74.04306470518164,21.15096284362961,0 74.04293352485961,21.15114596185389,0 74.04280221450718,21.15145123552272,0 74.0426055410929,21.15163429623318,0 74.042474294478,21.15187849012283,0 74.04227768635407,21.15200047226948,0 74.04195015908527,21.15206126140645,0 74.04162263119787,21.152122049191,0 74.0412951056547,21.15218283648873,0 74.04103300643739,21.15230475796568,0 74.0407709730469,21.15236560185419,0 74.04044344949476,21.15242638624541,0 74.04011585957878,21.15254824683945,0 74.03985382928335,21.15260908858962,0 74.03952624044773,21.1527309468993,0 74.03932963532995,21.15285292280535,0 74.03900198285756,21.15303585573094,0 74.03880537805165,21.15315783041684,0 74.03860870735801,21.15334088043497,0 74.03834661137149,21.15346279452537,0 74.03808444951183,21.15364578355371,0 74.03782235391664,21.15376769618287,0 74.03756032626747,21.15382853219302,0 74.0372981648345,21.15401151895892,0 74.03710156075834,21.15413348986845,0 74.03683939942759,21.15431647523367,0 74.03657730535318,21.15443838456351,0 74.03631514412609,21.15462136841704,0 74.03605311614399,21.15468220082832,0 74.0357911559088,21.15468195718044,0 74.03546363884307,21.15474272744836,0 74.03513618917452,21.15474242148034,0 74.03480874016213,21.15474211479445,0 74.03448129178616,21.15474180739067,0 74.03415391132758,21.15468042395182,0 74.03395751055656,21.15461916345051,0 74.03363013147543,21.15455777897063,0 74.0332371967578,21.15455740702271,0 74.03284426281988,21.15455703403562,0 74.03258230678016,21.15455678479977,0 74.03232035180773,21.15455653510275,0 74.03199283989075,21.15461729745214,0 74.03179637389253,21.1546171094259,0 74.03153435075066,21.15467793339071,0 74.03120690776674,21.15467761883396,0 74.03087946594763,21.15467730355866,0 74.03055202340856,21.15467698756299,0 74.0301590936066,21.15467660741941,0 74.02976616394362,21.15467622623962,0 74.0293733041288,21.1546147691072,0 74.02911142089783,21.15455343882322,0 74.02871849271038,21.15455305492293,0 74.02839105291319,21.15455273421203,0 74.02806361373776,21.15455241277962,0 74.02780166233943,21.1545521551137,0 74.02753964105685,21.15461297182538,0 74.02721220213373,21.15461264850413,0 74.02688469351169,21.15467339926914,0 74.02662274246268,21.1546731395091,0 74.02629523360163,21.15473388894188,0 74.0259023072004,21.15473349756668,0 74.02557479830575,21.15479424495706,0 74.02524721880565,21.15491606677057,0 74.0251161727937,21.15497701022294,0 74.02478873387834,21.15497668155234,0 74.02452678280679,21.15497641810219,0 74.02413385620309,21.15497602207075,0 74.02374092956408,21.15497562501182,0 74.02341349069357,21.15497529334449,0 74.02308605177123,21.1549749609636,0 74.02282402926437,21.15503576926228,0 74.02256200651297,21.15509657667426,0 74.02223456703521,21.15509624245191,0 74.02184163960968,21.15509584044644,0 74.02164510416812,21.15515671378475,0 74.02131766417824,21.15515637758148,0 74.02099022419647,21.15515604066838,0 74.02072827199468,21.15515577062659,0 74.0204007592596,21.15521650719688,0 74.02013880664097,21.15521623614459,0 74.01987670908221,21.15533811418332,0 74.01961475594439,21.15533784225082,0 74.01935273004128,21.15539864422309,0 74.01909070375311,21.15545944619408,0 74.01876326125411,21.15545910455227,0 74.01843581842246,21.15545876220642,0 74.0181737909552,21.15551956266582,0 74.0178463473555,21.1555192190761,0 74.01751890336776,21.1555188747835,0 74.01719145897222,21.155518529788,0 74.01679852542982,21.15551811486585,0 74.0164055912375,21.15551769893144,0 74.01607814530743,21.1555173515459,0 74.01581611401915,21.15557814816164,0 74.01561964605806,21.15557793907483,0 74.01522670956733,21.15557752014323,0 74.01496460329483,21.15569939028851,0 74.01476813359757,21.15569918014835,0 74.01450617492253,21.15569889957113,0 74.01424406613712,21.15582076866612,0 74.01391661597451,21.15582041683139,0 74.0136546558427,21.15582013486221,0 74.01339254490499,21.15594200273874,0 74.01306501861924,21.15600272445884,0 74.01286847134099,21.15606358709831,0 74.01260643396958,21.15612437881169,0 74.01240973602374,21.15630739164348,0 74.01221296192689,21.15655147944646,0 74.01208182867833,21.15667348775751,0 74.01188512850874,21.15685650022142,0 74.01162293628055,21.15703944135077,0 74.01136081792068,21.15716130683528,0 74.01116411505922,21.1573443188288,0 74.01090199484942,21.15746618385137,0 74.01063987366973,21.15758804859336,0 74.01037782927158,21.15764883776291,0 74.0101158590022,21.15764855103169,0 74.00985396465251,21.1575871882751,0 74.00959206993943,21.1575258251122,0 74.00933025148858,21.15740338583813,0 74.00900278738112,21.15740302501913,0 74.00874096823222,21.15728058436826,0 74.00841350270568,21.15728022223367,0 74.00802069641458,21.15715763510161,0 74.00756239507854,21.15703497381413,0 74.0074314838657,21.15697375189639,0 74.00716958683975,21.15691238392909,0 74.006907687848,21.15685101520507,0 74.00664578837163,21.15678964593827,0 74.00638381077167,21.15678935243635,0 74.00612183397244,21.15678905850218,0 74.00592558353171,21.15660560896207,0 74.00572925520338,21.15648323492177,0 74.0054674314257,21.15636078676268,0 74.00527110267124,21.15623841194503,0 74.00540232542538,21.15605533039767,0 74.00559904260862,21.15587232303728,0 74.00586125360373,21.15568938930279,0 74.00605804607706,21.15544530500843,0 74.00612354059427,21.15544537886076,0 
					</coordinates>
				</LinearRing>
			</outerBoundaryIs>
		</Polygon>
		<atom:link rel="app" href="https://www.google.com/earth/about/versions/#earth-pro" title="Google Earth Pro 7.3.7.1094"></atom:link>
	</Placemark>
</Document>
</kml>
