<?xml version="1.0" encoding="UTF-8"?>
<kml xmlns="http://www.opengis.net/kml/2.2" xmlns:gx="http://www.google.com/kml/ext/2.2" xmlns:kml="http://www.opengis.net/kml/2.2" xmlns:atom="http://www.w3.org/2005/Atom">
<Document>
	<name>जामतलाव_५६_401.kml</name>
	<StyleMap id="m_ylw-pushpin">
		<Pair>
			<key>normal</key>
			<styleUrl>#s_ylw-pushpin</styleUrl>
		</Pair>
		<Pair>
			<key>highlight</key>
			<styleUrl>#s_ylw-pushpin_hl</styleUrl>
		</Pair>
	</StyleMap>
	<Style id="s_ylw-pushpin">
		<IconStyle>
			<scale>1.1</scale>
			<Icon>
				<href>http://maps.google.com/mapfiles/kml/pushpin/ylw-pushpin.png</href>
			</Icon>
			<hotSpot x="20" y="2" xunits="pixels" yunits="pixels"/>
		</IconStyle>
		<LineStyle>
			<color>d600ffff</color>
			<width>2.8</width>
		</LineStyle>
		<PolyStyle>
			<color>8affffaa</color>
		</PolyStyle>
	</Style>
	<Style id="s_ylw-pushpin_hl">
		<IconStyle>
			<scale>1.3</scale>
			<Icon>
				<href>http://maps.google.com/mapfiles/kml/pushpin/ylw-pushpin.png</href>
			</Icon>
			<hotSpot x="20" y="2" xunits="pixels" yunits="pixels"/>
		</IconStyle>
		<LineStyle>
			<color>d600ffff</color>
			<width>2.8</width>
		</LineStyle>
		<PolyStyle>
			<color>8affffaa</color>
		</PolyStyle>
	</Style>
	<Placemark>
		<name>जामतलाव_५६_401</name>
		<styleUrl>#m_ylw-pushpin</styleUrl>
		<Polygon>
			<tessellate>1</tessellate>
			<outerBoundaryIs>
				<LinearRing>
					<coordinates>
						73.80747219548101,21.1007687189819,0 73.80761502601391,21.10076904247239,0 73.80804399677838,21.10050292189186,0 73.80832985161003,21.10037004354604,0 73.80868717859811,21.1001705907139,0 73.80897286609458,21.10010448936817,0 73.80933001801165,21.0999718130389,0 73.80961558799488,21.09997245714819,0 73.80990108811689,21.10003984009035,0 73.80990073803595,21.10037358970045,0 73.80968622307533,21.10064016971981,0 73.80954300165509,21.10097375559799,0 73.80954260368796,21.10130775174483,0 73.80947084717081,21.1015748513697,0 73.80947052109431,21.10184216817382,0 73.80947019499668,21.10210954149888,0 73.80954125038411,21.1024439990792,0 73.80939799009023,21.10271117707385,0 73.80939748931902,21.1031125343377,0 73.80932566514875,21.10338001508656,0 73.80932523816624,21.10371464760699,0 73.80925330185215,21.10404920724902,0 73.80925286517595,21.10438401706246,0 73.80925251580166,21.10465192918765,0 73.80932378611656,21.10485306123006,0 73.80946644335486,21.10518840785587,0 73.80968076636103,21.10545697445288,0 73.80982365035754,21.10565839707652,0 73.80996648897553,21.10592690273671,0 73.80996614838865,21.10626221018921,0 73.80982271473108,21.10653019780263,0 73.80960773914029,21.10673098232106,0 73.80939264576965,21.10699890754662,0 73.80939231154643,21.107267375082,0 73.80917723790104,21.10746827665371,0 73.80903374304783,21.10766937299136,0 73.80889012794337,21.10793765924065,0 73.80867495612696,21.10813866728542,0 73.80853127533601,21.10840705324483,0 73.80831603378493,21.10860813686072,0 73.80817240370398,21.10880941375908,0 73.80795697628528,21.1090777800182,0 73.80767010070174,21.10921157853506,0 73.80745472003342,21.10941278911063,0 73.80716763521022,21.10961387009582,0 73.80688080667284,21.10968047054898,0 73.80659396268038,21.10974707429667,0 73.80630710319303,21.1098136813421,0 73.80602022822217,21.10988029168856,0 73.80573315539331,21.11001417309051,0 73.80544605152446,21.1101480694813,0 73.80508722789632,21.11028181687434,0 73.80487175054141,21.11041590442823,0 73.80458455343751,21.11054984300319,0 73.80436902553126,21.1106839579464,0 73.80408154295154,21.11088524006658,0 73.80386619144382,21.11095206901214,0 73.80365082844106,21.11101890140643,0 73.8034297907686,21.11146593006241,0 73.80345282691921,21.11155721516468,0 73.80340466568109,21.1116712506966,0 73.8034040160119,21.11176264848228,0 73.80340336580277,21.11185412141028,0 73.80335494778217,21.11199136261257,0 73.80335427685928,21.11208302215348,0 73.80330612492079,21.1121746477092,0 73.80330577927424,21.11222054295893,0 73.80325704416536,21.11238121573572,0 73.80323237974062,21.11249614595982,0 73.80320787311457,21.11258816390703,0 73.8031833464172,21.11268025650232,0 73.80315861124868,21.11279549264108,0 73.803134232682,21.112864669254,0 73.80310983925537,21.11293388837253,0 73.80308503847461,21.11304938432173,0 73.80308386087717,21.11318820028941,0 73.80303495752639,21.11332707911173,0 73.80300925795413,21.1135358263624,0 73.80300864466612,21.1136055129046,0 73.80303152539784,21.11372180706792,0 73.80303071607221,21.11381488492793,0 73.80302990607257,21.11390803938385,0 73.8030286898131,21.11404791423905,0 73.80307577452878,21.11414136965472,0 73.8030749819149,21.11423479299514,0 73.8030741886397,21.11432829336518,0 73.80304941684868,21.11442181627416,0 73.80304841112306,21.11453889606638,0 73.80307160592345,21.1146327020652,0 73.80307080982824,21.11472653089272,0 73.80309422982486,21.11479700806492,0 73.80309304859304,21.11493798344969,0 73.80309226027748,21.11503206465932,0 73.80309147130181,21.11512622372684,0 73.80306661939164,21.11522040598469,0 73.8030658191215,21.11531472104187,0 73.80301685373189,21.11540900397406,0 73.80301623760398,21.1154798501972,0 73.80301520986214,21.11559802516384,0 73.80299027480967,21.11569259851523,0 73.80296531889965,21.11578725037407,0 73.80296489679516,21.11583463255789,0 73.80279521826648,21.11617145200831,0 73.80281744772365,21.11625830296561,0 73.80281659205052,21.11634517004617,0 73.80279284017858,21.11641031283334,0 73.80276819849766,21.11656253398608,0 73.80267455392104,21.11667121936138,0 73.80258057820799,21.11680182667945,0 73.80255646574237,21.1168890729813,0 73.80248599514076,21.11697628282602,0 73.80241572287615,21.11704169609272,0 73.80236833265545,21.11712908043643,0 73.8023443613928,21.11719469090868,0 73.80229664265721,21.1173041111573,0 73.80227263091355,21.11736982627256,0 73.80224833283833,21.11745752521072,0 73.80222374093201,21.11756726061159,0 73.80217588093932,21.117677052436,0 73.80217504261094,21.11774304390255,0 73.80212711994538,21.11785301126164,0 73.80205616687809,21.11794098980993,0 73.80198545610824,21.11800698011998,0 73.80191500883195,21.11805094229683,0 73.80184359380696,21.118161164446,0 73.8017497692511,21.11820513517291,0 73.80167855101621,21.11829339559894,0 73.80163059427186,21.11838178002504,0 73.80153663255385,21.11842583897133,0 73.80144227939826,21.11849206697077,0 73.80137120598246,21.11855838813221,0 73.80129972146757,21.11864693198704,0 73.80120520207956,21.11871329293172,0 73.80113360051982,21.11880196100312,0 73.80106194135614,21.11889070028755,0 73.80096764781318,21.11893496313898,0 73.8008962883612,21.11900155097284,0 73.80082488580734,21.11906817910693,0 73.80075344011426,21.11913484742223,0 73.80065854593265,21.11920150213041,0 73.80058744809807,21.1192459433128,0 73.80046903902614,21.11931261184077,0 73.80039786712553,21.11935709773564,0 73.80027934096192,21.11942383305544,0 73.80018466145759,21.11946831014502,0 73.80011289194184,21.11953522018676,0 73.79999418372289,21.11960206311294,0 73.79994627511898,21.11964671923852,0 73.79987488952392,21.11969133972038,0 73.79975760366844,21.11969107147041,0 73.79963977937945,21.11971320061449,0 73.79954484642623,21.11975779431614,0 73.79944987454022,21.11980240600263,0 73.79935486423885,21.11984703537141,0 73.79926039208236,21.11986924954891,0 73.79916648739169,21.11986903470179,0 73.79907258209175,21.11986881983534,0 73.7989786767161,21.11986860495078,0 73.79888599993728,21.11982353671344,0 73.79881682752143,21.1197785406382,0 73.79874893854495,21.11968876329568,0 73.79870328840215,21.11964387489132,0 73.79861204271502,21.11955415258806,0 73.7985436567941,21.11948690799857,0 73.79845188285223,21.11941965029932,0 73.79838424990581,21.11933016195426,0 73.79831600141901,21.11926305243165,0 73.79827119984336,21.11919603699574,0 73.79820370744211,21.11910672833052,0 73.7981355818789,21.1190397534426,0 73.79804411505788,21.11897276540105,0 73.79797607854728,21.1189058711094,0 73.79793145066648,21.11883907082179,0 73.7978386954683,21.11881663424398,0 73.79774668402236,21.11877198893228,0 73.79765397459954,21.11874956590983,0 73.79758464027877,21.11872720080596,0 73.79744601323758,21.11868248398334,0 73.79735413561214,21.1186378923834,0 73.79728486593619,21.11861554957732,0 73.79717049121128,21.11854876234117,0 73.79707872384581,21.1185042241867,0 73.79698699319202,21.11845970366869,0 73.796871975776,21.11841514747736,0 73.79675700378729,21.11837060889787,0 73.79666622487827,21.11830402211736,0 73.79659880578319,21.11823752869597,0 73.79650812927171,21.11817102169485,0 73.79639421516465,21.11810450092868,0 73.79632607277314,21.11806019362891,0 73.7962588296426,21.11799384636876,0 73.79619162680085,21.11792753868201,0 73.79607704334778,21.11788319500135,0 73.79608148961184,21.11777308250431,0 73.7959920547006,21.11768485733479,0 73.79590087887263,21.11764066402825,0 73.79580973935414,21.11759648821827,0 73.79557364659746,21.11735447210578,0 73.79550308050185,21.11733237771826,0 73.79538519628072,21.11728825686001,0 73.79531103828093,21.11717855036334,0 73.79519327499052,21.1171344909443,0 73.79514511366639,21.11709061281976,0 73.79500512736568,21.11706840738362,0 73.79491066289975,21.11702444639109,0 73.79481795158209,21.11702422807786,0 73.79472354243921,21.11698028461897,0 73.79465234035514,21.11693641318055,0 73.79455883462226,21.11691434762627,0 73.79444136317194,21.11687039332763,0 73.79434628573711,21.11680468552046,0 73.79427441312394,21.11673907146209,0 73.79417864965809,21.11665164692549,0 73.79410609196864,21.11656434633526,0 73.79403359207195,21.11647711511314,0 73.79393957550266,21.11643338937068,0 73.79384483725116,21.11636794216251,0 73.79382021632846,21.11632442303311,0 73.79372257670846,21.11617221483733,0 73.79365109729322,21.11610697749948,0 73.79353423914195,21.11606334446168,0 73.79343978175709,21.11599811745636,0 73.79336915328277,21.11595463623463,0 73.79332231846772,21.11593287491759,0 73.79318255998531,21.1158892565107,0 73.79306455241316,21.11580245169011,0 73.79294797337496,21.11575893928561,0 73.79285382181573,21.1156938929193,0 73.79273734197791,21.11565042346668,0 73.79262217862323,21.11565015198269,0 73.79252879628146,21.11560675393427,0 73.79243606730266,21.11558495282238,0 73.79232033361639,21.11556310161929,0 73.79220462245408,21.11554125476913,0 73.79208951673806,21.11554098320116,0 73.79197441116001,21.11554071157592,0 73.79183572707605,21.11551881454493,0 73.79178968960682,21.11551870586546,0 73.79165049989717,21.11547525073537,0 73.79153542897582,21.11547497899595,0 73.79144388992275,21.11549632384955,0 73.79135233284097,21.11551767294787,0 73.79126075772206,21.11553902621661,0 73.79116867367206,21.11553880859027,0 73.79107659022225,21.11553859092846,0 73.79096148522781,21.11553831879777,0 73.79082335980422,21.11553799216626,0 73.79073172370883,21.11555934922866,0 73.79061660818397,21.11555907689384,0 73.79052451552622,21.11555885898404,0 73.79043242293538,21.11555864103764,0 73.79031771437076,21.11557994763787,0 73.79024943827426,21.11562295495076,0 73.79015731853174,21.11562273681574,0 73.7900421693341,21.11562246409679,0 73.7899270199685,21.11562219132041,0 73.78981187069476,21.11562191848723,0 73.78971975123537,21.11562170017953,0 73.7895815724132,21.11562137265042,0 73.78948912829034,21.11559956686907,0 73.78939670278068,21.11557776544579,0 73.78932762716769,21.11557760163414,0 73.78921190651987,21.11553417536099,0 73.78909680333048,21.11553390230155,0 73.78898142577691,21.1155120590009,0 73.78886580817635,21.1154686584124,0 73.78877375327104,21.1154684399066,0 73.78868145346127,21.11544666404151,0 73.78854315378791,21.11542478324348,0 73.78842810790401,21.11542451000425,0 73.7882900530269,21.11542418204066,0 73.78817500727132,21.11542390867347,0 73.78805996157014,21.11542363524812,0 73.78796792494185,21.1154234164657,0 73.78785287933243,21.11542314293562,0 73.78771482476847,21.11542281462297,0 73.78757677026877,21.11542248622651,0 73.78746172481097,21.11542221249857,0 73.78734667939237,21.11542193871243,0 73.78718561594616,21.11542155531421,0 73.78704756152231,21.11542122659612,0 73.78693251635563,21.11542095260069,0 73.7868174710858,21.11542067854672,0 73.78670242584144,21.1154204044345,0 73.78661042953344,21.11544173755781,0 73.78649540142501,21.11546302007271,0 73.78640336646949,21.11548436153305,0 73.78631132358906,21.11552727674369,0 73.78621924428708,21.11557020880345,0 73.78612714444077,21.11556998912028,0 73.78601198095349,21.11561288308796,0 73.78587380385994,21.11561255335957,0 73.78575856741281,21.11565546409723,0 73.78568941390853,21.11567689834904,0 73.78552802489811,21.11571972441255,0 73.78541282029971,21.1157194492701,0 73.78532048096591,21.11576245720823,0 73.78520515428069,21.11578380238324,0 73.78508980473707,21.11580515168916,0 73.78499736477363,21.11584819349288,0 73.78492820087502,21.11584802816362,0 73.7847897326525,21.11586933490498,0 73.78467444811959,21.11586905921931,0 73.78458189828392,21.11591212634572,0 73.78448948197821,21.11593355592619,0 73.78439704739893,21.11595498971753,0 73.78430440579596,21.11599809079141,0 73.78421212319533,21.11599786993855,0 73.78409635123042,21.11604093278476,0 73.78398097513768,21.11604065656473,0 73.78384252359578,21.11604032502866,0 73.78375046625355,21.11601843242892,0 73.78363510135804,21.1160181560707,0 73.78349666353216,21.11601782436926,0 73.78335822564078,21.11601749258947,0 73.78326564177307,21.1160389427879,0 73.78314996201196,21.11606034187515,0 73.78301149647562,21.11606000984158,0 73.78291918589832,21.11605978844211,0 73.78282687554686,21.11605956700863,0 73.78271148735629,21.11605929016756,0 73.78261917665394,21.11605906865544,0 73.7825268661733,21.1160588471093,0 73.78243530367402,21.11601527871938,0 73.7823199384099,21.11601500174121,0 73.78220457281218,21.11601472470793,0 73.78211228017628,21.11601450304183,0 73.78199691444507,21.11601422591048,0 73.78188069049808,21.11605729531273,0 73.78178837964249,21.11605707348912,0 73.78169517335596,21.11610021534493,0 73.78160284407788,21.1160999934162,0 73.78151004846757,21.11612145971011,0 73.78141723464621,21.11614293025262,0 73.78130179972624,21.11614265266244,0 73.78120945161845,21.1161424305514,0 73.78107092986887,21.11614209732172,0 73.78097858160734,21.11614187512482,0 73.78084005935817,21.11614154176567,0 73.78074771093495,21.11614131948287,0 73.78065536244483,21.11614109716571,0 73.78053992713068,21.11614081922188,0 73.78040140439923,21.11614048561789,0 73.78033214244731,21.11614031878563,0 73.78024038626357,21.11611840397443,0 73.78010187692189,21.11611807022742,0 73.78000953709102,21.11611784768591,0 73.77991782122473,21.11609593714414,0 73.77982675642407,21.11605235152239,0 73.77973444436238,21.11605212892667,0 73.7796203600942,21.1160085048741,0 73.7795049923989,21.11600822656502,0 73.77941269783301,21.11600800387768,0 73.77932176885203,21.11596445263116,0 73.77920642368895,21.11596417421873,0 73.77911344379032,21.11598561351134,0 73.77901973256635,21.11602872769815,0 73.7789483447322,21.11609359818111,0 73.77885455406769,21.11613675511401,0 73.7787830814639,21.11620168989688,0 73.77871082187211,21.1162883855187,0 73.77863925658959,21.11635341055957,0 73.77854376954755,21.11644017086592,0 73.77847210447911,21.11650528633624,0 73.77837726341984,21.11657038475138,0 73.77823608386326,21.1166354102025,0 73.77811796787597,21.11670053033485,0 73.7780245639282,21.11672211520796,0 73.77793031759666,21.11676552150941,0 73.77781454589517,21.116765241796,0 73.77772277252171,21.11674320084769,0 73.77767986287952,21.11665586371765,0 73.77761385340474,21.11656854002191,0 73.77752390851519,21.1165029948376,0 73.77745800673478,21.11641579233184,0 73.77736817059152,21.11635033796621,0 73.77730149198472,21.1162849783842,0 73.77723574363387,21.11619794858757,0 73.77714516320613,21.11615431975331,0 73.7770786102398,21.11608907654531,0 73.77698902058273,21.11602381614759,0 73.77692255293714,21.11595865032206,0 73.77685612525876,21.11589352318241,0 73.77678973751429,21.11582843461719,0 73.7767224490411,21.11578500779947,0 73.77665613319448,21.11571998354748,0 73.77656681809735,21.11565494187767,0 73.77647563046672,21.11563312078651,0 73.77640846375647,21.11558977099724,0 73.77627027715768,21.11558943553879,0 73.77618013687197,21.11554604691375,0 73.77608803076896,21.11554582321753,0 73.77594987084534,21.11554548760254,0 73.77585776441452,21.11554526381381,0 73.77574263040134,21.11554498402396,0 73.77562749617738,21.11554470417627,0 73.77553538927434,21.11554448025801,0 73.77542025466472,21.11554420030621,0 73.77532814745,21.11554397630466,0 73.77521301244678,21.11554369624874,0 73.77511980768678,21.11556505232521,0 73.77500466088571,21.11556477215101,0 73.77491030669991,21.11560772119378,0 73.77481704380335,21.11562908988357,0 73.77472148781841,21.11569367012859,0 73.7746489244941,21.11575834483961,0 73.77453020380899,21.11582294571208,0 73.77443447672651,21.11588764116247,0 73.77433869145599,21.11595237504543,0 73.77422096059907,21.11599542134239,0 73.77412626339793,21.11603854084924,0 73.77403032030676,21.11610336460349,0 73.77393553686039,21.11614652693324,0 73.77386626244228,21.11614635828411,0 73.77370462213011,21.11614596469481,0 73.77358916385656,21.11614568349342,0 73.77349932009101,21.11610207144296,0 73.77343386116097,21.11603685437661,0 73.77339278483942,21.11595007092574,0 73.7733978652555,21.1158634686516,0 73.7733568356097,21.11577682243959,0 73.77336192613342,21.11569035717138,0 73.77336828353926,21.11558237175754,0 73.77339638873279,21.1154961164839,0 73.77340272327937,21.11538832299634,0 73.77347553575311,21.11532386649093,0 73.77352530615237,21.11525939203575,0 73.77357504801829,21.11519495578202,0 73.77364898477573,21.115109118896,0 73.77369989031637,21.1150232936539,0 73.7737724920716,21.1149590531926,0 73.77380035570617,21.11487329027187,0 73.77385114603464,21.11478765101292,0 73.77390189621278,21.11470207923415,0 73.77392967567911,21.11461651881236,0 73.77393572130532,21.11450959291074,0 73.77393692970799,21.11448822031822,0 73.77390758995296,21.11417630808648,0 73.77384450101314,21.11401259422913,0 73.77378040378478,21.11388170873439,0 73.77374944988077,21.11378365510607,0 73.77365453279552,21.11355503944931,0 73.77362799495116,21.11332691080681,0 73.77359931839194,21.1131641348106,0 73.7735706698261,21.11300152306314,0 73.77357612158679,21.11283915669419,0 73.77358156773118,21.11267695403023,0 73.77358483274219,21.11257971041275,0 73.77362429693943,21.11241785043173,0 73.77366372055121,21.11225615299847,0 73.7737370979376,21.11209470005052,0 73.77380933749923,21.11196568724896,0 73.77388046397661,21.11186903672523,0 73.77395049830264,21.11180468995604,0 73.77405757226597,21.11164377199155,0 73.77416351251115,21.11151520300566,0 73.77430429680039,21.11135465709571,0 73.77437513761471,21.11125837399682,0 73.77448181570773,21.11109800315639,0 73.77462029960355,21.11100203780758,0 73.7747248336166,21.11090604834435,0 73.77479640894265,21.11077798809273,0 73.77483313199683,21.11068196897457,0 73.77493938827858,21.11052217429898,0 73.77501079242283,21.11039442073015,0 73.77508120826957,21.1102987133205,0 73.77518629340038,21.11017121987434,0 73.77529129444407,21.1100438281253,0 73.77539621150812,21.10991653783552,0 73.77546818776976,21.10975742479497,0 73.77557206036904,21.10966218000193,0 73.77561017292754,21.10950323860565,0 73.77571478471816,21.10937637877523,0 73.77578562302682,21.10924953834521,0 73.77589008140204,21.10912288025479,0 73.77592712944306,21.10899615989248,0 73.77603061649197,21.10890136896668,0 73.77616932015098,21.10874342813167,0 73.77620702626555,21.10858539984791,0 73.77621271600661,21.10836430952448,0 73.77628152002094,21.10830135988191,0 73.77641746388565,21.10823859774038,0 73.77652133896513,21.10811274179352,0 73.77659080162154,21.10801839489297,0 73.7766945356671,21.10789271326314,0 73.77676389772866,21.10779849701514,0 73.7768004445885,21.10767282715054,0 73.77676994176863,21.10754709441165,0 73.77677296013395,21.10742154202491,0 73.77664204147372,21.10729576454351,0 73.77651044734752,21.10720141535176,0 73.77651356492855,21.10707613573241,0 73.77638289074054,21.1069506305438,0 73.77631759192599,21.10688791518213,0 73.7761870730817,21.10676255808378,0 73.77612185148537,21.10669991675272,0 73.77595807891001,21.10657462670648,0 73.77586122431995,21.10644959708939,0 73.77573020985361,21.10635574772812,0 73.77563264789863,21.10626203472742,0 73.77550353085651,21.1061060500207,0 73.77540699791692,21.10598138879243,0 73.77524297543259,21.10588773394465,0 73.77524747912099,21.10573244075461,0 73.775183559928,21.10563917599345,0 73.77502070245083,21.10551471908796,0 73.77492546998067,21.10535954842972,0 73.77489592470009,21.10523563468895,0 73.77483033090962,21.1052045297936,0 73.77466592367992,21.10514225666899,0 73.77460325685119,21.10501843186996,0 73.77447417637576,21.10489454230841,0 73.77427776837217,21.10480144507888,0 73.77411468749305,21.10470848332874,0 73.77401810593103,21.10461573861926,0 73.77388941843849,21.10449216293084,0 73.77382511206105,21.10443041126829,0 73.77366235503642,21.10433766709729,0 73.77356601931342,21.10424513896158,0 73.77366866016847,21.10415315184465,0 73.77380334765739,21.10409201926618,0 73.77383959372447,21.10399996022229,0 73.77394207354692,21.10390811679401,0 73.77414785500403,21.1036939440314,0 73.77428521418543,21.10354111910676,0 73.77438936730719,21.10338836271473,0 73.77442633386246,21.10326615124218,0 73.77439815392842,21.10311333935605,0 73.77443411295296,21.10302185267489,0 73.77450500288403,21.10286952093933,0 73.7744428496565,21.10274747113605,0 73.77438074477247,21.10262551617397,0 73.77431868740885,21.10250365636571,0 73.7742896451995,21.10238197150892,0 73.77426062476569,21.10226038156308,0 73.77423162685973,21.10213888556305,0 73.77423557915944,21.10201756454596,0 73.77420562394899,21.10192655527501,0 73.77404304613795,21.10186556174732,0 73.77404606293052,21.10177472097024,0 73.77408297192204,21.10165376321311,0 73.7741527280528,21.10153297943999,0 73.77418956685376,21.10141220860341,0 73.77422637699978,21.10129153128574,0 73.77432981012355,21.10114095783755,0 73.77436653288014,21.10102049048444,0 73.77450165599106,21.10090035781594,0 73.77460387733639,21.10078023752036,0 73.77470508159908,21.10069026852406,0 73.77483900470766,21.10060043285784,0 73.7748427017671,21.10048030322131,0 73.7748445492043,21.10042027317541,0 73.77488282688222,21.10024040227843,0 73.77481919826577,21.10018030417451,0 73.77472567005866,21.10003032151091,0 73.77463128952893,21.09991039041364,0 73.77466775067195,21.09979087278617,0 73.77473872550387,21.09961180900193,0 73.77493293956547,21.09967200887122,0 73.77500192311089,21.09955275520062,0 73.77513437567433,21.0994934032245,0 73.77526765742088,21.09940425858647,0 73.77539999534939,21.09934496354134,0 73.77559671097653,21.09931564458935,0 73.77569547349268,21.09928609115115,0 73.7758268522679,21.09925662327457,0 73.77599326461282,21.0991379292084,0 73.77609273084433,21.09907865625854,0 73.77622555509974,21.0989897495445,0 73.77629310814477,21.09890073446256,0 73.77639397904309,21.09878215479957,0 73.77646219981716,21.09866358559346,0 73.77653036806713,21.09854510732811,0 73.77663103197824,21.09842679949625,0 73.77673235341751,21.09827898333622,0 73.77680033263566,21.09816079983073,0 73.77683502838866,21.0980721818508,0 73.77693541982515,21.09795423608263,0 73.77697005261217,21.09786573670972,0 73.77703714484363,21.09777736749448,0 73.77713666698244,21.09768912911868,0 73.77723681750922,21.09757147619141,0 73.77730376793278,21.09748327566381,0 73.77737068022267,21.09739512566025,0 73.77753615242152,21.09724845306744,0 73.77763535958438,21.09716051662832,0 73.77776754737307,21.09704334707898,0 73.77789901278732,21.09695560689793,0 73.77799802121557,21.09686783785002,0 73.77809697245156,21.09678011893402,0 73.77822823018155,21.09669252897,0 73.77829353970844,21.09666339597696,0 73.77839405841935,21.09648800609586,0 73.77849333629258,21.09637126893606,0 73.77859253835072,21.09625462056115,0 73.77865936011216,21.09613798223729,0 73.7787255907281,21.09605060098888,0 73.77885635560085,21.0959634274663,0 73.77898550060017,21.09596374157423,0 73.77917921757269,21.09596421246536,0 73.77930690833536,21.09605201431019,0 73.77943608959612,21.09605232798657,0 73.77959665191153,21.09611107365814,0 73.77972585799402,21.09611138706206,0 73.77988693567471,21.09614096388122,0 73.78004845791254,21.0961413552412,0 73.78014618165878,21.096083224867,0 73.78030767295053,21.09608361580614,0 73.78040342706095,21.09617140636636,0 73.78049923535696,21.09625924692372,0 73.78059509880761,21.09634713752493,0 73.78069137026229,21.0964058372163,0 73.78085201709811,21.09649396754163,0 73.78098073106172,21.09655280097928,0 73.78110949413224,21.09661165584812,0 73.78123830632273,21.09667053380914,0 73.78136745680598,21.09670013718371,0 73.78152927169475,21.0967005271279,0 73.78165846220963,21.09673013585565,0 73.78182029226348,21.09673052543978,0 73.7819821224503,21.09673091480588,0 73.78214395259046,21.09673130395353,0 73.7823057826886,21.09673169288273,0 73.78243487231748,21.0967906148089,0 73.78256436104354,21.09679092571145,0 73.78269352470534,21.09684986987027,0 73.78282258746711,21.09693817265087,0 73.78295186219202,21.09699717270191,0 73.78304852887354,21.09711485173643,0 73.78311272825574,21.09726194001149,0 73.78317722219006,21.09735032300118,0 73.78320908579417,21.0974975591623,0 73.78327344200893,21.09764501374371,0 73.78327290461112,21.09779245292475,0 73.78323987347427,21.09793995616523,0 73.78317441892347,21.09805796696278,0 73.78314143228297,21.09817614600818,0 73.78304335899394,21.09829425971676,0 73.78294521034518,21.09841246305661,0 73.78287954190432,21.09853083585087,0 73.78297693643286,21.09859036849122,0 73.78310693657812,21.09865000191268,0 73.78323687538774,21.09873933869843,0 73.78333440421157,21.09879895105196,0 73.783464471149,21.09888837335837,0 73.78356217077605,21.09891832133669,0 73.78372502378787,21.09897815805649,0 73.783855278659,21.09906768312587,0 73.78398560877419,21.09915725966695,0 73.78411604105153,21.09921710986959,0 73.7842138721219,21.09930669438233,0 73.784311767753,21.09936652396542,0 73.78440970403072,21.09948601827297,0 73.78447504719421,21.09960552572054,0 73.78457312213044,21.09972520393372,0 73.7846712727098,21.09984497426793,0 73.78476949920908,21.0999648368335,0 73.78490047189725,21.10005493076489,0 73.78499879497478,21.10014499790058,0 73.78506450486981,21.10026501358958,0 73.7851628678189,21.10032521207559,0 73.78532704106193,21.10047561479911,0 73.78545839110149,21.10056600399481,0 73.78555703821084,21.10065636749707,0 73.78565574245198,21.10074678246154,0 73.78578730255273,21.1008373285847,0 73.78588613113556,21.10092784915685,0 73.786050652342,21.10101857808478,0 73.78614961504702,21.10110920361324,0 73.78628128911279,21.101169805709,0 73.78638036715756,21.10126051884954,0 73.7865121499315,21.1013211785325,0 73.78664420214686,21.10141205734698,0 73.78677610019189,21.1014727763947,0 73.78687541849635,21.10156366516451,0 73.78700742539574,21.10162444283071,0 73.7871397505955,21.10171549710002,0 73.78723897589629,21.10177625556707,0 73.78737114379042,21.10183711544172,0 73.78750366489989,21.10192829357479,0 73.78760302863139,21.10198913439341,0 73.78773568233373,21.10208040043658,0 73.78786841317229,21.10217171997224,0 73.78800122196496,21.10226309262486,0 73.78813338026134,21.10229376966101,0 73.78829851972259,21.10232452997846,0 73.78843112612152,21.1023856020443,0 73.78856297224527,21.10238591332935,0 73.78869565614943,21.10244700900919,0 73.78879456022557,21.10244724237663,0 73.78896028960939,21.10250843946283,0 73.78909264496437,21.10253916350328,0 73.78922502658394,21.10256989342377,0 73.78935743372708,21.10260062922482,0 73.78949036355883,21.10266180729009,0 73.78962385452621,21.10275346410754,0 73.78978990801116,21.10281477963768,0 73.78992301292608,21.10287604122137,0 73.79002315027513,21.10293724846681,0 73.79018994493288,21.10302914344081,0 73.79025771932564,21.10312085893257,0 73.79042350377381,21.10315177933011,0 73.79052442548726,21.1032436436264,0 73.79065785690482,21.1033050719759,0 73.79072582826088,21.10339694853512,0 73.79089307349713,21.10348911195463,0 73.79102668167587,21.1035506355081,0 73.79112790907151,21.10364273329441,0 73.79126230018434,21.10373496269557,0 73.79136365634996,21.10382716791674,0 73.79153062068741,21.10388890150798,0 73.79166452435565,21.10395058140666,0 73.79179775610687,21.10398158576658,0 73.79189934942281,21.1040739356358,0 73.79203415235948,21.10416641692394,0 73.79216903471865,21.10425895285015,0 73.79230322096645,21.10432077723297,0 73.79243746074572,21.10438262574987,0 73.79253857408879,21.10444442026685,0 73.79267291297445,21.10450631709759,0 73.79277411241137,21.1045681603913,0 73.79287618340837,21.10466085410496,0 73.79301152654138,21.10475367958432,0 73.79314609076546,21.10481569747687,0 73.79324835191487,21.10490853655746,0 73.7933839108383,21.10500150799427,0 73.79351865449054,21.10506362257757,0 73.79365345130701,21.10512576191433,0 73.7937883013101,21.1051879255858,0 73.79389087322397,21.10528098321842,0 73.79402583581407,21.10534320779426,0 73.79412948651904,21.10546734093767,0 73.79423031540183,21.10549856458708,0 73.79433409713077,21.10562281973035,0 73.79443796076913,21.10574717255693,0 73.79454090732898,21.10584055992986,0 73.79461158432284,21.10596500609666,0 73.79461661869195,21.10612050668733,0 73.79448617704499,21.10621356829762,0 73.79435467706983,21.10627553584403,0 73.79422312468282,21.10633752741661,0 73.79409056419971,21.10636837611114,0 73.79395892121968,21.10643040421435,0 73.79389589297621,21.10655500270605,0 73.79386716506646,21.10671100637421,0 73.79383747675348,21.10683590429501,0 73.7938077642884,21.10696090072467,0 73.79374364646505,21.10705461485482,0 73.79367948991991,21.10714838418914,0 73.79354925194058,21.10727339169556,0 73.79348589390945,21.1073986549449,0 73.79342248581166,21.1075240171367,0 73.79339343607212,21.10768097738044,0 73.79332904957801,21.10777511773391,0 73.79333347847302,21.10793240520557,0 73.79337058517027,21.10805842618923,0 73.79347487031855,21.10818470489532,0 73.79354565138843,21.10831100477913,0 73.79368184586707,21.1083744291726,0 73.79381809389842,21.10843787872582,0 73.79395534670466,21.10853294223987,0 73.79409171799004,21.10859645469053,0 73.79422912106911,21.10869161257813,0 73.79436462314023,21.10872355515318,0 73.79450015313887,21.10875550404485,0 73.79460410207442,21.10885067751288,0 73.79474073915638,21.10891431607343,0 73.79487638809127,21.10894630288756,0 73.79501311984858,21.10900997937844,0 73.79514990704803,21.10907368116415,0 73.7952867489599,21.10913740828052,0 73.79539105819184,21.10923280925401,0 73.79539543948307,21.10935978271802,0 73.79539982434784,21.10948685721551,0 73.79540531045851,21.10964584253357,0 73.79541080217054,21.10980498620607,0 73.79541629949071,21.10996428841879,0 73.79542070139294,21.11009184456798,0 73.79542731099062,21.11028336943415,0 73.79543172189577,21.11041118006683,0 73.79543834502863,21.11060308752311,0 73.7954438705215,21.11076318607974,0 73.79544940167538,21.11092344463725,0 73.79541995285749,21.11105168701957,0 73.79542437191598,21.11118011181861,0 73.79532598468603,21.11127625841372,0 73.79519254408945,21.11134022809073,0 73.7950579817183,21.11137206271076,0 73.79492339182727,21.11140390361265,0 73.79482269348824,21.11143583079953,0 73.79465310285255,21.11143543077414,0 73.79451743152549,21.111435110696,0 73.79438175964864,21.11143479056269,0 73.79424510010827,21.11140230346102,0 73.79410846819343,21.11136982284253,0 73.79397090458777,21.11130520142633,0 73.79386919230075,21.11130496131642,0 73.79373263974389,21.11127250013309,0 73.79356129860847,21.11120783730673,0 73.79345961736307,21.11120759718185,0 73.7933222537073,21.11114304050355,0 73.79315281890527,21.11114264027482,0 73.79301554390987,21.11107810924391,0 73.79287747531322,21.11098152136571,0 73.79277418778554,21.11091713481986,0 73.792602407378,21.11082056349549,0 73.79249841595376,21.11072420978332,0 73.79235985774922,21.11059582822035,0 73.79225601217011,21.11049960929343,0 73.79211842015222,21.11040336809676,0 73.79201394815176,21.11027532254838,0 73.79184274087589,21.11017913580928,0 73.79167163568626,21.11008300669906,0 73.79156887896187,21.11001897901257,0 73.79146545763712,21.10992310525495,0 73.79129460331363,21.1098271291141,0 73.79112452194084,21.10976304386877,0 73.79102065576336,21.10963550824425,0 73.7908507319017,21.10957149941629,0 73.79068024879589,21.1094757332101,0 73.79064404775082,21.10934858545356,0 73.79047556219508,21.10934818686515,0 73.7903047227561,21.10922082161076,0 73.790135161538,21.1091569776912,0 73.79003300862969,21.10909331850543,0 73.78986302591763,21.10899783727203,0 73.78972679423201,21.10890249254911,0 73.78955700427095,21.10880712492153,0 73.78938781252107,21.10874344524709,0 73.78928545419477,21.10864833146458,0 73.78914954447848,21.10855319461888,0 73.78901325674316,21.1084265396568,0 73.78887752279843,21.10833153470636,0 73.78880859056009,21.10820521448414,0 73.78870615030799,21.10807891477495,0 73.78863734084241,21.10795279463852,0 73.78853504985773,21.10782669471478,0 73.78843324018008,21.10773212576727,0 73.78836422078238,21.10757487365911,0 73.78829565592626,21.10744915200937,0 73.7881936624149,21.10732345041303,0 73.78812558884081,21.10722925915174,0 73.78802373293161,21.10710373117721,0 73.78785643372721,21.10710333436692,0 73.78772259400199,21.10710301682678,0 73.78758938660556,21.10716533151345,0 73.78745582336326,21.10719633918214,0 73.78738917998686,21.10722751174623,0 73.78722293397746,21.10735250230548,0 73.78705576594868,21.10738346688273,0 73.78688856532378,21.1074144375522,0 73.78675506106316,21.1074768747197,0 73.78662150419069,21.10753933647084,0 73.78648768712262,21.10757041720334,0 73.7863203308531,21.10760142413624,0 73.78615294152161,21.10763243717824,0 73.78595184561442,21.10763195839766,0 73.7858517308978,21.1077259914129,0 73.78568435689111,21.10778847136203,0 73.78555034122471,21.10781960062426,0 73.78541640039415,21.10788219747085,0 73.78531595570439,21.10794489888873,0 73.78518175885152,21.10794457889464,0 73.78504762714903,21.10797573875712,0 73.78487991293298,21.10800682464282,0 73.78474565485018,21.10797501824876,0 73.78457789258933,21.10797461780139,0 73.78441013026418,21.10797421723583,0 73.7842759204613,21.10797389669853,0 73.78410815822714,21.10797349592072,0 73.7839403960096,21.1079730950249,0 73.78377263377961,21.10797269401102,0 73.78360487158571,21.10797229287919,0 73.78340355694075,21.10797181136516,0 73.78326934717778,21.10797149026137,0 73.78310158494135,21.10797108877533,0 73.7829676579414,21.10790781481553,0 73.78279992895924,21.1079074131938,0 73.78269962742102,21.10784424456669,0 73.78253211609669,21.10781238835164,0 73.78239817050149,21.10778061879082,0 73.78226446238683,21.10771741967484,0 73.78213080721919,21.10765424535596,0 73.7820309516006,21.10755977188024,0 73.78196441409646,21.10749682050308,0 73.78183141806663,21.10737099251,0 73.78169826060976,21.10727660627681,0 73.78156490236069,21.10721360602976,0 73.78143159681724,21.10715063056259,0 73.7812977317674,21.10715030908365,0 73.78109693401188,21.10714982671378,0 73.78096272956624,21.10718082890328,0 73.78082849852204,21.10721183703091,0 73.78069424086605,21.10724285131946,0 73.78052647695779,21.10727379103032,0 73.78039216272067,21.10730481740086,0 73.78025782203009,21.10733584982998,0 73.78012387683245,21.10733552748414,0 73.77998949616516,21.10736656575738,0 73.77988858122217,21.10739769084975,0 73.77972111690194,21.10739728756735,0 73.77955365208064,21.10739688416027,0 73.77945366172511,21.10736527515654,0 73.7792862136553,21.10736487158432,0 73.77918677473703,21.10730191437888,0 73.77905231408907,21.10733294585612,0 73.77891728442562,21.10739535008414,0 73.77881514894842,21.1074892450086,0 73.77868000566269,21.10755171100165,0 73.77861126846399,21.10764577955956,0 73.778508960859,21.10773982313626,0 73.77840599889811,21.1078653823896,0 73.77837006743246,21.10799120292839,0 73.77836767723552,21.10811720421113,0 73.77833170233636,21.10824322425979,0 73.77832869278005,21.10840099126813,0 73.77832628294367,21.10852731746736,0 73.7783232679038,21.10868536622619,0 73.77835449654702,21.10881199931513,0 73.77841940662883,21.10893881412233,0 73.778417028674,21.10906556730843,0 73.77848201525633,21.10919258366209,0 73.77854705355659,21.10931970100177,0 73.77868070172849,21.10938354118557,0 73.7787806932335,21.10944732552208,0 73.77891389537122,21.10954300882302,0 73.77904717669175,21.10963874920579,0 73.77918105786424,21.10970271608023,0 73.7792807386714,21.10979847041921,0 73.77941522935473,21.10983064479126,0 73.77951550707581,21.10989460677712,0 73.77964958790648,21.10995867529039,0 73.7797837225728,21.11002276925459,0 73.77991835714056,21.1100549882331,0 73.78008636581289,21.1101192015869,0 73.78022107115838,21.11015143953389,0 73.78035539966351,21.11021561005075,0 73.78052396586979,21.11024794827195,0 73.78062497104713,21.1102801306386,0 73.78079359771822,21.11031248157223,0 73.78096225799936,21.11034483896647,0 73.78113062584009,21.11040916709783,0 73.78129967926661,21.11040957269864,0 73.78143433057595,21.11047384526533,0 73.78156960037722,21.11047416967626,0 73.78167050844874,21.11053838673427,0 73.78180554647906,21.1105707076592,0 73.78200827337467,21.11060319713346,0 73.78214337211568,21.11063553071192,0 73.78231233550267,21.11066795185748,0 73.7824811414535,21.11073240794567,0 73.78261634148936,21.11076476724355,0 73.78275140425364,21.11082918066072,0 73.78288682269151,21.11082950483021,0 73.78302182932202,21.11092601138697,0 73.78312316931536,21.11099040800613,0 73.78325831458299,21.11108701097769,0 73.7833596491414,21.11118359057269,0 73.78346113808757,21.11124809039221,0 73.78359649334895,21.11134484770798,0 73.78373193003843,21.11144166331749,0 73.78386750101818,21.11150634725863,0 73.7840370233594,21.11160334089923,0 73.78413883172358,21.11160358421876,0 73.78441032415455,21.11166865725237,0 73.78454612661065,21.1117334320402,0 73.78471594025484,21.11179831362501,0 73.78488587151941,21.11189548224223,0 73.78505570569722,21.11189588773765,0 73.78515775980729,21.11196067203765,0 73.78532772205303,21.11199335788212,0 73.78556567943482,21.11202621237726,0 73.78566787707345,21.11209104871593,0 73.78580382650206,21.11209137304262,0 73.78594024237215,21.1121886361702,0 73.78611057585299,21.11225369978503,0 73.78631479588074,21.11228652529724,0 73.78645082776652,21.11228684961163,0 73.786621091347,21.11231960052018,0 73.7867911482918,21.11232000581682,0 73.78696120533978,21.11232041103868,0 73.78716527378626,21.11232089720585,0 73.78733533108043,21.11232130226325,0 73.7875393998381,21.11232178823309,0 73.78764143467244,21.11232203117859,0 73.78784550370827,21.11232251698705,0 73.78808358437072,21.11232308362734,0 73.78825364238078,21.11232348828131,0 73.78838968905151,21.11232381195108,0 73.78859375885621,21.11232429736525,0 73.78869622658576,21.11235689270668,0 73.78883228727099,21.11235721626189,0 73.78903637811447,21.11235770150464,0 73.78913842363013,21.11235794408589,0 73.78941054545147,21.11235859083884,0 73.78964865258241,21.1123591565921,0 73.78988676009489,21.11235972219985,0 73.79015888328649,21.11236036843019,0 73.79043100663064,21.11236101446968,0 73.79060108468303,21.11236141814954,0 73.79073842273561,21.11242646692212,0 73.79087516478884,21.11245916270515,0 73.79101193451386,21.11249186503393,0 73.79118208103365,21.11249226868156,0 73.7913188957592,21.11252497755626,0 73.79142099433538,21.11252521970893,0 73.79162519176063,21.11252570393602,0 73.79176132384194,21.11252602669675,0 73.79193148937392,21.11252643008293,0 73.79210320614135,21.11259162523211,0 73.79224015604926,21.11262435376941,0 73.79234388701499,21.11268942710036,0 73.79248171733646,21.11275460732692,0 73.79258636430075,21.11285218421876,0 73.79269107469081,21.11294982051213,0 73.79282993702202,21.11304759659177,0 73.79296801818609,21.11311292120901,0 73.79310703477525,21.11321079541203,0 73.79321201963856,21.11330864842812,0 73.79334938701362,21.11334152182103,0 73.79348678231919,21.11337440182873,0 73.79362420478938,21.11340728845211,0 73.79376071052322,21.11340761185379,0 73.79389529857012,21.11334281511728,0 73.79399475097632,21.11324542646956,0 73.79412922436808,21.11318069480525,0 73.7942295478943,21.11311590885785,0 73.79436593071635,21.11311623162988,0 73.79450027491022,21.11305155175387,0 73.79463663068159,21.113051874341,0 73.79477298668068,21.11305219688532,0 73.7948784244892,21.11314995244474,0 73.79495088129964,21.11328022438116,0 73.79505752393067,21.11341068214688,0 73.79519730310403,21.11350873547281,0 73.79526996973571,21.11363929685119,0 73.7953426960313,21.1137699636709,0 73.79541548049228,21.11390073560014,0 73.79548944688472,21.11406430925844,0 73.7954950608768,21.11422788573103,0 73.79553152796308,21.1142934438579,0 73.79553942486383,21.11452282179211,0 73.79561132342863,21.11462138866442,0 73.79568440940017,21.11475284972612,0 73.79579068229285,21.11485163770877,0 73.7958970200557,21.11495048579483,0 73.79600342275083,21.11504939404163,0 73.79611226918212,21.11521421169505,0 73.79621762362223,21.11528033234206,0 73.79629110620712,21.11541232789833,0 73.79633029478104,21.11554434961869,0 73.7963351490047,21.11567639702001,0 73.79634122245508,21.11584160669907,0 73.79634608578567,21.11597389569096,0 73.79635217063597,21.11613940778111,0 73.79635704309965,21.11627193904216,0 73.7964664824636,21.11643800008171,0 73.79660800649343,21.1165378984537,0 73.79674835827522,21.11660464061207,0 73.79689004139033,21.11670464098974,0 73.79699732571949,21.11680462059465,0 73.79713787318533,21.11687147085459,0 73.797243976744,21.11693826730476,0 73.79738463100007,21.11700517315862,0 73.79752668581851,21.11710541899154,0 73.79766611445633,21.11713906700124,0 73.79780557188744,21.11717272190893,0 73.79797820042789,21.11717313270475,0 73.79811630265826,21.11717346132248,0 73.798254406769,21.11717378992914,0 73.79846156194418,21.11717428280761,0 73.79863128335238,21.11710804698824,0 73.7987678907236,21.11707506229111,0 73.79890298890754,21.11700878465606,0 73.79900203997005,21.11690917262728,0 73.79909953011246,21.11677637011236,0 73.79912800201512,21.11664351093318,0 73.79912199385481,21.11651067807655,0 73.79915043209161,21.11637803558967,0 73.79914291766011,21.11621228147704,0 73.79913541108009,21.11604669631984,0 73.79912791229675,21.11588127892381,0 73.79919368019758,21.11581532204072,0 73.79936254780822,21.115749636326,0 73.7993579826546,21.11565054721873,0 73.79935038036028,21.11548553198449,0 73.79934278598988,21.11532068455353,0 73.79933671615777,21.11518892654736,0 73.79932913598014,21.11502437967151,0 73.79932156364856,21.11485999894532,0 73.79927973418364,21.11469570402657,0 73.79923794883319,21.11453157488944,0 73.7991619757568,21.11436753132614,0 73.79915599777188,21.11423654483943,0 73.79914853227334,21.1140729610141,0 73.79914256541937,21.1139422124842,0 73.79913511381474,21.11377892568981,0 73.79912915806007,21.11364841445455,0 73.79915585722628,21.11348550388568,0 73.79921664631021,21.11332283822651,0 73.79924627040836,21.11322530105872,0 73.79927287453953,21.11306281686018,0 73.79930395905154,21.11299791691163,0 73.79936458391188,21.11283574107311,0 73.79946071465542,21.11270623030221,0 73.7995227288425,21.11257674320958,0 73.79962178325997,21.11251219854852,0 73.79971771455021,21.11238294713558,0 73.79984912832441,21.11228621621055,0 73.79994802821838,21.11222178802276,0 73.80008088536651,21.11215746517207,0 73.80017811317347,21.11206078999475,0 73.80027368745505,21.11193190025868,0 73.80033522579944,21.11180303384863,0 73.80039671648926,21.11167427084542,0 73.80049208876338,21.11154569037662,0 73.80052278356504,21.11148139908221,0 73.80061642197303,21.11132082266185,0 73.80060829518793,21.11116016875513,0 73.80067118438882,21.11106401188355,0 73.80066303699419,21.11090361468835,0 73.80075807484528,21.11077564967261,0 73.80078700321758,21.11067964400018,0 73.80084809959413,21.1105517785548,0 73.80087533345522,21.11042393601378,0 73.80093469350172,21.11026433552574,0 73.80096021592396,21.11010481509001,0 73.80105656231883,21.11000936799845,0 73.8011174225275,21.10988203636215,0 73.80117656216956,21.10972297510443,0 73.80116987057534,21.1095957142782,0 73.80126432035262,21.10946879005673,0 73.80129298052736,21.10937356506913,0 73.80135362782833,21.1092467388499,0 73.80141253328333,21.10908830852689,0 73.80140745407438,21.10899323194461,0 73.80146628475434,21.10883505304269,0 73.80152676142437,21.10870865403196,0 73.80158719022697,21.10858235515448,0 73.80164756969168,21.10845615633326,0 73.80167259643582,21.10829843148954,0 73.80169931381236,21.10817237964765,0 73.80175957302501,21.10804650523431,0 73.80178623502113,21.10792065274248,0 73.80181115164434,21.10776345762622,0 73.80190827704902,21.10770082458247,0 73.80196662314373,21.10754392407993,0 73.80202665821732,21.10741854616074,0 73.80201968065239,21.10729311252095,0 73.80207964755736,21.10716793233322,0 73.8021395657257,21.10704285092545,0 73.80223111815441,21.10688667624016,0 73.80229269283556,21.10679306070366,0 73.802421069831,21.10669965416425,0 73.80255116496582,21.1066375164763,0 73.80264599989135,21.10654412456034,0 73.80274258913862,21.10648197088997,0 73.80287070786001,21.10638874731733,0 73.80296537431583,21.10629550205922,0 73.80309519712421,21.106233522205,0 73.80315638902553,21.10614029164794,0 73.80325089722061,21.10604719252807,0 73.80338056242552,21.10598530969241,0 73.80354728587999,21.10598569203961,0 73.80364353009038,21.10592375666761,0 73.80381022168089,21.10592413864848,0 73.80394550273611,21.1059555235776,0 73.80411221187266,21.10595590538751,0 73.80424753692719,21.10598729642594,0 73.80434757348033,21.10598752542768,0 73.80457900417218,21.10595697373798,0 73.80471037413309,21.10592619900135,0 73.80494172551752,21.10589565895045,0 73.80507303351985,21.10586489589653,0 73.80520431760779,21.10583413874125,0 73.8052981328333,21.10574121865527,0 73.80542727233107,21.10567945409198,0 73.80551889810683,21.10555561780139,0 73.8056104521678,21.10543187848599,0 73.80570402903743,21.10533919423569,0 73.8057289195153,21.10521547289103,0 73.80578914159003,21.10512283990474,0 73.80581398186054,21.10499928827184,0 73.80590314867834,21.10484511632093,0 73.80596113339371,21.1047218574853,0 73.80595267437377,21.10459854387247,0 73.80594211015891,21.10444453797243,0 73.805966837821,21.10432151652092,0 73.80595416535633,21.10413705227464,0 73.80597886296049,21.10401427097148,0 73.80597041685657,21.10389151050813,0 73.80596197753334,21.10376884630932,0 73.80582114916668,21.10364597790137,0 73.80568250994565,21.10355381472806,0 73.80544060422389,21.10340030488347,0 73.80530014508307,21.10327772419044,0 73.80519690409366,21.10321639535765,0 73.80515574574494,21.10309418235524,0 73.80521573273192,21.10300279048254,0 73.80524266270511,21.10291137764619,0 73.80533355941698,21.10278970045116,0 73.80539343650604,21.10269848588352,0 73.80548421312309,21.10257697424641,0 73.80554194672237,21.10245548203905,0 73.80566555534975,21.10233423300961,0 73.80579323161818,21.1022737918687,0 73.80581993270127,21.10218280308519,0 73.80591457977827,21.10212234620091,0 73.80603791288576,21.10200135476356,0 73.80619830184133,21.10194111575689,0 73.80635649505513,21.10185061579378,0 73.80648598719335,21.10182063300875,0 73.80687431685445,21.10173071889957,0 73.80697081639612,21.10170068500209,0 73.80722953665335,21.10164078148104,0 73.80741792394001,21.10152030762523,0 73.8074747152546,21.10139963292005,0 73.80759941241512,21.10130937224988,0 73.80769119410569,21.10121908956811,0 73.80768216245063,21.10109850112826,0 73.8076753934016,21.10100812100054,0 73.80772973248526,21.10085775000411,0 73.80779534301057,21.10085789608378,0 73.80747219548101,21.1007687189819,0 
					</coordinates>
				</LinearRing>
			</outerBoundaryIs>
		</Polygon>
		<atom:link rel="app" href="https://www.google.com/earth/about/versions/#earth-pro" title="Google Earth Pro 7.3.7.1094"></atom:link>
	</Placemark>
</Document>
</kml>
