<?xml version="1.0" encoding="UTF-8"?>
<kml xmlns="http://www.opengis.net/kml/2.2" xmlns:gx="http://www.google.com/kml/ext/2.2" xmlns:kml="http://www.opengis.net/kml/2.2" xmlns:atom="http://www.w3.org/2005/Atom">
<Document>
	<name>Legapani_940.kml</name>
	<StyleMap id="msn_ylw-pushpin">
		<Pair>
			<key>normal</key>
			<styleUrl>#sn_ylw-pushpin</styleUrl>
		</Pair>
		<Pair>
			<key>highlight</key>
			<styleUrl>#sh_ylw-pushpin</styleUrl>
		</Pair>
	</StyleMap>
	<Style id="sh_ylw-pushpin">
		<IconStyle>
			<scale>1.3</scale>
			<Icon>
				<href>http://maps.google.com/mapfiles/kml/pushpin/ylw-pushpin.png</href>
			</Icon>
			<hotSpot x="20" y="2" xunits="pixels" yunits="pixels"/>
		</IconStyle>
		<BalloonStyle>
		</BalloonStyle>
		<PolyStyle>
			<color>7adfff8e</color>
		</PolyStyle>
	</Style>
	<Style id="sn_ylw-pushpin">
		<IconStyle>
			<scale>1.1</scale>
			<Icon>
				<href>http://maps.google.com/mapfiles/kml/pushpin/ylw-pushpin.png</href>
			</Icon>
			<hotSpot x="20" y="2" xunits="pixels" yunits="pixels"/>
		</IconStyle>
		<BalloonStyle>
		</BalloonStyle>
		<PolyStyle>
			<color>7adfff8e</color>
		</PolyStyle>
	</Style>
	<Placemark>
		<name>Kelapani_17-11-2025_940</name>
		<styleUrl>#msn_ylw-pushpin</styleUrl>
		<Polygon>
			<tessellate>1</tessellate>
			<outerBoundaryIs>
				<LinearRing>
					<coordinates>
						74.44532298222839,21.83509382113862,0 74.44545141184992,21.8346693213302,0 74.44557944478542,21.83424612983515,0 74.44570708288246,21.83382424057339,0 74.44580891048385,21.83348766213738,0 74.44593584248996,21.83306810169616,0 74.44620870716375,21.83277668421058,0 74.44639520784219,21.83246435422085,0 74.44652073703969,21.83204802436749,0 74.44670634327244,21.83173744147667,0 74.44689149580611,21.83142761653931,0 74.44710099524877,21.83103601937307,0 74.4473702805702,21.83074937629921,0 74.44757847894502,21.83035987814867,0 74.44767667171138,21.83003199163294,0 74.44779907760766,21.82962324999935,0 74.44794547550578,21.82913439011855,0 74.44804277931816,21.8288094658511,0 74.44816407817456,21.82840441322436,0 74.44830915428319,21.82791995800963,0 74.44821320009491,21.82763591350071,0 74.44822560793169,21.82729333381565,0 74.44817813508246,21.82685037993965,0 74.44819055091249,21.82650966325686,0 74.44831064713463,21.82611131502847,0 74.44843038429283,21.82571415529031,0 74.44854976400524,21.82531817869752,0 74.44872835722295,21.82502327951188,0 74.44890652533198,21.8247290802912,0 74.44925056423764,21.82447754817925,0 74.44973650884648,21.82434694425017,0 74.45005558952228,21.82417467948104,0 74.45047058703447,21.82427941054988,0 74.45105158369711,21.82442603327257,0 74.45130058238314,21.82448887132222,0 74.45179857999109,21.82461454696006,0 74.4520475788979,21.82467738454444,0 74.45246257728601,21.82478211351883,0 74.45277211596878,21.82494444144899,0 74.45303704870038,21.82526423830495,0 74.45294730898959,21.8255795449541,0 74.4528348335338,21.82597473335153,0 74.45272202212321,21.82637110006944,0 74.45263153055748,21.8266890437536,0 74.45251811146775,21.82708754180321,0 74.45240435246802,21.82748723201731,0 74.45248089112266,21.82785018948302,0 74.45280960356192,21.82827760888198,0 74.45290952983069,21.82856171881361,0 74.4530484081492,21.82902929158293,0 74.45321039261395,21.82941712738686,0 74.45328836566307,21.82978459909878,0 74.45338920843271,21.83007144412719,0 74.4535521432876,21.83046182865299,0 74.45380015673398,21.83087452664758,0 74.45400912415182,21.83110263337802,0 74.45417330580524,21.83149544934903,0 74.45446776944651,21.83174576930494,0 74.45484753220093,21.83201782787684,0 74.45527223715263,21.83212500187789,0 74.45561200186583,21.83221074103855,0 74.45612164998971,21.83233934966234,0 74.45654635746276,21.83244652334168,0 74.45714094890388,21.83259656620329,0 74.45733243390129,21.83255674713604,0 74.45771505524412,21.83247718109629,0 74.45788557429313,21.83216861322611,0 74.45799235112744,21.83175725659583,0 74.45807754053115,21.83142906423207,0 74.45818373771529,21.83101993800296,0 74.45835276768446,21.83071479695959,0 74.45881626016848,21.83065817237179,0 74.45927919650464,21.8306016157274,0 74.45963672012279,21.83060522423798,0 74.46003520168476,21.83044626155306,0 74.46032847505492,21.83034751516172,0 74.46057816894687,21.8300656426089,0 74.46091111322853,21.82980560307166,0 74.46115951296274,21.82952505267085,0 74.46134374361094,21.82914365523173,0 74.46165453280805,21.82896595961827,0 74.46173426002203,21.82864529834847,0 74.46183365224691,21.82824554381583,0 74.46193274870653,21.827846977766,0 74.4620315509964,21.82744959379126,0 74.46221301374057,21.82707431839051,0 74.46237436816749,21.82677907853526,0 74.4626180990346,21.82650541872759,0 74.46277859467368,21.8262115471834,0 74.46302127261553,21.82593920093281,0 74.46332664022769,21.82576658379583,0 74.46367570588042,21.82577153727242,0 74.46408803329825,21.82587557832175,0 74.46447449356758,21.82572400791463,0 74.46477795295256,21.8255519353261,0 74.46508087728395,21.82538016309831,0 74.46538326790917,21.82520869491558,0 74.4657035494192,21.82495982728669,0 74.46611394709259,21.82506337842263,0 74.46652434607869,21.82516692933505,0 74.46701682626617,21.82529119005196,0 74.467345148118,21.82537403052181,0 74.46769130421437,21.82537906959669,0 74.4679906970955,21.82520800104545,0 74.46835387491673,21.82513546840054,0 74.46868162349983,21.8252181626052,0 74.46909130918245,21.82532152984022,0 74.46948371864318,21.8255025958185,0 74.46979437434477,21.8256630846909,0 74.4699889125328,21.82595877745541,0 74.47000236672633,21.82629166146003,0 74.47031390661338,21.82645275898127,0 74.47064262413373,21.82653569587017,0 74.47105352114147,21.82663936651563,0 74.47138224110051,21.82672230323143,0 74.4716942810053,21.82688357188744,0 74.47179206851492,21.827238895977,0 74.4718900849621,21.82759505596959,0 74.47218652202179,21.82783585514873,0 74.47251631178428,21.82791906110168,0 74.47284610273076,21.82800226701605,0 74.47325834169555,21.82810627400573,0 74.47367058256918,21.82821028094997,0 74.47391792839895,21.82827268519291,0 74.47433017427335,21.82837669255549,0 74.47474242026315,21.82848069942012,0 74.47515467015809,21.82858470674289,0 74.47556692023383,21.82868871358418,0 74.47589672292625,21.82877191934167,0 74.47626281414672,21.8291136618561,0 74.4763971408063,21.82931404985952,0 74.47658359825009,21.82969467862187,0 74.4766049611093,21.83003444456529,0 74.47679210805852,21.83041682761258,0 74.47699496585194,21.8307199036153,0 74.47721339578744,21.83094319150904,0 74.47741693172965,21.83124718612885,0 74.47771905339583,21.83149208805837,0 74.47782509609931,21.83185680260726,0 74.47774966318991,21.83226135420483,0 74.47760571786847,21.83256481364086,0 74.47771203993497,21.8329322233404,0 74.47790225215159,21.83332161194786,0 74.47792544602299,21.83366967959447,0 74.47804764555747,21.8339577097168,0 74.47835286791786,21.83420643934908,0 74.47874237037692,21.83447663840095,0 74.47906320747049,21.83464362608509,0 74.47948290402819,21.83474951313931,0 74.47981866426767,21.83483422324446,0 74.48013992598526,21.83500136926062,0 74.48047579032416,21.83508610521977,0 74.48076870708508,21.8354185983723,0 74.48069695638773,21.83583252038803,0 74.48090653706547,21.83614523482263,0 74.48122929429299,21.83631338174386,0 74.48156637904188,21.8363984260546,0 74.48188943588318,21.83656670064248,0 74.48210041485771,21.8368805520093,0 74.48241013417508,21.83713270281565,0 74.48272022565949,21.837385157741,0 74.48303069386374,21.83763791832807,0 74.48325696509231,21.83786964755578,0 74.48346989662826,21.83818573002933,0 74.48358488805687,21.83856529651964,0 74.48351680394434,21.8389875082564,0 74.48353353335274,21.83943245240694,0 74.48353663810887,21.83996387361879,0 74.48369335585093,21.84009204189422,0 74.48383291608243,21.83977306382857,0 74.48398564914788,21.83937007068559,0 74.48411102585258,21.83913742879987,0 74.48424957399037,21.83882076520374,0 74.48447247343786,21.83852623320698,0 74.48461025088416,21.83821107142801,0 74.48484534877367,21.83783417037505,0 74.48507973546461,21.83745840261185,0 74.4853976209552,21.83710500701231,0 74.48552059719063,21.83687650082069,0 74.48582425773776,21.83660779385619,0 74.48623644822042,21.83619535900037,0 74.48644199101582,21.83598969674612,0 74.48673088757243,21.83580552380977,0 74.48703165564265,21.83553937635391,0 74.48741523005282,21.83529493325954,0 74.48770231289699,21.83511198283491,0 74.48806022069253,21.83503227594619,0 74.488346303193,21.83484982978554,0 74.48872695312446,21.83460707442439,0 74.48902357275641,21.83434392453321,0 74.48929623955266,21.83424401982887,0 74.48949711946901,21.83404203714923,0 74.48986350723544,21.83388225261141,0 74.49030080550018,21.8338246721685,0 74.49065475033912,21.8337462632582,0 74.49099719440696,21.83374887270335,0 74.49112422057384,21.8334463228681,0 74.49133356720365,21.83316532683577,0 74.49166835848989,21.83258452499285,0 74.49196939456418,21.83224626553915,0 74.4922589119404,21.83198881196281,0 74.4924444965376,21.83187067308988,0 74.49268046110566,21.83201264044501,0 74.4927206372446,21.83235306116045,0 74.49285377409504,21.83263486896767,0 74.49306957147073,21.83293796285749,0 74.49328575186033,21.83324159537366,0 74.49323380311709,21.83364464352933,0 74.49318170173714,21.83404888212132,0 74.4934712726392,21.83445671698868,0 74.49366827865528,21.8349260178661,0 74.49381365771569,21.83513088011881,0 74.49393870895952,21.83549940547226,0 74.49387705999136,21.83599083030093,0 74.49382551842034,21.83640169314044,0 74.49378417528675,21.83673126423,0 74.49397288080381,21.8372903887394,0 74.49419305430224,21.83760237827049,0 74.49419474345007,21.83828892466867,0 74.49422731839304,21.83872764005963,0 74.49417582964831,21.83914644317999,0 74.49431334435194,21.83944083183918,0 74.49452519823308,21.83984127048166,0 74.49475790826702,21.84007378701622,0 74.49506526650897,21.84041243443584,0 74.49529865815241,21.84064564867057,0 74.49562683396886,21.84081568463646,0 74.49591980948851,21.84054091745795,0 74.49630611730116,21.84020370518425,0 74.49667214023516,21.84003586727897,0 74.49702804656536,21.83995246068916,0 74.49715876408088,21.84033201864483,0 74.49738356897588,21.84064921398776,0 74.49749629674885,21.84120003872018,0 74.49755281880407,21.84147620146773,0 74.49751539723682,21.8418167075295,0 74.49746849385978,21.84224349921178,0 74.49742144924438,21.84267158591352,0 74.49722307199426,21.84288615437329,0 74.49716601772016,21.84340243776575,0 74.49710875630889,21.84392060978924,0 74.49698501168639,21.8442455532415,0 74.49685129861444,21.8446582471329,0 74.49681258941058,21.84500660671275,0 74.49675434888405,21.84553074848565,0 74.49670565237204,21.84596900897987,0 74.49665680718695,21.84640861765317,0 74.49661762346609,21.84676128009734,0 74.49656850893592,21.84720333133167,0 74.49651924379917,21.84764674841143,0 74.49637328011846,21.84815879897207,0 74.49625673227406,21.84840459683377,0 74.49612993887811,21.84874034139307,0 74.4959927521088,21.84916668134682,0 74.49595235750323,21.84952628573227,0 74.4958246776856,21.84986478692529,0 74.49552208851568,21.85016007794747,0 74.49529579372799,21.85056883583424,0 74.4952439291355,21.85102306463494,0 74.49519190314602,21.85147871725208,0 74.49513971501737,21.85193580028321,0 74.49502039949846,21.85218855240042,0 74.49496781188591,21.85264790301478,0 74.49492562334291,21.85301642573,0 74.49488332907167,21.85338587873609,0 74.4950177230134,21.85380088053161,0 74.49515246295232,21.85421693489632,0 74.49511029800108,21.85458931445569,0 74.49505744243432,21.85505611803929,0 74.49500442012706,21.85552440529528,0 74.49476242110266,21.85604335793009,0 74.49431705271469,21.85593095975121,0 74.49398268997828,21.85565298936357,0 74.49363769725881,21.8554692229377,0 74.49330409191123,21.85519181476586,0 74.49297091790501,21.85491476176943,0 74.49273831574365,21.85456706485996,0 74.49241745743089,21.85419764614995,0 74.4921087145183,21.85373599035712,0 74.49196618206901,21.85341285300455,0 74.49163544496602,21.85313824682039,0 74.49140522286771,21.85279388874438,0 74.49127544310366,21.8523803013012,0 74.49114599608819,21.85196775822828,0 74.49091703905857,21.85162570165635,0 74.49060054083353,21.85126209141964,0 74.49037253423127,21.8509213475878,0 74.49014495910546,21.85058124654015,0 74.49001758773372,21.85017303420065,0 74.4897032336407,21.84981227540031,0 74.48926517261451,21.84970173567897,0 74.48893947086793,21.84943221992883,0 74.48861417941885,21.84916304271103,0 74.48827673831256,21.8489844348551,0 74.48793951468721,21.84880594060359,0 74.48771537354521,21.84846953070004,0 74.48741717542511,21.84802196507761,0 74.48726835442388,21.84779860109958,0 74.4869325004296,21.84762103567204,0 74.48658382194475,21.84753305311659,0 74.48614797407377,21.84742307487793,0 74.48579930070748,21.84733509344817,0 74.48536345917209,21.84722511660085,0 74.48484045548969,21.84709314578641,0 74.48457895549902,21.84702716078396,0 74.48414312356995,21.84691718603816,0 74.48379446282897,21.8468292073704,0 74.48341774222163,21.84691984025383,0 74.48304054961586,21.84701058492843,0 74.48266289201645,21.84710144392244,0 74.48222625737084,21.84699126495461,0 74.48178962991275,21.84688108770143,0 74.48144032545501,21.84679294519896,0 74.48100369969458,21.84668276819595,0 74.48056708101271,21.84657259288014,0 74.48021778548721,21.84648445240986,0 74.47988365262181,21.8463070325733,0 74.47950392096536,21.84639748059388,0 74.47913912413625,21.84639864964333,0 74.4787022432219,21.84628840738661,0 74.47835273938666,21.84620021374004,0 74.47791586366635,21.84608997262559,0 74.47755046481902,21.8460910469512,0 74.47718483931313,21.84609212203471,0 74.47680283914424,21.84618257694367,0 74.4764916402733,21.84638476049725,0 74.47610861249191,21.84647554049691,0 74.47570857305766,21.84665618433332,0 74.47532445449359,21.84674727557052,0 74.47486886673087,21.84672640896199,0 74.47441299346686,21.84670552899789,0 74.47414956398079,21.84663905334126,0 74.4737811631539,21.84664030546453,0 74.47348313051798,21.84675370924684,0 74.4733966343819,21.8472044492818,0 74.47332724151471,21.84756606359449,0 74.47334592684754,21.84795086131338,0 74.47336465982242,21.8483366316041,0 74.47324141320441,21.8484964125305,0 74.47322282404632,21.84811019707256,0 74.47278128528981,21.84799877324948,0 74.47251636282547,21.84793191915565,0 74.47219816297914,21.8481376721602,0 74.47210914129097,21.84859316713106,0 74.47171910654077,21.8486863470503,0 74.47127617417799,21.84857457010116,0 74.4706560760748,21.84841808424223,0 74.4703903205636,21.8483510190992,0 74.46991031441098,21.8484217356472,0 74.46951839871035,21.84851492535865,0 74.46914480753207,21.84851678423821,0 74.46877097854635,21.84851864400315,0 74.46841596960331,21.84842905465795,0 74.46797221185331,21.84831706888545,0 74.46763650339801,21.84813615214548,0 74.46728161145903,21.84804659252499,0 74.46692672081303,21.84795703325997,0 74.46650276190502,21.84775390745361,0 74.46599040793313,21.84752853577895,0 74.46558693968532,21.84723474942341,0 74.46516394864251,21.84703211218533,0 74.4648096277797,21.84694269730442,0 74.46445530805579,21.84685328273069,0 74.46392383156899,21.84671916168923,0 74.46348093704057,21.84660739483066,0 74.46312662140255,21.84651798136219,0 74.46268372881998,21.8464062150503,0 74.46224083782226,21.84629444916929,0 74.46179794836888,21.84618268370893,0 74.46126648340984,21.84604856579922,0 74.46082359721122,21.84593680122829,0 74.46062496174075,21.84598256656376,0 74.46029436466846,21.84618717942236,0 74.45996313926577,21.84639218189164,0 74.45960940943324,21.84668855719179,0 74.45925386539577,21.84659883333144,0 74.45889832117615,21.84650910946587,0 74.45856499104221,21.8463284895421,0 74.45825416944203,21.84605723165059,0 74.45792136292063,21.84587692786727,0 74.45756627339544,21.84578731909147,0 74.45703364147158,21.8456529065864,0 74.45665576343974,21.84565386510366,0 74.45612296489773,21.84551941061849,0 74.45583350747295,21.84554274365279,0 74.45545500985109,21.84554366829284,0 74.45509958724939,21.84545397558929,0 74.45465036649833,21.84572698680509,0 74.45433630221412,21.84584128722492,0 74.45393275594857,21.84593325272424,0 74.45348734755682,21.8458208515815,0 74.4529528578035,21.84568597040229,0 74.4525799576126,21.84530125609054,0 74.45227246030778,21.84503022515836,0 74.45210277122079,21.84460127515937,0 74.45179616341271,21.8443312050522,0 74.45160303793475,21.84399388262979,0 74.45118411563314,21.84379209255466,0 74.45076545949901,21.84359043050531,0 74.45032231507327,21.84347860148739,0 74.44987917135708,21.84336677268556,0 74.44948608195517,21.84307573250616,0 74.44923215864769,21.84262869640331,0 74.44906722586028,21.84220508486481,0 74.44907918293895,21.84182707585562,0 74.44900298411935,21.84142778057475,0 74.44881389746388,21.84109564209901,0 74.44865026818621,21.84067595478887,0 74.44848705006756,21.84025732133241,0 74.44832424137658,21.8398397378415,0 74.44813668144367,21.83951065160261,0 74.44777438186932,21.83913799792279,0 74.44738740808739,21.83885315263058,0 74.44708835482808,21.83859072830902,0 74.44681518457416,21.83824179482901,0 74.44651695549038,21.83798016119995,0 74.44619343521855,21.83780541926354,0 74.44587011697837,21.83763078593588,0 74.4452593990888,21.83747666759846,0 74.44491041724726,21.83738859983776,0 74.4447009389869,21.8371498267309,0 74.44471817680362,21.8367830511415,0 74.44484834727437,21.83635329063934,0 74.44497811312878,21.83592486304907,0 74.44499493168249,21.83556119535719,0 74.44532298222839,21.83509382113862,0 
					</coordinates>
				</LinearRing>
			</outerBoundaryIs>
		</Polygon>
		<atom:link rel="app" href="https://www.google.com/earth/about/versions/#earth-pro" title="Google Earth Pro 7.3.6.10201"></atom:link>
	</Placemark>
</Document>
</kml>
