<?xml version="1.0" encoding="UTF-8"?>
<kml xmlns="http://www.opengis.net/kml/2.2" xmlns:gx="http://www.google.com/kml/ext/2.2" xmlns:kml="http://www.opengis.net/kml/2.2" xmlns:atom="http://www.w3.org/2005/Atom">
<Document>
	<name>मळवाण_११२ आणि ११३_630.kml</name>
	<StyleMap id="m_ylw-pushpin">
		<Pair>
			<key>normal</key>
			<styleUrl>#s_ylw-pushpin</styleUrl>
		</Pair>
		<Pair>
			<key>highlight</key>
			<styleUrl>#s_ylw-pushpin_hl</styleUrl>
		</Pair>
	</StyleMap>
	<Style id="s_ylw-pushpin">
		<IconStyle>
			<scale>1.1</scale>
			<Icon>
				<href>http://maps.google.com/mapfiles/kml/pushpin/ylw-pushpin.png</href>
			</Icon>
			<hotSpot x="20" y="2" xunits="pixels" yunits="pixels"/>
		</IconStyle>
		<LineStyle>
			<color>d600ffff</color>
			<width>2.8</width>
		</LineStyle>
		<PolyStyle>
			<color>8affffaa</color>
		</PolyStyle>
	</Style>
	<Style id="s_ylw-pushpin_hl">
		<IconStyle>
			<scale>1.3</scale>
			<Icon>
				<href>http://maps.google.com/mapfiles/kml/pushpin/ylw-pushpin.png</href>
			</Icon>
			<hotSpot x="20" y="2" xunits="pixels" yunits="pixels"/>
		</IconStyle>
		<LineStyle>
			<color>d600ffff</color>
			<width>2.8</width>
		</LineStyle>
		<PolyStyle>
			<color>8affffaa</color>
		</PolyStyle>
	</Style>
	<Placemark>
		<name>मळवाण_११२ आणि ११३_630</name>
		<styleUrl>#m_ylw-pushpin</styleUrl>
		<Polygon>
			<tessellate>1</tessellate>
			<outerBoundaryIs>
				<LinearRing>
					<coordinates>
						74.07017370581028,21.27777619355209,0 74.0700978512066,21.27777659876782,0 74.06979485545003,21.27784890113689,0 74.06956687047131,21.27777943483623,0 74.06964103926852,21.27749630343527,0 74.06971520718204,21.27721317307196,0 74.06986522670317,21.2769296388519,0 74.06986269449025,21.27650555599757,0 74.07001313530372,21.2762927048475,0 74.07001144599229,21.27600998345043,0 74.07023689097495,21.27565536916593,0 74.07038605788331,21.27523048350837,0 74.07046106430715,21.27508871995778,0 74.07053522241938,21.27480559805111,0 74.07068480969515,21.27445139369216,0 74.07075938917789,21.27423895366243,0 74.07075727159173,21.27388556007577,0 74.07083100421106,21.27353176451996,0 74.07090515957591,21.27324864740071,0 74.07090346391426,21.27296593506371,0 74.07097676966758,21.27254146498787,0 74.07105134509379,21.27232902821164,0 74.07120092218955,21.27197483435979,0 74.0712754960402,21.27176239883184,0 74.07134922163625,21.27140861066985,0 74.07142337101064,21.27112549945089,0 74.07149751785489,21.27084238897496,0 74.07164751353288,21.27055887677653,0 74.07164581261387,21.27027617114657,0 74.07171995707944,21.26999306378557,0 74.07186994960038,21.26970955285104,0 74.07201993903787,21.26942604367982,0 74.07216992884449,21.26914253424933,0 74.07216822491358,21.26885983181881,0 74.07216609454233,21.26850645546067,0 74.07216438986961,21.26822375411207,0 74.07216225857083,21.26787037906632,0 74.07223639681835,21.26758727597944,0 74.07231010946118,21.26723349957499,0 74.07238424779348,21.26695039772083,0 74.0724583836456,21.26666729641207,0 74.07253252048308,21.26638419661106,0 74.07275834290851,21.26610029179941,0 74.07290789238679,21.26574611590728,0 74.07305829704221,21.26553328848111,0 74.07328411438831,21.26524938541042,0 74.07328197549747,21.26489601639267,0 74.07320442137988,21.26461372394187,0 74.07320228182053,21.26426035568766,0 74.07327641208838,21.26397725936203,0 74.0732742714324,21.26362389198123,0 74.07350051050904,21.26341066531662,0 74.07372546239527,21.26298541993869,0 74.07395169800618,21.262772193994,0 74.07410166252288,21.2624886977425,0 74.0742516275791,21.26220520185979,0 74.07417407072953,21.26192291211992,0 74.07394483500278,21.2616414262867,0 74.07379143973181,21.26135953800675,0 74.07356220426068,21.26107805122799,0 74.07325669953261,21.2607262921312,0 74.07310330461374,21.26044440283896,0 74.07294990802377,21.26016251298942,0 74.07279651321298,21.25988062304562,0 74.07256770711562,21.25966980633628,0 74.07226348934205,21.25953006276519,0 74.07203468297831,21.25931924486875,0 74.07173003581268,21.25910882644603,0 74.07142538831528,21.2588984071086,0 74.0711970100282,21.25875826026723,0 74.07081652239513,21.25854823885078,0 74.07058771506482,21.25833741711558,0 74.07035890758026,21.25812659469354,0 74.0700538300986,21.25784549708165,0 74.06982502220959,21.25763467305199,0 74.06959621412814,21.2574238483312,0 74.069291563928,21.25721342146416,0 74.06898734126293,21.25707366744323,0 74.06875896025973,21.2569335142949,0 74.06852972304425,21.25665201228984,0 74.06830048561615,21.25637050948594,0 74.06807167589618,21.25615967988984,0 74.06761662237913,21.25616206516602,0 74.06716156610956,21.25616444917368,0 74.06693275458294,21.25595361678664,0 74.06685520087507,21.25567131484291,0 74.06677721931172,21.2553183379399,0 74.06662382333477,21.25503643210941,0 74.06662168457434,21.254683057709,0 74.06654412982931,21.25440075447544,0 74.06639073327661,21.25411884676876,0 74.06631275009407,21.25376586736761,0 74.06623519460877,21.25348356270301,0 74.06623262553794,21.25305951110966,0 74.06623091229875,21.25277680994181,0 74.06622877015677,21.25242343303028,0 74.06622619871695,21.25199938012415,0 74.06622405512672,21.25164600232883,0 74.06607065676441,21.25136409001083,0 74.06584141559117,21.25108257166998,0 74.0655367617679,21.25087212276161,0 74.06523210362538,21.2506616719404,0 74.0650032895995,21.25045082604025,0 74.06469949080929,21.25038172570022,0 74.06439483015669,21.25017127157034,0 74.06401432965768,21.24996120887542,0 74.06386092681831,21.24967928800837,0 74.06355669565063,21.24953950617627,0 74.06325203139109,21.24932904676144,0 74.06302321282068,21.24911819226289,0 74.06279396506652,21.24883665892487,0 74.0626414209422,21.24869608779355,0 74.06248801577487,21.24841416118332,0 74.06233461018633,21.24813223253095,0 74.06210536040598,21.24785069536625,0 74.06187568107293,21.24749847708345,0 74.06172270288383,21.24728722339046,0 74.06149388012727,21.24707636079788,0 74.06141631992232,21.24679403553136,0 74.06141417438437,21.24644064067334,0 74.06156414876284,21.24615714240253,0 74.06156200159322,21.24580374636517,0 74.06156028329903,21.24552102812839,0 74.0617860982093,21.24523713861996,0 74.06178394869158,21.24488374075129,0 74.06193391447042,21.24460024082807,0 74.06193176335131,21.24424684158089,0 74.06200588799298,21.24396373078081,0 74.06200373539454,21.24361032993113,0 74.06200158203073,21.24325692708294,0 74.06207570103754,21.24297381551214,0 74.0621498192924,21.24269070245616,0 74.06229978205781,21.24240719941518,0 74.06229762570932,21.2420537945299,0 74.06229590008358,21.24177106902606,0 74.06229374237977,21.2414176621195,0 74.06267166022818,21.24120367114368,0 74.06327839539894,21.24120055550168,0 74.06335423559918,21.24120016583192,0 74.06365716690524,21.24112792528335,0 74.06403593946146,21.24105529404044,0 74.06441514195978,21.2410533429726,0 74.06464266174302,21.2410521717439,0 74.06486888337433,21.2408389568393,0 74.06524721567712,21.24069564131254,0 74.06555013727287,21.24062339887426,0 74.06608014082303,21.24047929932695,0 74.06638349307521,21.24047773404279,0 74.06676181402889,21.2403344147028,0 74.06714099910324,21.24033245597852,0 74.06759602105286,21.24033010384725,0 74.06805103852673,21.24032774992512,0 74.06843021711296,21.24032578695135,0 74.06873355968544,21.24032421566688,0 74.06896236640824,21.24053507699971,0 74.06934240826531,21.24067446844841,0 74.06972201662484,21.24074318035609,0 74.06994995369719,21.24081267860586,0 74.07032912395746,21.24081070862984,0 74.07070829422828,21.24080873740567,0 74.07123912873634,21.24080597561514,0 74.07176908975624,21.24066185320075,0 74.07207198622163,21.24058959560743,0 74.07237531594539,21.24058801440318,0 74.07245071416807,21.24051693993032,0 74.07282987320619,21.24051496215882,0 74.07313320036164,21.24051337903868,0 74.07351192187733,21.24044072019508,0 74.07381524678651,21.24043913535315,0 74.0741185707528,21.24043754971214,0 74.07449772310959,21.24043556654388,0 74.07472521418319,21.24043437604172,0 74.07502810024324,21.24036210948304,0 74.07533098524712,21.2402898422124,0 74.07563517518777,21.24042960952788,0 74.07601475738589,21.24049829961702,0 74.07631851043972,21.24056738625569,0 74.0766222627843,21.24063646993135,0 74.07692644827499,21.24077623250135,0 74.077154805668,21.24091639247056,0 74.07738359835857,21.24112722915797,0 74.07753699896215,21.24140914099932,0 74.0775387410106,21.24169184883154,0 74.07754048281095,21.24197455693196,0 74.07746639491391,21.24225766344649,0 74.07724021375709,21.2424708897976,0 74.07693820172867,21.24268451547932,0 74.07656035974206,21.24289853906671,0 74.07641000545401,21.24311136493014,0 74.07641174469009,21.24339407052193,0 74.07648887776045,21.24360570054222,0 74.07664271243955,21.24395828213705,0 74.07671984532918,21.24416991079774,0 74.0767974145185,21.24445221363666,0 74.07695081245572,21.24473411741745,0 74.07695255078561,21.24501681900222,0 74.07695472332286,21.24537019417868,0 74.07688063188171,21.24565329396305,0 74.07688236925658,21.24593599278613,0 74.07673244401774,21.24621949116278,0 74.07665835104324,21.24650258858686,0 74.07658425583097,21.24678568658574,0 74.07658599175538,21.2470683845866,0 74.07628396800375,21.24728200502642,0 74.07620987100525,21.24756510196382,0 74.07613577520209,21.24784819851532,0 74.07598584471931,21.24813169324099,0 74.07583548168746,21.24834451453165,0 74.07553301900867,21.24848746029773,0 74.07545848736684,21.24869988083712,0 74.07614097723908,21.24869628512117,0 74.07644430527229,21.24869468592328,0 74.07674763075099,21.24869308605819,0 74.07705139086164,21.24876215919372,0 74.07735471656342,21.24876055790511,0 74.07765804147908,21.24875895594103,0 74.07803719524316,21.2487569525428,0 74.07849217889515,21.24875454706779,0 74.07902299164428,21.24875173875564,0 74.07940214128249,21.24874973155644,0 74.07970459190396,21.24860677863878,0 74.0798562523858,21.24860597517067,0 74.0801595693902,21.24860436774418,0 74.08046375734567,21.24874410576505,0 74.08076838004095,21.24895451573486,0 74.08092177803566,21.24923640233452,0 74.08092395288654,21.2495897650062,0 74.08077359909851,21.24980258748968,0 74.08054741347681,21.25001581268168,0 74.08016826365341,21.25001782419347,0 74.07986494443513,21.25001943265629,0 74.07963788636286,21.25009131132958,0 74.07986711659493,21.25037279546291,0 74.08009677961634,21.25072495106285,0 74.08032644193827,21.2510771054147,0 74.08047984075129,21.25135898895628,0 74.08055740863669,21.25164127455962,0 74.08071080762834,21.2519231569388,0 74.08071297962758,21.25227651649358,0 74.08094177478466,21.25248732340008,0 74.08124596669055,21.2526270540925,0 74.08155059218525,21.252837456144,0 74.08170442659242,21.25319000706223,0 74.08185739192874,21.2534012141623,0 74.0820107920582,21.25368309236048,0 74.08201253059505,21.25396577799531,0 74.08201470350461,21.25431913460637,0 74.08201644162342,21.25460181961433,0 74.08201861401253,21.25495517579247,0 74.08209574834262,21.25516678542474,0 74.08209792043827,21.25552014122906,0 74.08209965790762,21.2558028256521,0 74.08217722663547,21.25608510590007,0 74.08225479628499,21.25636738593762,0 74.08240776325543,21.25657859026407,0 74.08240993490786,21.2569319453914,0 74.08256377003786,21.25728449128897,0 74.08264134005528,21.25756677048126,0 74.08279474133276,21.2578486448266,0 74.08309937430825,21.2580590381264,0 74.08340357296109,21.25819875979303,0 74.08370777077759,21.25833848075479,0 74.08401153466613,21.25840753027336,0 74.08424033561728,21.25861832621967,0 74.08424207523591,21.25890100921393,0 74.0843954788879,21.25918288100226,0 74.08454844877261,21.25939408189967,0 74.08477768612387,21.25967554745201,0 74.08493109172487,21.25995741845539,0 74.08515989487631,21.26016821259415,0 74.08516207066616,21.26052156636685,0 74.08516424624202,21.26087492032351,0 74.08501431991267,21.26115841593096,0 74.08486439356481,21.26144191194535,0 74.08486613295725,21.26172459560517,0 74.08486787220852,21.2620072794365,0 74.08487004607507,21.26236063461038,0 74.08487221972129,21.2627139900967,0 74.08495022719774,21.26306693956437,0 74.08495196594622,21.26334962434769,0 74.08502997358497,21.26370257433224,0 74.08503214681876,21.26405593114293,0 74.08510972086647,21.26433821022595,0 74.08518729423088,21.26462049000185,0 74.08518946733574,21.26497384789759,0 74.08519164022856,21.26532720628853,0 74.08526921473282,21.26560948648952,0 74.085423058785,21.26596203206457,0 74.08550106845993,21.26631498489617,0 74.08565404415317,21.26652618730192,0 74.08573205445381,21.26687914032221,0 74.08580962942622,21.26716142248035,0 74.08581180283603,21.26751478366078,0 74.08596521560034,21.26779665936656,0 74.08604279123271,21.26807894164945,0 74.08612080271253,21.26843189811154,0 74.08619837881506,21.26871418125584,0 74.08620011781784,21.26899687329135,0 74.08635396739581,21.26934942393347,0 74.08650738278635,21.2696313007932,0 74.08658496003667,21.26991358667785,0 74.08658713434289,21.2702669533728,0 74.08674055106498,21.27054883256039,0 74.08697024177636,21.27090097710716,0 74.08712278967971,21.27104150908855,0 74.08735161163142,21.27125230707304,0 74.0875050308847,21.27153418638983,0 74.0877338537486,21.27174498460853,0 74.08788770985603,21.27209754001571,0 74.08811653466609,21.27230833761848,0 74.08811827723912,21.27259103624049,0 74.08834753905062,21.27287250919586,0 74.08850052637612,21.27308371701753,0 74.08865395013518,21.27336560021168,0 74.08880737413214,21.27364748293797,0 74.08880911815783,21.27393018458762,0 74.08888670286939,21.27421247824689,0 74.08896428790051,21.27449477158012,0 74.08904230892912,21.27484774265323,0 74.08911989466338,21.27513003854287,0 74.08919748072273,21.27541233315578,0 74.08927506713543,21.27569463048212,0 74.08935265346091,21.27597692854928,0 74.08935439835828,21.27625963635279,0 74.08920445871182,21.27654316294158,0 74.08897823939728,21.27675641987154,0 74.08882829714521,21.27703994795168,0 74.08860251108106,21.2773238858187,0 74.0883000092273,21.27746687724271,0 74.08792079241326,21.27746892128319,0 74.08754157553311,21.27747096493195,0 74.08723820096122,21.27747259957444,0 74.08685898268556,21.277474642525,0 74.08647976383747,21.27747668508659,0 74.08610054439052,21.27747872725932,0 74.08572132431811,21.27748076904335,0 74.08534210445779,21.27748281043417,0 74.0850387270455,21.27748444327273,0 74.0845836609473,21.27748689205997,0 74.08428028239013,21.27748852427737,0 74.08382521451092,21.27749097213321,0 74.08344599012925,21.27749301158796,0 74.08306676493656,21.27749505065498,0 74.08261169394305,21.27749749702197,0 74.08238415797975,21.27749871999625,0 74.08208163713556,21.27764170802997,0 74.0817024082436,21.27764374581862,0 74.08139988543527,21.27778673381807,0 74.08109693023151,21.27785904278233,0 74.08071769801592,21.27786107976065,0 74.08033932360631,21.27800447509284,0 74.08011221223379,21.27807637643828,0 74.07973340628372,21.27814909025255,0 74.07935416834465,21.27815112614699,0 74.07912662574742,21.27815234750167,0 74.078747387768,21.27815438279266,0 74.07844399552825,21.27815601076376,0 74.07814060254547,21.27815763849738,0 74.07768551251247,21.27816007964805,0 74.07738211761271,21.27816170678826,0 74.07692659782462,21.27809346888015,0 74.07662277625897,21.27802441518851,0 74.07631895257565,21.27795536119357,0 74.07601512848832,21.27788630688277,0 74.07571130398254,21.27781725225283,0 74.07533163047096,21.27774860355265,0 74.07502780491922,21.27767954819627,0 74.07472397890221,21.27761049251041,0 74.07426887734125,21.2776129287961,0 74.07396547456517,21.27761455268345,0 74.07366207257388,21.27761617631669,0 74.07335909220505,21.27768848030288,0 74.07313196244557,21.27776037844678,0 74.07282855561341,21.27776200157114,0 74.07252599506907,21.27790498633379,0 74.07214673460138,21.27790701478752,0 74.07184332403858,21.27790863728577,0 74.07153991243736,21.27791025954385,0 74.07116064775099,21.2779122870219,0 74.07078137966609,21.27791431413418,0 74.07017370581028,21.27777619355209,0 
					</coordinates>
				</LinearRing>
			</outerBoundaryIs>
		</Polygon>
		<atom:link rel="app" href="https://www.google.com/earth/about/versions/#earth-pro" title="Google Earth Pro 7.3.7.1094"></atom:link>
	</Placemark>
</Document>
</kml>
