<?xml version="1.0" encoding="UTF-8"?>
<kml xmlns="http://www.opengis.net/kml/2.2" xmlns:gx="http://www.google.com/kml/ext/2.2" xmlns:kml="http://www.opengis.net/kml/2.2" xmlns:atom="http://www.w3.org/2005/Atom">
<Document>
	<name>मरोड_२१-198.kml</name>
	<StyleMap id="m_ylw-pushpin">
		<Pair>
			<key>normal</key>
			<styleUrl>#s_ylw-pushpin</styleUrl>
		</Pair>
		<Pair>
			<key>highlight</key>
			<styleUrl>#s_ylw-pushpin_hl</styleUrl>
		</Pair>
	</StyleMap>
	<Style id="s_ylw-pushpin">
		<IconStyle>
			<scale>1.1</scale>
			<Icon>
				<href>http://maps.google.com/mapfiles/kml/pushpin/ylw-pushpin.png</href>
			</Icon>
			<hotSpot x="20" y="2" xunits="pixels" yunits="pixels"/>
		</IconStyle>
		<LineStyle>
			<color>d600ffff</color>
			<width>2.8</width>
		</LineStyle>
		<PolyStyle>
			<color>8affffaa</color>
		</PolyStyle>
	</Style>
	<Style id="s_ylw-pushpin_hl">
		<IconStyle>
			<scale>1.3</scale>
			<Icon>
				<href>http://maps.google.com/mapfiles/kml/pushpin/ylw-pushpin.png</href>
			</Icon>
			<hotSpot x="20" y="2" xunits="pixels" yunits="pixels"/>
		</IconStyle>
		<LineStyle>
			<color>d600ffff</color>
			<width>2.8</width>
		</LineStyle>
		<PolyStyle>
			<color>8affffaa</color>
		</PolyStyle>
	</Style>
	<Placemark>
		<name>मरोड_२१-198</name>
		<styleUrl>#m_ylw-pushpin</styleUrl>
		<Polygon>
			<tessellate>1</tessellate>
			<outerBoundaryIs>
				<LinearRing>
					<coordinates>
						73.9476862952729,21.37354567495356,0 73.94763679564518,21.37350002408234,0 73.9474392773067,21.37340916877892,0 73.94733979887604,21.37322611921596,0 73.94728958029265,21.37304284683103,0 73.94728838147185,21.37281347789536,0 73.94738594089266,21.37262953808714,0 73.94743424078771,21.37244582050207,0 73.94748206080897,21.37217035635374,0 73.94757937931556,21.37194054305774,0 73.947627198722,21.37166508154759,0 73.94762647899456,21.37152746202931,0 73.94772403652705,21.37134352314997,0 73.94772307673448,21.37116003169288,0 73.94782063375787,21.37097609339459,0 73.94786869211751,21.37074650580617,0 73.94786773209813,21.37056301532489,0 73.94786677208809,21.37037952448862,0 73.94791459009156,21.37010406613208,0 73.94796288793361,21.36992035270602,0 73.94801118562228,21.36973664018439,0 73.94801022541336,21.36955315058303,0 73.9480092652184,21.36936966124265,0 73.94800782495562,21.36909442835504,0 73.94800686479563,21.3689109396438,0 73.94795664729379,21.36872767513206,0 73.94795568724435,21.36854418690213,0 73.94795448720473,21.36831482758516,0 73.9479535271854,21.36813133986902,0 73.94795208718475,21.36785610935034,0 73.94795136719394,21.36771849394811,0 73.94795016722927,21.3674891358482,0 73.94804748070554,21.36725933075168,0 73.94814503388156,21.36707539815596,0 73.94814407363808,21.36689191181081,0 73.94824186647324,21.36675385041114,0 73.94829040271509,21.3666160131167,0 73.94838795502825,21.36643208037799,0 73.94838699445366,21.36624859463933,0 73.94838555362766,21.36597336698444,0 73.94838411283889,21.36569813936035,0 73.94838291221153,21.36546878331771,0 73.94838147149387,21.36519355629487,0 73.9483805110375,21.36501007188967,0 73.94842856612618,21.36478049302298,0 73.94847710148125,21.3646426565233,0 73.94852539644637,21.36445894899359,0 73.94857345126329,21.36422937051082,0 73.94857249061261,21.36404588671132,0 73.94867004070026,21.36386195562732,0 73.94866859957904,21.36358673040854,0 73.94866763885408,21.36340324661004,0 73.94861718280632,21.36317411601264,0 73.94851771213666,21.36299107962771,0 73.94841800169152,21.36276217256327,0 73.94841680132141,21.36253281874096,0 73.94831733147707,21.36234978251023,0 73.94831589129188,21.36207455802844,0 73.94831493118787,21.36189107493522,0 73.94831349106306,21.36161585052733,0 73.94831277101453,21.36147823839063,0 73.94836082541596,21.36124866127564,0 73.94845861404119,21.36111060203454,0 73.94845741378471,21.36088124847833,0 73.94845645359914,21.36069776563218,0 73.9485537616638,21.36046796494858,0 73.94865154965194,21.3603299056066,0 73.94865034918396,21.36010055201972,0 73.94874717642067,21.35977900971324,0 73.94884424344743,21.35950333797633,0 73.94884352305138,21.35936572571224,0 73.94889205635258,21.35922788980532,0 73.94898960320516,21.3590439592055,0 73.94898840240212,21.3588146053318,0 73.94908594894696,21.35863067469629,0 73.94913424183979,21.3584469677395,0 73.94918253450669,21.35826326053544,0 73.94923082723147,21.35807955339978,0 73.94927887966357,21.35784997522968,0 73.94932717193846,21.35766626787229,0 73.94932621108333,21.35748278430971,0 73.94947276985874,21.35725275786035,0 73.94947180890067,21.3570692737504,0 73.94947036751743,21.35679404803907,0 73.94951865972217,21.35661033968354,0 73.94956647110594,21.35633488953741,0 73.94956575040979,21.35619727603823,0 73.94961404244765,21.35601356754921,0 73.94966233441863,21.35582985889923,0 73.9497103860798,21.35560027879455,0 73.94970918488632,21.35537092254017,0 73.94975747641897,21.35518721331929,0 73.94975651547696,21.35500372772658,0 73.94980456697806,21.35477414700741,0 73.94985309888766,21.35463630837757,0 73.94995064279632,21.35445237451404,0 73.94999893431786,21.35426866398196,0 73.94999797329719,21.35408517749677,0 73.94999653182902,21.35380994806024,0 73.94999533065717,21.35358058932278,0 73.94999388931957,21.35330535906438,0 73.95004218072454,21.35312164723556,0 73.95004097965155,21.35289228815395,0 73.95008903078573,21.35266270374529,0 73.9500878297616,21.35243334394901,0 73.95018585327968,21.35234115092033,0 73.9501846522262,21.35211179058716,0 73.95018345122142,21.35188242922559,0 73.9502809944005,21.35169849161867,0 73.95037829698289,21.35146868054576,0 73.95047535951655,21.35119299702642,0 73.95047439865178,21.35100950661645,0 73.95047319762483,21.35078014385885,0 73.95047223684107,21.3505966528177,0 73.95047103591526,21.35036728925428,0 73.95046983504224,21.35013792458333,0 73.95041962273173,21.34995465711104,0 73.95032015892859,21.34977161454159,0 73.95031919844263,21.34958812186755,0 73.95021973521068,21.34940507798209,0 73.95002224932493,21.34931422934856,0 73.94982428363805,21.34913163486746,0 73.9496758096809,21.34899468763214,0 73.94957634703782,21.34881164225706,0 73.94962487848416,21.34867379726908,0 73.94987017492394,21.34848918088058,0 73.95006645992835,21.3483506631243,0 73.95021373356907,21.3482582419072,0 73.95040977839096,21.34807384793885,0 73.95050732048577,21.3478899026916,0 73.95080210785189,21.34775093176439,0 73.95104812415694,21.34770393304564,0 73.95119587797734,21.34770325801083,0 73.95144261507784,21.34779388075365,0 73.95178737502897,21.34779230415628,0 73.9518363859908,21.34774620470847,0 73.95208240300398,21.34769920360984,0 73.95242692278616,21.34765175074601,0 73.95257443753827,21.34760519958974,0 73.95267269986785,21.34755887392587,0 73.95287018724945,21.34764971942416,0 73.95306791480188,21.34778643874046,0 73.95321639176805,21.34792338352151,0 73.95341363902023,21.34796835374476,0 73.95356235649129,21.34815117197434,0 73.95371083373824,21.34828811575128,0 73.95390832297713,21.34837895776086,0 73.95405680081986,21.34851590088768,0 73.9542055196418,21.34869871754573,0 73.95425573436715,21.3488819864325,0 73.95430570906424,21.34901938130071,0 73.95445491025951,21.34929394284933,0 73.95450512555486,21.34947721068667,0 73.95455510072679,21.34961460476734,0 73.9546545690748,21.34979764568002,0 73.95475403712611,21.34998068562403,0 73.95480425368012,21.35016395232493,0 73.95495273419517,21.35030089265253,0 73.95500270957693,21.35043828506438,0 73.95510217915842,21.35062132456257,0 73.95525066051455,21.35075826419108,0 73.95535013069224,21.35094130249755,0 73.95549861271375,21.35107824162219,0 73.9555980835103,21.35126128005043,0 73.95559904836806,21.35144477083964,0 73.95560001331489,21.35162826201004,0 73.95555220742131,21.35190372419843,0 73.95545466669014,21.35208766773297,0 73.95545563181351,21.35227115731765,0 73.9554568383406,21.35250051976805,0 73.95555630977067,21.35268355592478,0 73.95560652893951,21.35286681897291,0 73.95570600092958,21.35304985534538,0 73.9557072081686,21.35327921607423,0 73.95570841554687,21.35350857711896,0 73.9557096230576,21.35373793719938,0 73.95571058916676,21.35392142555726,0 73.95571203849033,21.35419665709011,0 73.95571300481716,21.35438014497753,0 73.95571421284475,21.35460950394062,0 73.95561667214173,21.35479344399245,0 73.95556838445654,21.35497715686957,0 73.95547084368954,21.35516109634994,0 73.95537330231497,21.35534503520677,0 73.95527576089201,21.35552897376677,0 73.95532622280015,21.35575810554835,0 73.9553766855384,21.35598723714005,0 73.95542690625487,21.35617049701417,0 73.95552638170886,21.35635353104853,0 73.95562585751246,21.3565365646478,0 73.95577434594523,21.3566735005462,0 73.95582456771092,21.35685676006453,0 73.95592404454163,21.35703979338216,0 73.95597426679774,21.35722305306478,0 73.95612299930428,21.35740586008466,0 73.95622247668065,21.35758889316277,0 73.95632195499425,21.35777192617088,0 73.95632292368231,21.35795541161408,0 73.95632437688822,21.35823063939794,0 73.95632510357045,21.35836825331286,0 73.95637557029491,21.35859738361939,0 73.95642603620298,21.35882651388015,0 73.95652551682824,21.35900954668978,0 73.95662523916003,21.35923845089116,0 73.95667522231167,21.35937583852524,0 73.95672544812768,21.35955909748001,0 73.95682492904704,21.35974213035055,0 73.9568261419287,21.35997148664075,0 73.95682711234467,21.36015497162973,0 73.95672957162182,21.36033890864428,0 73.9567305421118,21.36052239359263,0 73.95668249906903,21.36075197572307,0 73.95663421337832,21.36093568653992,0 73.95658592767633,21.36111939735122,0 73.95658714108384,21.36134875346698,0 73.95653909923865,21.3615783354552,0 73.95644155700001,21.36176227195465,0 73.95644252785515,21.36194575684941,0 73.95634498660606,21.3621296933192,0 73.95624744469301,21.36231362953878,0 73.95619915939338,21.36249734024759,0 73.95610161729971,21.36268127635107,0 73.95605333189762,21.36286498687555,0 73.95590653333538,21.36304914850777,0 73.95580899089566,21.36323308441559,0 73.9557114483335,21.36341702027154,0 73.95571241900093,21.36360050542103,0 73.9555653771739,21.36373879551141,0 73.95541857782636,21.36392295652081,0 73.95537029124392,21.36410666702368,0 73.95537150438059,21.36433602384172,0 73.95532346098003,21.36456560598158,0 73.95532443161801,21.36474909162146,0 73.95532564503462,21.36497844892435,0 73.95542513025345,21.36516148465408,0 73.95557411579156,21.36539016706988,0 73.95567311628221,21.36548146013467,0 73.9558216171756,21.36561839946491,0 73.95592086126456,21.36575556435093,0 73.95606936312083,21.36589250384278,0 73.95616909428078,21.36612141261449,0 73.95626833903926,21.36625857724165,0 73.95641684302798,21.36639551742842,0 73.9565655903731,21.36657832970672,0 73.95671409498669,21.36671526948877,0 73.95691161531595,21.36680611266786,0 73.95710913514802,21.36689695581567,0 73.957257397845,21.36698802424142,0 73.95760342747218,21.36721580743176,0 73.9578007068999,21.367260778245,0 73.9578997122338,21.36735207213269,0 73.95804822129438,21.36748901306864,0 73.95814771671006,21.36767205137291,0 73.95824721152154,21.36785509059381,0 73.95829744820922,21.36803835482955,0 73.95834768519721,21.36822161996897,0 73.95829915828818,21.36835946336221,0 73.95810260848762,21.36845210937905,0 73.95785704419482,21.3685908537822,0 73.95775925702063,21.36872892238351,0 73.95746418863982,21.36882201878299,0 73.95721862411882,21.36896076181,0 73.95702207420135,21.3690534074514,0 73.95682576807752,21.3691919256982,0 73.95672798119479,21.36932999334287,0 73.9565809344448,21.36946828655521,0 73.95648338988147,21.36965222780869,0 73.95648460860028,21.36988159193642,0 73.95648558368629,21.37006508405951,0 73.9564868026757,21.3702944489577,0 73.95643876275358,21.37052403967086,0 73.95639023400912,21.37066188417167,0 73.95634194957718,21.37084560149643,0 73.95624416092441,21.37098367094711,0 73.95604736455589,21.37103044284048,0 73.95575180536041,21.37103179031877,0 73.95560402597768,21.37103246394875,0 73.95540674322712,21.37098748868268,0 73.95520970478722,21.37098838663102,0 73.95501242279002,21.37094341117959,0 73.95476612561423,21.37094453329161,0 73.95451934222002,21.37085390880012,0 73.95427280250993,21.37080915739614,0 73.95412453912691,21.37071808413265,0 73.95392701667227,21.37062723585795,0 73.95377875416528,21.37053616266818,0 73.95358123274892,21.37044531377365,0 73.95338468226183,21.37053795658908,0 73.95323763276457,21.3706762481178,0 73.95309106771913,21.37090628517769,0 73.95299303414242,21.37099847963056,0 73.952846226102,21.37118264387651,0 73.95274867666689,21.37136658489147,0 73.95260186792174,21.37155075014653,0 73.9525535770192,21.37173446762431,0 73.95250528655762,21.3719181841017,0 73.9524077361413,21.37210212611192,0 73.95231018601484,21.37228606837793,0 73.95221263505235,21.37247001091152,0 73.95206558229425,21.37260830378114,0 73.95196803072271,21.37279224546628,0 73.95182146118613,21.37302228648441,0 73.95172390893465,21.37320623009662,0 73.95172487654722,21.37338972649529,0 73.95157806397968,21.37357389449441,0 73.95143125095483,21.37375806146262,0 73.95123469377526,21.37385070489574,0 73.95103813606319,21.37394334828831,0 73.95079159390239,21.37389859205145,0 73.95064333049429,21.3738075141999,0 73.95039703044965,21.37380863211517,0 73.9502487677323,21.37371755424827,0 73.9500024681667,21.37371867192514,0 73.94980494646275,21.37362781882572,0 73.94955840621947,21.37358306206319,0 73.94936136695659,21.37358395587388,0 73.94916408694283,21.37353897544904,0 73.94886852840754,21.37354031581999,0 73.94852371033676,21.37354187928863,0 73.94822815203698,21.37354321915028,0 73.9476862952729,21.37354567495356,0 
					</coordinates>
				</LinearRing>
			</outerBoundaryIs>
		</Polygon>
		<atom:link rel="app" href="https://www.google.com/earth/about/versions/#earth-pro" title="Google Earth Pro 7.3.7.1094"></atom:link>
	</Placemark>
</Document>
</kml>
