<?xml version="1.0" encoding="UTF-8"?>
<kml xmlns="http://www.opengis.net/kml/2.2" xmlns:gx="http://www.google.com/kml/ext/2.2" xmlns:kml="http://www.opengis.net/kml/2.2" xmlns:atom="http://www.w3.org/2005/Atom">
<Document>
	<name>मौलीपाडा_१३_210.kml</name>
	<StyleMap id="m_ylw-pushpin">
		<Pair>
			<key>normal</key>
			<styleUrl>#s_ylw-pushpin</styleUrl>
		</Pair>
		<Pair>
			<key>highlight</key>
			<styleUrl>#s_ylw-pushpin_hl</styleUrl>
		</Pair>
	</StyleMap>
	<Style id="s_ylw-pushpin">
		<IconStyle>
			<scale>1.1</scale>
			<Icon>
				<href>http://maps.google.com/mapfiles/kml/pushpin/ylw-pushpin.png</href>
			</Icon>
			<hotSpot x="20" y="2" xunits="pixels" yunits="pixels"/>
		</IconStyle>
		<LineStyle>
			<color>d600ffff</color>
			<width>2.8</width>
		</LineStyle>
		<PolyStyle>
			<color>8affffaa</color>
		</PolyStyle>
	</Style>
	<Style id="s_ylw-pushpin_hl">
		<IconStyle>
			<scale>1.3</scale>
			<Icon>
				<href>http://maps.google.com/mapfiles/kml/pushpin/ylw-pushpin.png</href>
			</Icon>
			<hotSpot x="20" y="2" xunits="pixels" yunits="pixels"/>
		</IconStyle>
		<LineStyle>
			<color>d600ffff</color>
			<width>2.8</width>
		</LineStyle>
		<PolyStyle>
			<color>8affffaa</color>
		</PolyStyle>
	</Style>
	<Placemark>
		<name>मौलीपाडा_१३_210</name>
		<styleUrl>#m_ylw-pushpin</styleUrl>
		<Polygon>
			<tessellate>1</tessellate>
			<outerBoundaryIs>
				<LinearRing>
					<coordinates>
						73.97888555516587,21.35502303883362,0 73.97888875624967,21.35482366650741,0 73.9788927572735,21.35457445088725,0 73.97878891345148,21.35437358446616,0 73.9787385892713,21.35417346466535,0 73.978634745176,21.35397259719566,0 73.97842225127204,21.35386992197693,0 73.97820895916792,21.35381708936513,0 73.97799566647599,21.35376425631764,0 73.97783669379683,21.35366232705752,0 73.97773284900235,21.35346145741988,0 73.97778957235222,21.35326283071102,0 73.97784709531159,21.35301436024877,0 73.97785029525107,21.35281498568288,0 73.97790701982746,21.35261635878775,0 73.97801726629012,21.35241847962521,0 73.97818023451531,21.3522711916569,0 73.97829047717048,21.35207331242286,0 73.97845424340075,21.35187618096104,0 73.97856368763374,21.35172814548674,0 73.97872745221375,21.35153101358214,0 73.97883769453473,21.35133313455512,0 73.97905338020287,21.35123643789817,0 73.97927066302815,21.35104005346955,0 73.97943362486529,21.35089276576466,0 73.97965010894021,21.35074622491327,0 73.97991931344077,21.35065027519224,0 73.98008227265986,21.35050298643184,0 73.98024443253348,21.35040554203199,0 73.98046091018307,21.3502590004679,0 73.98067658954952,21.35016230246259,0 73.98083954574081,21.35001501321884,0 73.98110794440919,21.34996890576129,0 73.98148497873022,21.34982460543311,0 73.981645537801,21.34982684657128,0 73.98207529050745,21.34973313486538,0 73.98223664623232,21.34968553179003,0 73.98239800154531,21.34963792856206,0 73.98250823053328,21.3494400485474,0 73.98267197821477,21.34924291438857,0 73.98272868813591,21.34904428660122,0 73.98289243450139,21.34884715276538,0 73.98294914360277,21.34864852459534,0 73.98300585115109,21.34844989688771,0 73.98311607831172,21.34825201502868,0 73.98311926774898,21.3480526394125,0 73.98312325426792,21.34780342016652,0 73.98312644327899,21.34760404385964,0 73.98313042926551,21.34735482373037,0 73.98302737805251,21.34710410835551,0 73.98297704923162,21.34690398444599,0 73.98292671906431,21.34670385936865,0 73.98292990719459,21.34650448176902,0 73.98304013063604,21.3463065975771,0 73.98304331831297,21.34610721865236,0 73.98315433901961,21.34585948975508,0 73.98315752618981,21.34566011008709,0 73.98326774804502,21.34546222466366,0 73.98343228390786,21.34521524248305,0 73.98359602237795,21.34501810357968,0 73.98375976013745,21.34482096429587,0 73.98386918453772,21.3446729227963,0 73.98387237010252,21.34447354130636,0 73.98392907286885,21.3442749080506,0 73.98398577415425,21.34407627300855,0 73.98404247637687,21.34387763760992,0 73.9841518981181,21.34372959486704,0 73.98410156673239,21.34352946426959,0 73.98405123396256,21.34332933450375,0 73.98400090107098,21.34312920277516,0 73.98400408517611,21.34292981797685,0 73.98400726910279,21.34273043271358,0 73.98427724066248,21.34258463087557,0 73.98454800566034,21.34238898330679,0 73.98471014600516,21.34229153216581,0 73.98492421098456,21.3422945209668,0 73.98513588834669,21.34244704709975,0 73.98524053264883,21.34259807989693,0 73.985398693131,21.34274985903622,0 73.98550333837909,21.34290089079222,0 73.98566070271313,21.34310251457546,0 73.98576455066383,21.34330339092138,0 73.98597702233545,21.343406066748,0 73.98613518183782,21.34355784254981,0 73.98629334114928,21.34370961770171,0 73.98645150027548,21.3438613922091,0 73.98666476662883,21.34391422158894,0 73.98687803138716,21.34396705043462,0 73.98714401684988,21.3440704696238,0 73.98735728202762,21.34412329728465,0 73.98746112889428,21.34432416828345,0 73.98761849111871,21.34452578263917,0 73.98777664890535,21.34467755288396,0 73.98793480655364,21.34482932252385,0 73.98803865425087,21.34503019095187,0 73.98830622809852,21.34503391618307,0 73.98868083145703,21.34503913044586,0 73.98905543367745,21.34504434345555,0 73.9892686950142,21.34509716603077,0 73.98948195728495,21.34514998813424,0 73.98964170462914,21.34520206543367,0 73.9898549664255,21.34525488667338,0 73.99006822795634,21.34530770742943,0 73.99028228461798,21.34531068366319,0 73.99054826339054,21.34541409136613,0 73.99076231880657,21.34541706662983,0 73.99097637452644,21.34542004149743,0 73.99124235300845,21.34552344584955,0 73.99140289408082,21.34552567631748,0 73.99166966721769,21.34557923705345,0 73.99182941275555,21.34563131065086,0 73.99204267209413,21.34568412711787,0 73.99230785370176,21.34583737336327,0 73.9924675994901,21.34588944580837,0 73.99268085773008,21.3459422607855,0 73.99289252642423,21.34609476221127,0 73.99310578439943,21.3461475761864,0 73.99326314437218,21.34634917645397,0 73.99347560788559,21.34645183274127,0 73.99368648092435,21.34665417474034,0 73.99384622565107,21.34670624385002,0 73.99405868902774,21.34680889854157,0 73.99432625485657,21.34681260871038,0 73.9945938203839,21.34681631827164,0 73.99475435943917,21.34681854371517,0 73.99507543724972,21.34682299394642,0 73.99518007942932,21.3469740059006,0 73.99506987467176,21.34717189407737,0 73.99495966964707,21.34736978117596,0 73.99490297787084,21.3475684102776,0 73.99479277234315,21.34776629667903,0 73.99473608017935,21.34796492514162,0 73.99462587412388,21.34816281157631,0 73.99451646265904,21.34831085459782,0 73.99440625665362,21.34850874043684,0 73.99424253581019,21.34870588339566,0 73.99407881509762,21.34890302666246,0 73.99396860801379,21.34910091148928,0 73.99380488583118,21.34929805332454,0 73.9936946780248,21.34949593752887,0 73.99353016032687,21.34974292064847,0 73.99342074639364,21.34989096229329,0 73.99320430379598,21.35003751946228,0 73.99309409445767,21.35023540184514,0 73.99287765081121,21.35038195837254,0 73.99276823552732,21.35052999917684,0 73.99271153929247,21.35072862317758,0 73.99260132791886,21.35092650535075,0 73.99259814556618,21.35112587126202,0 73.99248793362439,21.3513237530396,0 73.99248475096832,21.35152311927907,0 73.99247997682284,21.35182216757114,0 73.99236976460963,21.35202004841447,0 73.99231306616511,21.35221867137934,0 73.99225636809942,21.3524172945476,0 73.99219966920252,21.35261591720787,0 73.99214137884518,21.35291422227279,0 73.99203196029488,21.35306226104494,0 73.99202798035154,21.35331146678946,0 73.99197207709908,21.35346024769806,0 73.99186106559071,21.35370796852308,0 73.99153758345307,21.35385303774701,0 73.99148247549812,21.35395197727032,0 73.99142657054932,21.35410075823886,0 73.99136907340949,21.35434922102386,0 73.99131316805261,21.35449800151307,0 73.99114863796574,21.35474497921349,0 73.99114624861353,21.35489450222251,0 73.9911422662268,21.35514370706854,0 73.99113828367231,21.35539291178701,0 73.99113350438691,21.35569195719288,0 73.99113031805931,21.35589132089032,0 73.99112633500037,21.35614052529976,0 73.99112235177434,21.35638972954311,0 73.99117268218913,21.35658983522687,0 73.99122301200882,21.35678994080389,0 73.99127254515234,21.35703988704523,0 73.99127015503228,21.35718940948033,0 73.99142751949712,21.35739099900699,0 73.99158488352359,21.35759258819607,0 73.99174224772845,21.35779417710979,0 73.99184609535025,21.35799502388839,0 73.99200345991045,21.3581966123521,0 73.99216162122633,21.35834835980539,0 73.9923197826798,21.35850010703043,0 73.99242442743974,21.3586511124769,0 73.99252827583662,21.35885195841981,0 73.99268484486183,21.35910338653071,0 73.99300355841935,21.3592573571622,0 73.99321523770135,21.35940984460107,0 73.99332067958963,21.35951100848797,0 73.99337101209676,21.35971111258185,0 73.99336703070716,21.35996031608519,0 73.99330953138248,21.36020877849925,0 73.99325203231865,21.36045724106893,0 73.99319532872454,21.36065586292288,0 73.99313862547569,21.36085448489544,0 73.99308192196057,21.36105310698485,0 73.99302521756194,21.36125172953985,0 73.99296851350847,21.36145035188291,0 73.99285829067257,21.3616482331681,0 73.99285430728364,21.36189743803766,0 73.99285032375151,21.36214664311175,0 73.99242058268874,21.36224039538647,0 73.99193891566458,21.3622337234984,0 73.99172484060222,21.36223075783978,0 73.99156428443354,21.36222853345079,0 73.99129669027081,21.36222482584856,0 73.99108420985385,21.36212217731019,0 73.99092524815023,21.36202026982113,0 73.99076708341892,21.36186852124681,0 73.99055540077914,21.36171603071907,0 73.99039564169493,21.36166396394134,0 73.99018316150683,21.36156131380554,0 73.98996988291377,21.36150850465121,0 73.98975660415013,21.36145569556992,0 73.98949140278964,21.36130246107384,0 73.98922540219819,21.36119906774745,0 73.98895860454556,21.36114551497378,0 73.98874532507487,21.3610927041531,0 73.98847772848235,21.36108899200844,0 73.98821013008815,21.36108527947121,0 73.98794253231783,21.36108156657506,0 73.98767493271944,21.36107785328594,0 73.9874608528375,21.36107488238718,0 73.98719325332964,21.36107116843768,0 73.98697917252748,21.36106819699681,0 73.98676668922872,21.3609655419915,0 73.98655340798936,21.36091272868536,0 73.9863409243508,21.36081007300344,0 73.98612844056159,21.3607074169676,0 73.98591595660776,21.36060476092432,0 73.98575779271324,21.36045300593041,0 73.9855461090706,21.36030050727751,0 73.98533362478884,21.36019784998986,0 73.98512114031524,21.36009519232673,0 73.98496297630251,21.35994343611054,0 73.98480481227988,21.35979167962514,0 73.98470096893605,21.35959082499458,0 73.98454280493621,21.35943906801399,0 73.9843854391942,21.35923746901118,0 73.98422727516096,21.3590857114332,0 73.9841234319149,21.35888485585134,0 73.98391174653999,21.35873235350955,0 73.98375358239709,21.35858059508536,0 73.98359621779814,21.35837899434213,0 73.98338453210049,21.35822649072313,0 73.9831720477554,21.3581238286039,0 73.98296036163002,21.35797132400014,0 73.98280219701356,21.35781956365207,0 73.98264483206383,21.35761796083943,0 73.98259450928055,21.35741784748922,0 73.98249066595729,21.35721698904536,0 73.98244034303555,21.35701687539961,0 73.9823900200232,21.35681676160714,0 73.98228617653875,21.35661590250392,0 73.98229017450478,21.35636669152512,0 73.9821855313311,21.3562156742148,0 73.98213520797006,21.35601555988104,0 73.98197784269725,21.35581395428249,0 73.98181967777153,21.35566219062682,0 73.98166151270533,21.35551042673976,0 73.9814490261643,21.35540775885452,0 73.98123653924176,21.3553050906405,0 73.9810240519321,21.35520242191836,0 73.98075644379847,21.3551986918687,0 73.98054235586497,21.35519570747601,0 73.9803290671906,21.3551428801489,0 73.9801157780071,21.35509005223859,0 73.97979464383253,21.35508557402246,0 73.97947350819842,21.35508109511741,0 73.97931293982695,21.35507885540643,0 73.97904532423023,21.35507512216045,0 73.97888555516587,21.35502303883362,0 
					</coordinates>
				</LinearRing>
			</outerBoundaryIs>
		</Polygon>
		<atom:link rel="app" href="https://www.google.com/earth/about/versions/#earth-pro" title="Google Earth Pro 7.3.7.1094"></atom:link>
	</Placemark>
</Document>
</kml>
