<?xml version="1.0" encoding="UTF-8"?>
<kml xmlns="http://www.opengis.net/kml/2.2" xmlns:gx="http://www.google.com/kml/ext/2.2" xmlns:kml="http://www.opengis.net/kml/2.2" xmlns:atom="http://www.w3.org/2005/Atom">
<Document>
	<name>मोगरणी_११९_243.kml</name>
	<StyleMap id="m_ylw-pushpin">
		<Pair>
			<key>normal</key>
			<styleUrl>#s_ylw-pushpin</styleUrl>
		</Pair>
		<Pair>
			<key>highlight</key>
			<styleUrl>#s_ylw-pushpin_hl</styleUrl>
		</Pair>
	</StyleMap>
	<Style id="s_ylw-pushpin">
		<IconStyle>
			<scale>1.1</scale>
			<Icon>
				<href>http://maps.google.com/mapfiles/kml/pushpin/ylw-pushpin.png</href>
			</Icon>
			<hotSpot x="20" y="2" xunits="pixels" yunits="pixels"/>
		</IconStyle>
		<LineStyle>
			<color>d600ffff</color>
			<width>2.8</width>
		</LineStyle>
		<PolyStyle>
			<color>8affffaa</color>
		</PolyStyle>
	</Style>
	<Style id="s_ylw-pushpin_hl">
		<IconStyle>
			<scale>1.3</scale>
			<Icon>
				<href>http://maps.google.com/mapfiles/kml/pushpin/ylw-pushpin.png</href>
			</Icon>
			<hotSpot x="20" y="2" xunits="pixels" yunits="pixels"/>
		</IconStyle>
		<LineStyle>
			<color>d600ffff</color>
			<width>2.8</width>
		</LineStyle>
		<PolyStyle>
			<color>8affffaa</color>
		</PolyStyle>
	</Style>
	<Placemark>
		<name>मोगरणी_११९_243</name>
		<styleUrl>#m_ylw-pushpin</styleUrl>
		<Polygon>
			<tessellate>1</tessellate>
			<outerBoundaryIs>
				<LinearRing>
					<coordinates>
						74.11073928118429,21.25353055221271,0 74.11056373347836,21.25353150072808,0 74.11025843002243,21.25340890253042,0 74.11012809736208,21.25332681140491,0 74.10999846888339,21.2532033743066,0 74.11000175640822,21.25299660817619,0 74.11009137713822,21.25287216340294,0 74.11009462073173,21.25266569130645,0 74.11022858152317,21.25249993643751,0 74.11031867268289,21.25233453562923,0 74.11040870059165,21.25216925209447,0 74.11049805178266,21.25204524837716,0 74.11063109025923,21.25192107459841,0 74.11080719717772,21.25183785658847,0 74.11102639538224,21.2517955503324,0 74.11120238456225,21.25171237648917,0 74.11142254644166,21.25158790705886,0 74.11159838656866,21.25150480672469,0 74.11181785207833,21.25142149982738,0 74.11194987831391,21.25133869428931,0 74.11216966457715,21.25121442294534,0 74.11238933349395,21.25109021749826,0 74.11256438686317,21.25104827984113,0 74.11273981975452,21.25096537020731,0 74.11287155332109,21.25088272569948,0 74.11304686967534,21.25079987454534,0 74.1131792459023,21.25063543893684,0 74.11326793001408,21.25047135526519,0 74.11344406475307,21.25026606030596,0 74.11357614753899,21.25010200189354,0 74.11357749246568,21.24993876568757,0 74.11357917220451,21.24973488240902,0 74.11358051486106,21.24957190525856,0 74.11358185651197,21.24940904286416,0 74.11358386710131,21.2491649646485,0 74.11367212569665,21.24900191912102,0 74.11380345071636,21.24887935819249,0 74.11389126968393,21.24875709662778,0 74.11410902909208,21.24867476385652,0 74.1144998885085,21.24867265008877,0 74.11454331761732,21.24867241517972,0 74.11476046154718,21.24867124050987,0 74.11493482223769,21.24854861760572,0 74.11506568500299,21.24842629418464,0 74.1151966705235,21.24826353133804,0 74.1151974383924,21.2481015872101,0 74.11524156580717,21.24793952221494,0 74.11532900644593,21.24777733647713,0 74.1154597145262,21.24761503008923,0 74.11554701621733,21.24745307171808,0 74.1156775559659,21.24729099285891,0 74.11572143619985,21.24712949621453,0 74.11585182222591,21.24696764432612,0 74.115938863664,21.24680613996011,0 74.11602584389964,21.24664474869637,0 74.11611276275467,21.24648347012965,0 74.11624282808091,21.24632207074185,0 74.11628641757292,21.24616125200093,0 74.1164163306367,21.24600007808857,0 74.11654607992099,21.24587909600939,0 74.11667582239738,21.24571811940584,0 74.11676233808154,21.24555748830494,0 74.11680572270068,21.24535720804574,0 74.11689216687645,21.2451568684665,0 74.11689229340568,21.24503702867998,0 74.11693557176696,21.2448372022317,0 74.11702183030313,21.24467718609334,0 74.11702195341641,21.24451774834656,0 74.11710812118973,21.24435795491168,0 74.11719424466931,21.24415848659482,0 74.11728026819884,21.24407846804782,0 74.11736626324709,21.24391898024645,0 74.11749516419539,21.24375937103227,0 74.11758102399398,21.24360010497731,0 74.11770978964441,21.24348037889363,0 74.11788132792219,21.2432812071528,0 74.1179670667284,21.24320149353053,0 74.11813852156369,21.24308174222969,0 74.11830996843986,21.24300163288304,0 74.11843837518708,21.24288221788349,0 74.11852374225458,21.2427235596359,0 74.11860904990502,21.24256501194132,0 74.11860862014559,21.24240703852438,0 74.11856547021387,21.24228886270931,0 74.11847942987875,21.2421315458643,0 74.11843624735154,21.24197410517123,0 74.11847866142165,21.24181630979226,0 74.11860668976134,21.24169751232444,0 74.11882017346093,21.24157831223842,0 74.11907673917398,21.24157691945698,0 74.11920486305043,21.24153689020677,0 74.11941864920594,21.24153572913549,0 74.11963282749291,21.24161323954267,0 74.11980409704438,21.24165165607691,0 74.11993284646709,21.24172967111624,0 74.12010442376669,21.24180748047335,0 74.12027580861533,21.24184592934937,0 74.12044722324563,21.24188438524172,0 74.1206186676589,21.24192284759917,0 74.12079014185227,21.24196131642447,0 74.12100444765794,21.24199955879068,0 74.12121845670681,21.24199839396189,0 74.12143246580426,21.24199722883084,0 74.12168927679697,21.24199583027453,0 74.12198848892507,21.24195479172718,0 74.12220247961893,21.24195362560376,0 74.12237367228491,21.24195269248664,0 74.12263046151936,21.24195129244674,0 74.12288772960262,21.24198929792011,0 74.12314504278936,21.24202730955401,0 74.12331678187762,21.24206579463058,0 74.12349014525167,21.24222260510624,0 74.12357741134763,21.2423405184535,0 74.1239200958409,21.24233864744255,0 74.12409143811125,21.242337711651,0 74.12434905799527,21.24237578124174,0 74.12456388000082,21.24241409117047,0 74.12477809567169,21.24241292032356,0 74.12507799753735,21.24241128063943,0 74.12529221367231,21.24241010907733,0 74.12550643001492,21.24240893721716,0 74.12567780343932,21.24240799951331,0 74.12589350178116,21.24248580731594,0 74.12606641679905,21.24256387649331,0 74.12615442483708,21.24268196911308,0 74.12632823999745,21.24279965416068,0 74.12650135202985,21.24287783165885,0 74.12659033773028,21.2430356771796,0 74.12684775701405,21.24303426711128,0 74.12719098349369,21.24303238636749,0 74.12744840370384,21.24303097532133,0 74.12783453530211,21.24302885796337,0 74.12804905317566,21.24302768124632,0 74.12839324188869,21.24306539332881,0 74.12860777928327,21.24306421577203,0 74.12878040299456,21.24310287567803,0 74.1290378708744,21.24310146184986,0 74.12916660500504,21.2431007547789,0 74.12938116185236,21.24309957609662,0 74.1295528081816,21.24309863293833,0 74.12972445475087,21.24309768959403,0 74.12993901257326,21.24309651015606,0 74.13011065969832,21.24309556639313,0 74.13024163640502,21.24317408231523,0 74.13041558604247,21.243252389362,0 74.13063021992126,21.24325120868148,0 74.13084485519562,21.24325002770654,0 74.13106068241163,21.2432884821708,0 74.13123240605128,21.24328753689117,0 74.13140657545112,21.24336588272947,0 74.13158328213228,21.24352360313144,0 74.13171839568342,21.24372138062234,0 74.1318940847133,21.243839609274,0 74.13198515180417,21.24399813283308,0 74.13207499810341,21.24411697897045,0 74.13216618341963,21.24427569581618,0 74.13217135288787,21.24443499735339,0 74.13217781992786,21.24463427987666,0 74.13213992452197,21.24479406856313,0 74.13214509098403,21.24495373091423,0 74.13215026118053,21.24511350525664,0 74.13215543509742,21.24527339114978,0 74.13212006082674,21.24551366625544,0 74.13216709001632,21.24563354232974,0 74.1322167445316,21.2458336333252,0 74.13222195037631,21.24599402235231,0 74.132313565416,21.24615404853504,0 74.13232012062171,21.24635483300352,0 74.13241184184687,21.24651511141611,0 74.13254687985948,21.24667526424374,0 74.13259547925193,21.24683600536694,0 74.13268739458915,21.24699662115748,0 74.13277937575967,21.24715734964908,0 74.13282810770022,21.2473184294859,0 74.1329635309653,21.24747914554236,0 74.13305570710806,21.2476402128978,0 74.13306399335144,21.24788274183119,0 74.13307090543458,21.24808504456512,0 74.13307920820287,21.248328042527,0 74.13308474840665,21.24849018378778,0 74.13309167931315,21.24869302076245,0 74.13318414473571,21.24885494117969,0 74.13323320268989,21.2490172146443,0 74.13328510538582,21.24926095904694,0 74.13324862188773,21.24946471465307,0 74.13321210532507,21.24966864989892,0 74.1331755566426,21.24987276495355,0 74.13309401140253,21.25003647383855,0 74.13305460477132,21.25015921169064,0 74.13297296642926,21.2503231227641,0 74.1329348818891,21.25048691023888,0 74.13294177817315,21.25069150811096,0 74.13294729972948,21.25085531670632,0 74.13295420734352,21.25106024052469,0 74.13295973797446,21.2512243101734,0 74.13305266806596,21.25138801665778,0 74.13305963092014,21.25159341255869,0 74.13315267020391,21.2517573806822,0 74.13320202854706,21.25192170504828,0 74.133296600916,21.25212709464737,0 74.13338840807955,21.25225022392438,0 74.13352549387018,21.25241441839158,0 74.13361741976651,21.25253770073509,0 74.1338408500918,21.25266032816797,0 74.13397526179644,21.25274219618899,0 74.13415355615616,21.25282385294699,0 74.13433342541008,21.25294687353777,0 74.13455571718323,21.25302836251868,0 74.13469190910018,21.25315173321145,0 74.13487049196745,21.25323353540788,0 74.13504756293104,21.25327396622979,0 74.13522625789854,21.25335581230627,0 74.13540179985543,21.25335484933018,0 74.1356244847442,21.25343648323936,0 74.13584724881788,21.25351814650721,0 74.13602451988611,21.25355862767433,0 74.1362474172678,21.25364033418612,0 74.13646698539019,21.25363912922719,0 74.13669000198777,21.25372086485542,0 74.13691135567166,21.25376114082979,0 74.13708705841557,21.25376017633621,0 74.13726631531516,21.25384219618775,0 74.13744205034934,21.25384123138809,0 74.13766715730611,21.25396455748558,0 74.1379766188236,21.25400439352358,0 74.13806636797686,21.25404544366751,0 74.1382459128008,21.25412756595997,0 74.13842552434288,21.25420971728929,0 74.13856122138156,21.25429213978551,0 74.13874095250969,21.25437434991003,0 74.13891882196445,21.25441498297409,0 74.13910061138012,21.25453885893802,0 74.13924044006782,21.25470469405629,0 74.13933633643583,21.25487088961485,0 74.13934420234813,21.25503768775366,0 74.13930800758837,21.25520484703124,0 74.1391816725651,21.2553308393546,0 74.13896515695858,21.25541559702852,0 74.13883675002293,21.2554999012281,0 74.13866228929322,21.25554266927352,0 74.13844180764166,21.25554387857402,0 74.13826542407472,21.25554484590937,0 74.13804494378721,21.25554605496384,0 74.13778036922861,21.25554750564446,0 74.13746809852246,21.25546560354204,0 74.13733583597121,21.25546632861798,0 74.13720179669542,21.25542526762618,0 74.13702018128997,21.25530092111567,0 74.13688621898248,21.25525988964269,0 74.1366624258939,21.2551776074937,0 74.13644212956177,21.25517881497156,0 74.13612867610338,21.25505532538615,0 74.13603890987885,21.25501409646045,0 74.13581869434191,21.25501530327527,0 74.1356425217798,21.25501626862729,0 74.13546634962999,21.25501723388765,0 74.13524293641557,21.2549350390448,0 74.13506521325722,21.25489431431734,0 74.13488752332873,21.25485359682709,0 74.13470831355059,21.25477121942366,0 74.13452916833205,21.2546888711683,0 74.13434856950533,21.25456492224211,0 74.13425604283918,21.25444055756091,0 74.1340331282954,21.2543585683899,0 74.13381176408271,21.25431818675468,0 74.13363586367711,21.25431915009287,0 74.13345996362987,21.25432011333376,0 74.133240089819,21.25432131724397,0 74.13297484724418,21.2542811828643,0 74.13288690519126,21.25428166428761,0 74.13266705243151,21.25428286772823,0 74.13248981917292,21.25424225875117,0 74.13222602021972,21.25424370244396,0 74.1320501543193,21.25424466478543,0 74.13183032313955,21.25424586757068,0 74.13156525792161,21.25420574647428,0 74.13147733287374,21.25420622744563,0 74.13121356018301,21.25420767020171,0 74.13099375044789,21.25420887232822,0 74.13081790238391,21.25420983392251,0 74.13064205460391,21.25421079541889,0 74.13042224602238,21.2542119971476,0 74.13024639886436,21.25421295842376,0 74.13002546074081,21.25417260219952,0 74.12984740133145,21.25409046992863,0 74.12967160216766,21.25409143068988,0 74.12949363833827,21.25400932773854,0 74.1293157393538,21.25392725372817,0 74.12909606963029,21.25392845396157,0 74.12891930355957,21.25388790776206,0 74.12865371169725,21.25380635730296,0 74.12847703305832,21.25376583265767,0 74.1283452794741,21.25376655225303,0 74.12816768135642,21.25368456502192,0 74.12794718872091,21.25364430160903,0 74.12777063709599,21.25360380584031,0 74.12750722537541,21.25360524394761,0 74.12728771577979,21.25360644219489,0 74.12711210811815,21.25360740067839,0 74.12689259905221,21.25360859863718,0 74.12658528723118,21.25361027550817,0 74.12640968028602,21.25361123358157,0 74.12614627068119,21.25361267049685,0 74.12592676278729,21.2536138677511,0 74.12575115694696,21.25361482543769,0 74.12553164948231,21.253616022404,0 74.1253560434736,21.25361697986302,0 74.12518043810498,21.25361793721701,0 74.12500483237157,21.25361889447143,0 74.12478532563821,21.25362009089431,0 74.1245658191001,21.25362128715744,0 74.12430241169953,21.25362272246136,0 74.12408290580943,21.25362391837191,0 74.12386339983577,21.25362511412425,0 74.12364389401961,21.25362630971708,0 74.12338048718536,21.25362774421825,0 74.12316098193405,21.25362893945894,0 74.12289757545147,21.25363037353932,0 74.12263416938872,21.25363180738894,0 74.12236987226298,21.25355034855571,0 74.122193869957,21.25350986877341,0 74.12188624316423,21.25347011243156,0 74.12153516093515,21.25347202235902,0 74.1212279641163,21.25347369320713,0 74.12092045137587,21.25343394294446,0 74.12078880740502,21.25343465872808,0 74.12056883152427,21.25335303117584,0 74.1203494640875,21.25335422364856,0 74.12013009666417,21.25335541595879,0 74.1199107292141,21.25335660810675,0 74.11964748830479,21.25335803846974,0 74.11947199435397,21.25335899191519,0 74.11929650038881,21.25335994525676,0 74.11912100640471,21.2533608984945,0 74.11881389181052,21.25336256641106,0 74.11859430732233,21.25328096473346,0 74.11837497874127,21.25328215552698,0 74.1181117845542,21.2532835842628,0 74.11789245581315,21.25328477469751,0 74.11762926115823,21.25328620300424,0 74.1174099322138,21.25328739308037,0 74.11719060341238,21.25328858299223,0 74.11688354244413,21.25329024859767,0 74.1166203474147,21.25329167600396,0 74.11640101790456,21.25329286533109,0 74.1161816882463,21.25329405449553,0 74.11596235843098,21.25329524349732,0 74.11569901293659,21.2533380643146,0 74.11547932457766,21.25342206386686,0 74.11525993551219,21.25342325269968,0 74.11508442441976,21.2534242036485,0 74.11490847218904,21.25350799508481,0 74.11468904345504,21.25350918373659,0 74.11446909550766,21.2535932430758,0 74.1142496271701,21.25359443164763,0 74.11398626505205,21.2535958577236,0 74.11385458386046,21.25359657067603,0 74.1135912212024,21.25359799640988,0 74.11341564555383,21.25359894677426,0 74.11315228225476,21.25360037212819,0 74.11297670616447,21.25360132223936,0 74.11280113038944,21.2536022722466,0 74.11258251578492,21.25352058667536,0 74.11227531148847,21.25352224837832,0 74.11214411936024,21.25348153507412,0 74.11179305969144,21.25348343342411,0 74.11152976312596,21.25348485692532,0 74.11113481883358,21.25348699173847,0 74.11091540516493,21.25348817752081,0 74.11073987336204,21.25348912603519,0 74.11073928118429,21.25353055221271,0 
					</coordinates>
				</LinearRing>
			</outerBoundaryIs>
		</Polygon>
		<atom:link rel="app" href="https://www.google.com/earth/about/versions/#earth-pro" title="Google Earth Pro 7.3.7.1094"></atom:link>
	</Placemark>
</Document>
</kml>
