<?xml version="1.0" encoding="UTF-8"?>
<kml xmlns="http://www.opengis.net/kml/2.2" xmlns:gx="http://www.google.com/kml/ext/2.2" xmlns:kml="http://www.opengis.net/kml/2.2" xmlns:atom="http://www.w3.org/2005/Atom">
<Document>
	<name>नगारे_२०_२७५.kml</name>
	<StyleMap id="m_ylw-pushpin">
		<Pair>
			<key>normal</key>
			<styleUrl>#s_ylw-pushpin</styleUrl>
		</Pair>
		<Pair>
			<key>highlight</key>
			<styleUrl>#s_ylw-pushpin_hl</styleUrl>
		</Pair>
	</StyleMap>
	<Style id="s_ylw-pushpin">
		<IconStyle>
			<scale>1.1</scale>
			<Icon>
				<href>http://maps.google.com/mapfiles/kml/pushpin/ylw-pushpin.png</href>
			</Icon>
			<hotSpot x="20" y="2" xunits="pixels" yunits="pixels"/>
		</IconStyle>
		<LineStyle>
			<color>d600ffff</color>
			<width>2.8</width>
		</LineStyle>
		<PolyStyle>
			<color>8affffaa</color>
		</PolyStyle>
	</Style>
	<Style id="s_ylw-pushpin_hl">
		<IconStyle>
			<scale>1.3</scale>
			<Icon>
				<href>http://maps.google.com/mapfiles/kml/pushpin/ylw-pushpin.png</href>
			</Icon>
			<hotSpot x="20" y="2" xunits="pixels" yunits="pixels"/>
		</IconStyle>
		<LineStyle>
			<color>d600ffff</color>
			<width>2.8</width>
		</LineStyle>
		<PolyStyle>
			<color>8affffaa</color>
		</PolyStyle>
	</Style>
	<Placemark>
		<name>नगारे_२०_२७५</name>
		<styleUrl>#m_ylw-pushpin</styleUrl>
		<Polygon>
			<tessellate>1</tessellate>
			<outerBoundaryIs>
				<LinearRing>
					<coordinates>
						73.95250010359874,21.34726178981383,0 73.95250679602367,21.34721331132089,0 73.95268303027258,21.34708657256256,0 73.95286595596873,21.34691135541184,0 73.95309424108994,21.34679084845529,0 73.95321172861854,21.34670635604789,0 73.95344001213542,21.34658584900178,0 73.95360955082187,21.34650758853834,0 73.95374042163124,21.34632613956405,0 73.95387129060437,21.34614469054399,0 73.95400215890881,21.34596324178363,0 73.95433454122411,21.34585519858673,0 73.95465353835243,21.34584411105828,0 73.95498591650357,21.34573606683729,0 73.95541570283058,21.34568896315016,0 73.955623905081,21.34571388892276,0 73.95583879768438,21.34569033644677,0 73.95600163914666,21.34566055258199,0 73.95622322138361,21.34558852177317,0 73.95648347137512,21.34561967761348,0 73.95670505234963,21.34554764647807,0 73.95698537185795,21.34543336821167,0 73.95731774023616,21.34532532070693,0 73.9575393187648,21.34525328882862,0 73.95770884688828,21.34517502581958,0 73.95798247398739,21.34510922436028,0 73.95811333078377,21.34492777501891,0 73.95828954695732,21.34480103412365,0 73.95851781194207,21.34468052371298,0 73.95874607554885,21.34456001308189,0 73.95887024127151,21.34442704130934,0 73.9590531442804,21.34425182236163,0 73.9591319498474,21.34406414245813,0 73.95916539526269,21.34382175441608,0 73.95914010259074,21.3436216133879,0 73.95911481047119,21.34342147232791,0 73.9590895177144,21.34322133110886,0 73.95901217741998,21.34301495934002,0 73.95903893323866,21.34282104860747,0 73.95906568887858,21.34262713790325,0 73.95914449224836,21.34243945762452,0 73.95922329528297,21.34225177745978,0 73.95930209862495,21.34206409713289,0 73.9594329492563,21.34188264753562,0 73.95960915837787,21.34175590608073,0 73.95979205547144,21.3415806867976,0 73.95981212087609,21.3414352534169,0 73.95994296980427,21.34125380323218,0 73.96007381766057,21.34107235301883,0 73.96025671335255,21.34089713326285,0 73.96043960782183,21.34072191322068,0 73.96057045417237,21.34054046252727,0 73.96075334814394,21.34036524180713,0 73.96098159966789,21.34024472937879,0 73.96120316337566,21.34017269435702,0 73.96143141376758,21.34005218127798,0 73.96160092938321,21.33997391585559,0 73.96177713238669,21.33984717186244,0 73.9619079761367,21.33966571996829,0 73.96214291262532,21.33949672775984,0 73.96233248903459,21.33927302709386,0 73.96240459733406,21.33913382241338,0 73.96258079812895,21.33900707761653,0 73.9628090451039,21.33888656234413,0 73.96293988637382,21.33870510873404,0 73.9631614447394,21.33863307070101,0 73.96338300324423,21.3385610330672,0 73.96361124786769,21.33844051599192,0 73.96383949260391,21.33831999858062,0 73.96415176763452,21.33835737435907,0 73.96441199687122,21.33838852027763,0 73.96473764488587,21.33832893794185,0 73.96495251442474,21.33830537610164,0 73.9651220246579,21.33822710599013,0 73.96534358071345,21.33815506447911,0 73.96557182262306,21.33803454410609,0 73.96574133212744,21.33795627314838,0 73.96591752767162,21.33782952412195,0 73.96613908231991,21.33775748116626,0 73.96626991838761,21.33757602381828,0 73.9666022492234,21.33746795890066,0 73.96683048906817,21.33734743600316,0 73.96710408797379,21.33728161949989,0 73.96727359584798,21.33720334630413,0 73.96750852079956,21.33703434395738,0 73.96778880459804,21.33692004704164,0 73.96785422154868,21.3368293171546,0 73.9680304143664,21.33670256450773,0 73.96825865229391,21.33658203853565,0 73.96848688995712,21.33646151205228,0 73.96865639670609,21.3363832366305,0 73.96888463385224,21.33626270993402,0 73.96910618533681,21.33619066121219,0 73.96923033202395,21.33605767826366,0 73.96946525402352,21.33588867091238,0 73.96968680506185,21.33581662093609,0 73.96991504130185,21.33569609110891,0 73.97012990676909,21.3356725196321,0 73.97035145751073,21.33560046830548,0 73.97053433349383,21.33542523136283,0 73.97075588398313,21.33535317912328,0 73.97083466968823,21.33516548722239,0 73.97096550017,21.33498402226247,0 73.97109633060126,21.33480255617781,0 73.97122047570166,21.33466957025453,0 73.97135130588096,21.33448810335175,0 73.9714754508752,21.33435511607274,0 73.97169700062021,21.33428306127482,0 73.97189181034898,21.33440492652097,0 73.9720799354123,21.33457527139611,0 73.97222270060215,21.33469090971561,0 73.97230005124136,21.33489728097242,0 73.97227331163158,21.33509120049266,0 73.97235066243316,21.33529757174363,0 73.97242801351722,21.33550394194521,0 73.9725640949501,21.33566805877659,0 73.97249199500267,21.33580727166554,0 73.9723091196369,21.33598251119456,0 73.9721849742246,21.33611549749894,0 73.97214486490181,21.33640637309975,0 73.9720660797296,21.33659406414732,0 73.97204602497419,21.33673950182932,0 73.9721233764937,21.3369458700481,0 73.97209663688439,21.33713978647022,0 73.97222603442803,21.3373523802112,0 73.97230338639554,21.33755874823584,0 73.97238073851605,21.33776511527413,0 73.97252350660806,21.33788075098292,0 73.97265958986146,21.3380448653022,0 73.9728477194861,21.33821520519809,0 73.97298380350014,21.3383793182744,0 73.97323066482051,21.3385074044332,0 73.97341879577388,21.33867774326174,0 73.97356156536489,21.33879337746266,0 73.97369096656486,21.3390059682324,0 73.97366422849399,21.33919988287649,0 73.97373489886128,21.33945472624966,0 73.97375352305151,21.33970334453057,0 73.97377883194012,21.33990348338017,0 73.9738041405495,21.34010362270833,0 73.9738294496145,21.34030376156967,0 73.97379602743074,21.34054615311465,0 73.97376260524182,21.340788544406,0 73.97378123010481,21.34103716102046,0 73.97375449240488,21.34123107364266,0 73.97377980183128,21.34143121204614,0 73.97380511142018,21.34163134999052,0 73.9738304208289,21.34183148778788,0 73.97395982546018,21.34204407662678,0 73.97403718273826,21.34225043975304,0 73.97416658788484,21.34246302827155,0 73.97425063002068,21.34262091344521,0 73.97438672077448,21.34278502372443,0 73.9744640789922,21.34299138643944,0 73.97459348571294,21.3432039746831,0 73.97467084516806,21.34341033748377,0 73.97474820494149,21.34361670005482,0 73.97483224905568,21.34377458471127,0 73.97490960880508,21.34398094712187,0 73.97487618866698,21.3442233368913,0 73.97479740443455,21.34441102321839,0 73.9746665713164,21.34459248412557,0 73.97449037397833,21.34471924132672,0 73.97436622464191,21.3448522238961,0 73.97423539158919,21.34503368413974,0 73.97410455772676,21.34521514422666,0 73.97392835966602,21.34534190066118,0 73.97379752538453,21.34552336034709,0 73.97351722981033,21.34563766459824,0 73.97339307973364,21.34577064615063,0 73.97316483233485,21.34589117562639,0 73.9729432693085,21.34596322702064,0 73.97277375445358,21.34604150420537,0 73.97255219126089,21.34611355504218,0 73.97233062798091,21.3461856055725,0 73.9721544282914,21.34631235978502,0 73.97192617981871,21.34643288746793,0 73.97170461607314,21.34650493711493,0 73.97147636714254,21.34662546416888,0 73.97130685162024,21.34670373979675,0 73.97117601390931,21.34688519713492,0 73.97099981278386,21.34701195006916,0 73.97082361123277,21.34713870289788,0 73.97054999774764,21.34720452432934,0 73.97032174712548,21.34732504987214,0 73.97015891576292,21.34735484687658,0 73.96998271336206,21.34748159874195,0 73.96975446191078,21.34760212359452,0 73.96959163017176,21.34763192009583,0 73.96941542688502,21.34775867144716,0 73.96919386041068,21.34783071814678,0 73.96896560778106,21.347951241916,0 73.96874404073171,21.34802328810433,0 73.96861319885234,21.34820474379202,0 73.96848235657269,21.3483861994639,0 73.96835151394325,21.34856765513366,0 73.96812994552393,21.34863970072989,0 73.96790837685546,21.34871174609451,0 73.96770018086372,21.34868683577742,0 73.9674852984307,21.3487104026123,0 73.967270415832,21.34873396955613,0 73.96705553310761,21.34875753626869,0 73.96688601238849,21.34883580829024,0 73.96665775555414,21.34895632971929,0 73.96648154743578,21.34908307890015,0 73.96635070094555,21.34926453407554,0 73.96617449183395,21.34939128313986,0 73.96604364452499,21.34957273801141,0 73.96591279678148,21.34975419294206,0 73.96573658645086,21.34988094228839,0 73.96560573780994,21.35006239729277,0 73.9654295266251,21.35018914625089,0 73.96525331464719,21.35031589546405,0 73.96512246476136,21.35049735060719,0 73.96499161411342,21.35067880581253,0 73.9648607632442,21.350860261499,0 73.96482732415188,21.35110265141134,0 73.96480057265835,21.35129656409147,0 73.96476713320352,21.35153895452542,0 73.96458423004266,21.35171418255312,0 73.96434927603426,21.35188318158164,0 73.964127697574,21.3519552245102,0 73.96396485768111,21.35198501742131,0 73.96369791624407,21.35200235309345,0 73.96341759761232,21.35211664534956,0 73.9632547565981,21.3521464378054,0 73.9630264873859,21.35226695774897,0 73.96273947744686,21.35242972806318,0 73.96251120649902,21.35255024855401,0 73.96228293520737,21.35267076834337,0 73.96205466248323,21.35279128869452,0 73.96193049178788,21.35292426693508,0 73.96185168311609,21.35311195238459,0 73.96166877080324,21.35328718079124,0 73.96153790920346,21.3534686376717,0 73.96140704693082,21.35365009546267,0 73.9612761846673,21.35383155356018,0 73.961145321316,21.35401301114741,0 73.96106650913489,21.35420069871995,0 73.96103305918615,21.35444309430355,0 73.96090219478886,21.35462455354435,0 73.96081669128206,21.35486072083868,0 73.96073118773491,21.35509688936478,0 73.96071111680492,21.35524232815973,0 73.9606323029648,21.35543001707837,0 73.9604560726501,21.35555676888603,0 73.96042262005459,21.35579916733359,0 73.96029175193327,21.35598062880205,0 73.96026498917585,21.35617454883542,0 73.96018617253594,21.35636224003325,0 73.96004861215438,21.35659218140647,0 73.96002184846043,21.35678610260823,0 73.95983892295655,21.35696133662211,0 73.95971474251225,21.35709431973813,0 73.95953850730614,21.35722107378479,0 73.95936896239988,21.35729934589542,0 73.95914736354374,21.35737139022041,0 73.95901648875781,21.35755285461907,0 73.95893766802587,21.35774054874399,0 73.95885884626405,21.35792824320138,0 73.95883207902892,21.35812216740909,0 73.95875325728802,21.35830986140137,0 73.95867443491488,21.35849755717934,0 73.95864766682115,21.3586914826533,0 73.95862089851177,21.358885408557,0 73.95854207444543,21.35907310557029,0 73.95850861353109,21.35931551276042,0 73.95842978919106,21.35950321085929,0 73.9583509638,21.35969090934697,0 73.95827213854132,21.35987860837155,0 73.95823867603025,21.3601210180194,0 73.95810779354574,21.36030248879208,0 73.95773001594938,21.36035584854365,0 73.95752179102668,21.36033093111041,0 73.95705328498967,21.36027486653818,0 73.95689711603934,21.36025617820661,0 73.9567677201007,21.36004355992322,0 73.95680118675681,21.35980114969306,0 73.95682795996392,21.35960722094503,0 73.95685473293337,21.35941329265919,0 73.95672533823058,21.35920067619502,0 73.9566413061457,21.3590427714227,0 73.95655727479202,21.35888486690438,0 73.9564211873009,21.35872073424202,0 73.95634384838495,21.35851434831916,0 73.95632525997915,21.35826571117174,0 73.95624792125386,21.35805932606243,0 73.95616389059953,21.35790142268729,0 73.95619735649564,21.35765901798939,0 73.95612001919547,21.3574526340498,0 73.95604268083382,21.35724625027433,0 73.95596534377975,21.35703986693888,0 73.9559988092164,21.35679746423934,0 73.95602558144783,21.3566035414146,0 73.9559482444547,21.35639715915213,0 73.95592296141442,21.35619700703148,0 73.95589767832871,21.35599685523133,0 73.95582034134132,21.3557904751831,0 73.95574300346172,21.35558409387321,0 73.95567235979618,21.3553292327866,0 73.95570582410686,21.35508683300544,0 73.95573928814149,21.35484443305256,0 73.95577275171335,21.35460203428012,0 73.95579952238192,21.35440811506767,0 73.95582629281643,21.35421419616075,0 73.95574895603207,21.35400781783571,0 73.95577572619943,21.35381389948963,0 73.95569838828291,21.35360752145689,0 73.95562105173127,21.35340114304913,0 73.95558907537608,21.35324947444579,0 73.9554596851075,21.35303686655381,0 73.9554864549512,21.35284294938311,0 73.95541581092587,21.35258809307363,0 73.95533847345577,21.35238171531861,0 73.95531319059182,21.35218156911847,0 73.95523585320157,21.35197519163787,0 73.95515851706077,21.35176881440219,0 73.95503581994514,21.35150772825656,0 73.95500384367742,21.35135606074777,0 73.95503730498278,21.35111366713254,0 73.95495996895312,21.35090729036725,0 73.9548893239046,21.35065243546396,0 73.95491609260414,21.35045852062131,0 73.95488411732492,21.35030685379113,0 73.95480678005568,21.35010047792062,0 73.9546773913423,21.3498878704629,0 73.95454800273569,21.34967526291074,0 73.95447066685421,21.34946888715069,0 73.9543345862924,21.3493047579718,0 73.954146453023,21.3491343976361,0 73.95406911742489,21.34892802132041,0 73.95410257801312,21.34868562927659,0 73.95413603823253,21.34844323744297,0 73.95416949808474,21.34820084580784,0 73.95420295757138,21.34795845435948,0 73.95385866947205,21.34776939880448,0 73.95366384510152,21.34764751542529,0 73.95346232853403,21.34757411009245,0 73.95315670772692,21.34748824078562,0 73.95294849823614,21.34746331312126,0 73.9526949290314,21.34738367512267,0 73.95254546405526,21.34731650045716,0 73.95250010359874,21.34726178981383,0 
					</coordinates>
				</LinearRing>
			</outerBoundaryIs>
		</Polygon>
		<atom:link rel="app" href="https://www.google.com/earth/about/versions/#earth-pro" title="Google Earth Pro 7.3.7.1094"></atom:link>
	</Placemark>
</Document>
</kml>
