<?xml version="1.0" encoding="UTF-8"?>
<kml xmlns="http://www.opengis.net/kml/2.2" xmlns:gx="http://www.google.com/kml/ext/2.2" xmlns:kml="http://www.opengis.net/kml/2.2" xmlns:atom="http://www.w3.org/2005/Atom">
<Document>
	<name>Nagjhari Man Made.kml</name>
	<StyleMap id="msn_ylw-pushpin">
		<Pair>
			<key>normal</key>
			<styleUrl>#sn_ylw-pushpin</styleUrl>
		</Pair>
		<Pair>
			<key>highlight</key>
			<styleUrl>#sh_ylw-pushpin</styleUrl>
		</Pair>
	</StyleMap>
	<Style id="sh_ylw-pushpin">
		<IconStyle>
			<scale>1.3</scale>
			<Icon>
				<href>http://maps.google.com/mapfiles/kml/pushpin/ylw-pushpin.png</href>
			</Icon>
			<hotSpot x="20" y="2" xunits="pixels" yunits="pixels"/>
		</IconStyle>
		<BalloonStyle>
		</BalloonStyle>
		<LineStyle>
			<color>c77fffaa</color>
		</LineStyle>
		<PolyStyle>
			<color>73ff3a72</color>
		</PolyStyle>
	</Style>
	<Style id="sn_ylw-pushpin">
		<IconStyle>
			<scale>1.1</scale>
			<Icon>
				<href>http://maps.google.com/mapfiles/kml/pushpin/ylw-pushpin.png</href>
			</Icon>
			<hotSpot x="20" y="2" xunits="pixels" yunits="pixels"/>
		</IconStyle>
		<BalloonStyle>
		</BalloonStyle>
		<LineStyle>
			<color>c77fffaa</color>
		</LineStyle>
		<PolyStyle>
			<color>73ff3a72</color>
		</PolyStyle>
	</Style>
	<Placemark>
		<name>Nagjhari Man Made</name>
		<styleUrl>#msn_ylw-pushpin</styleUrl>
		<Polygon>
			<tessellate>1</tessellate>
			<outerBoundaryIs>
				<LinearRing>
					<coordinates>
						74.50557027915713,21.75577879845724,0 74.50583100612887,21.75608979019125,0 74.50593934444633,21.75618326743954,0 74.50626781219384,21.75649544939547,0 74.50631270702594,21.75662057173377,0 74.50636345037991,21.75680852871375,0 74.50659903909256,21.75718544812086,0 74.50661373895225,21.75734288311604,0 74.50677264032637,21.75832417346609,0 74.50706316720229,21.75875586955221,0 74.50766304518373,21.75966045360754,0 74.50767185925717,21.75974567451972,0 74.5086979112273,21.76100378569148,0 74.50871032579097,21.76111893299541,0 74.50872897406364,21.76129189646738,0 74.508750770603,21.76149405628179,0 74.50879449390855,21.76189957088909,0 74.50881015159693,21.7620447849539,0 74.50880618977789,21.76230668834465,0 74.50880536118413,21.76259847278611,0 74.50883840842987,21.76350826800245,0 74.50884156931777,21.76353774913537,0 74.50882497173204,21.76368528290976,0 74.50897135939785,21.76505249093794,0 74.50888623461239,21.76517222777068,0 74.50880101255308,21.7652921014762,0 74.50871569305087,21.76541211229252,0 74.50857000289959,21.76589353722201,0 74.50795880447394,21.76665019015183,0 74.50787551987356,21.76680217567957,0 74.50771710752988,21.76686302594911,0 74.50698318218708,21.7674428854897,0 74.50682989626681,21.76756536614683,0 74.50670655784832,21.76765731897277,0 74.50610435633479,21.76793364147751,0 74.50597486088526,21.76796438428421,0 74.50591430585658,21.76802590889661,0 74.50575441253579,21.76808746270474,0 74.50549234981317,21.76811824086575,0 74.5047414751583,21.76824145957901,0 74.50447908190888,21.76827228055809,0 74.50431859132236,21.76833397539883,0 74.50412486077424,21.76839570309795,0 74.50406110555078,21.76842658277506,0 74.5032727329005,21.7685192282828,0 74.50310690132517,21.76851921493609,0 74.5029410719645,21.76851920147272,0 74.50280840716538,21.76851919061777,0 74.50260941231025,21.76851917419532,0 74.50197479258965,21.76845730805312,0 74.50184216959767,21.7684572967331,0 74.50168078160533,21.7685190953334,0 74.50107117728545,21.7683337129642,0 74.50076471832078,21.76821031301904,0 74.500402449148,21.76824111044811,0 74.5001414232695,21.76830277280107,0 74.49984903358457,21.76839534202667,0 74.49874687777569,21.76882841688538,0 74.4989174190098,21.76833351379665,0 74.49883224753623,21.76858067749332,0 74.49815726693828,21.77083131604673,0 74.4980969871483,21.77095774647116,0 74.49803663564725,21.77108432571118,0 74.49785681717255,21.77149674127562,0 74.49770671509609,21.77184694546425,0 74.49767630818545,21.77191074083558,0 74.49758335438787,21.77207039210738,0 74.49743080114773,21.77239040815222,0 74.49718105644523,21.77280784141427,0 74.49712120610062,21.77296882666933,0 74.49706126607786,21.77313005127425,0 74.49693957969592,21.77342085802711,0 74.49672621938436,21.77393977649395,0 74.49666571625806,21.77410244777269,0 74.4965680826063,21.77420015797588,0 74.49650738975357,21.77436321831652,0 74.49641397501424,21.77455920986213,0 74.49620255834577,21.77518219039614,0 74.49617123023383,21.77524797281987,0 74.49610851831883,21.77537965576718,0 74.49604573102175,21.77551149701909,0 74.49591712291713,21.77570955079301,0 74.49560137608013,21.77637233811936,0 74.4955696963507,21.77643883737559,0 74.49547588491677,21.77667190260237,0 74.49521864965701,21.77713950351831,0 74.49522126239147,21.77720647236645,0 74.49512416716111,21.77737405419642,0 74.49509606613431,21.77754190238453,0 74.4949717623238,21.77791205560144,0 74.49493966969369,21.77797948753199,0 74.49487542666361,21.77811447494721,0 74.49474422276008,21.77831725739547,0 74.49447628697874,21.77858819395627,0 74.49374373569694,21.77957594625247,0 74.49357446647493,21.77998166809742,0 74.4935354117156,21.78003114160926,0 74.4935658818434,21.78010546553625,0 74.4928271524399,21.78057901821964,0 74.49281418124235,21.78060408600003,0 74.49278821708572,21.78065426420725,0 74.49276222345304,21.78070449935739,0 74.49266688498825,21.78119731581077,0 74.49264027636499,21.78123544973623,0 74.49261364462515,21.78127361632169,0 74.49257422015111,21.78135004934748,0 74.49253435614631,21.78141384286956,0 74.49250799374929,21.78146494409195,0 74.49244051989808,21.78154170220562,0 74.49242729661609,21.78156731872111,0 74.49229804043645,21.78195334487208,0 74.49228471519928,21.78197919787259,0 74.49223034615349,21.78204389276425,0 74.49217557579996,21.7820957142894,0 74.49210733719303,21.78217356049781,0 74.49183567154547,21.7826041486312,0 74.49180800911577,21.78263037571707,0 74.49176648546074,21.78266974485795,0 74.49173930595474,21.78272229432961,0 74.49113063517113,21.78369213883578,0 74.49111722849693,21.78375933154575,0 74.49107521611921,21.78382661861215,0 74.49103314194619,21.78389400460567,0 74.49100516274095,21.78394798567442,0 74.49092218805127,21.78421885599903,0 74.49089390290756,21.78425962202092,0 74.49086614123199,21.78435488944805,0 74.49079527790386,21.78446400188661,0 74.49073853745681,21.78455968824998,0 74.49025123833135,21.7853184642838,0 74.48960320002601,21.7866307315449,0 74.48927759450085,21.78706183572599,0 74.48909705215206,21.78733691544335,0 74.48908502090961,21.78736596572973,0 74.48905953171204,21.78740957259648,0 74.48900429405603,21.78745321224838,0 74.48890163461284,21.78746774647467,0 74.48841320506656,21.78765730872219,0 74.48822131158967,21.78784770035453,0 74.48815177508835,21.78790643258638,0 74.48790161321531,21.7879504785179,0 74.48757412267469,21.78796510696753,0 74.48749706942451,21.78793566695627,0 74.48731789035918,21.78774483277819,0 74.48728466618051,21.78770090407321,0 74.48716360383725,21.78748187822838,0 74.48630420467505,21.78774457615701,0 74.48623064477911,21.78775920612414,0 74.48570285814478,21.78790580678247,0 74.48562996770258,21.78793518913813,0 74.48554296204362,21.7879793023935,0 74.48548491423692,21.78800873365622,0 74.48535375402646,21.78806764654907,0 74.48533879736078,21.78806764269804,0 74.485016074526,21.78818567021608,0 74.48500109957396,21.78818566633861,0 74.48494197931522,21.78820043552192,0 74.48485441602524,21.78824479280605,0 74.48478251967093,21.78830401155591,0 74.48454478383768,21.78834842580462,0 74.48453050194009,21.78836325634077,0 74.48448691715717,21.7883929276216,0 74.48442899660067,21.78843747103507,0 74.4841366093262,21.78861604107565,0 74.48384129185911,21.78875038399025,0 74.48376778664799,21.78879525450737,0 74.48331889465868,21.78888504068797,0 74.48324399869719,21.78890002144663,0 74.48317010172271,21.78894503098767,0 74.48294608945274,21.78902011362166,0 74.48291588016845,21.78902010553886,0 74.48287056611312,21.78902009341655,0 74.48260291843937,21.78917065668588,0 74.4825730817947,21.78918573773988,0 74.48249865399693,21.78923101394616,0 74.4824393010196,21.7892763361039,0 74.48237989276527,21.78932170102775,0 74.48209650979393,21.7895187656869,0 74.4820513024676,21.78953395105383,0 74.48199155476554,21.78957955709613,0 74.48191623325256,21.78960997506984,0 74.48185637537014,21.78965565197428,0 74.48167505704201,21.78971659374475,0 74.48164490745951,21.78973184545887,0 74.48159980031389,21.78976236694844,0 74.48153970019254,21.78980818689444,0 74.48146455788404,21.78986934882469,0 74.4814193306114,21.78989995645315,0 74.48134496294178,21.79002260850163,0 74.48131489269628,21.79005331651119,0 74.48125447908764,21.79009941069237,0 74.48090369058217,21.79014546809827,0 74.48062877198574,21.79016078638585,0 74.48039953996059,21.79016072326191,0 74.48020092362454,21.79017606796095,0 74.48004810593108,21.79019142969248,0 74.4799411080966,21.79020680927978,0 74.47991053468303,21.79022221427632,0 74.47945219183578,21.79012968010886,0 74.4793758066473,21.79012965927123,0 74.47925418024101,21.7900373919787,0 74.47914376192249,21.79011489432929,0 74.47908386781279,21.79013025964657,0 74.47900987823029,21.79016102080288,0 74.47861859118487,21.7900378585235,0 74.4785727940573,21.79003784300419,0 74.47815661129783,21.78976201689198,0 74.477718396482,21.78957894388656,0 74.47767281569112,21.78957892881921,0 74.47758067851018,21.78956368527579,0 74.47751991346294,21.78956366521624,0 74.47747434010473,21.78956365017557,0 74.47707131032065,21.78942681623741,0 74.47699546239986,21.78942679140222,0 74.47691961500932,21.78942676657567,0 74.47659695408458,21.78935088204408,0 74.4765666392268,21.78935087216847,0 74.47650520359626,21.78933571039304,0 74.47644458319469,21.78933569066602,0 74.47601805569857,21.78929015615249,0 74.47595818435767,21.78930526382917,0 74.47588243401221,21.78930523926609,0 74.47518553702913,21.78930501365567,0 74.47515523760332,21.78930500386172,0 74.47508007160278,21.7893201116228,0 74.47471852967939,21.78938056918001,0 74.47465891933118,21.78941086542005,0 74.47461393181892,21.7894260159152,0 74.47455426102316,21.78945634048567,0 74.4744798656163,21.78950186752853,0 74.47441962539531,21.78951704145538,0 74.47426962959324,21.7895778132626,0 74.4742544374168,21.78957780832428,0 74.47414941033969,21.78962343924027,0 74.47411901199258,21.78962342934993,0 74.47404386178265,21.78965387219318,0 74.47366485729691,21.78969948565775,0 74.47361993805133,21.78972998591839,0 74.47354420485894,21.78974522564828,0 74.47351444948322,21.78977575949062,0 74.47292101360154,21.78979084543509,0 74.47287533884374,21.78979083059048,0 74.47279921428854,21.78979080585778,0 74.47270786505337,21.7897907761923,0 74.47234121717824,21.78966856106518,0 74.47197519246119,21.78950105948617,0 74.47183826776545,21.78944029157099,0 74.47170162656691,21.78940991433438,0 74.4716257124678,21.78937957550691,0 74.47130740556227,21.78921308173231,0 74.47108083975641,21.78904718761634,0 74.47103561016515,21.78901708474672,0 74.47100545528529,21.78900203775619,0 74.47094517369025,21.78897195823924,0 74.47067499194016,21.78874701413873,0 74.47061485918367,21.78873204170089,0 74.46999702364135,21.78876176021082,0 74.46995161712573,21.78877670888117,0 74.46984592378129,21.78879164295342,0 74.46977009479195,21.78882156773127,0 74.46961909854153,21.78883650196201,0 74.46955879767276,21.78883648313136,0 74.46951357213743,21.78883646901068,0 74.46930283648422,21.7888214218898,0 74.46928744484202,21.78883639843696,0 74.4692117384612,21.78885136040132,0 74.46894183504898,21.78879136107865,0 74.46882129062345,21.78879132355252,0 74.46876141878187,21.78877633796839,0 74.46862751211293,21.78871647413937,0 74.46850969617564,21.78862684287169,0 74.46803295541648,21.78849261604322,0 74.46795784898335,21.78849259285256,0 74.46778089817552,21.78840335922014,0 74.46776589070521,21.78840335459592,0 74.46770586118404,21.78840333610049,0 74.46763082457885,21.78840331298426,0 74.46712383446808,21.78832896726697,0 74.46698887321166,21.78832892578778,0 74.46687097879682,21.7882844311057,0 74.46678245336865,21.78825478768888,0 74.46663479126123,21.78821035209383,0 74.46648876152695,21.78813641526179,0 74.46620054018994,21.78793003270652,0 74.46615733432026,21.78790062141218,0 74.46596073755853,21.7876806505644,0 74.46586403644851,21.78754915909531,0 74.46579306584836,21.78749082626181,0 74.46566969933016,21.78731628243991,0 74.46562780490582,21.78727274303829,0 74.46550857849255,21.78704123608402,0 74.46537970235326,21.78673909746987,0 74.46536586173681,21.78672475563483,0 74.4653186504124,21.78631083335263,0 74.46530852831394,21.78623983310111,0 74.46529926433955,21.78592871123325,0 74.46558831907005,21.78574592027191,0 74.46556260713055,21.78568978629034,0 74.46536069392481,21.78520147968691,0 74.46533437013149,21.78515985946267,0 74.4652944779136,21.78510442232821,0 74.46517875702071,21.78488334624027,0 74.46513815330633,21.78484200600039,0 74.46505103015909,21.78463589073156,0 74.46501153070147,21.784581076669,0 74.46491055422884,21.78437611544375,0 74.46487029162576,21.78433522638378,0 74.46483198977958,21.78426716695634,0 74.46477939371185,21.78419920378293,0 74.46478344723904,21.78394191590109,0 74.46481410287767,21.78371293572548,0 74.464815061759,21.78369950165448,0 74.46482176601961,21.78360557344032,0 74.46482654631393,21.78353859987451,0 74.46485129082863,21.78319191331783,0 74.46483994584642,21.78315207618552,0 74.4648192866413,21.78284783211321,0 74.46482213276275,21.78280829970291,0 74.46490488353355,21.7824410025195,0 74.46499246028164,21.78199897841496,0 74.46499337534874,21.78198604277151,0 74.46507604564295,21.78180535415951,0 74.4650769467014,21.78179247422316,0 74.46523076104356,21.78158693698735,0 74.46524557877528,21.7815741237,0 74.46529260931159,21.78149730917804,0 74.46530913301279,21.78145894942283,0 74.46538898326872,21.78130584321222,0 74.46543789144577,21.78098851960779,0 74.46562684889471,21.78056782374894,0 74.46570721516403,21.78050565961107,0 74.46589744463583,21.78039707673471,0 74.46602682849084,21.78027324808572,0 74.46613813110399,21.7801960234922,0 74.46631358612727,21.78005731698326,0 74.4665213361185,21.7798729768704,0 74.46653809755273,21.77984231541963,0 74.46680797420746,21.77961301170668,0 74.46684051232785,21.77956727369252,0 74.4669848538442,21.77939994133737,0 74.46703308198633,21.7793392344606,0 74.46730041419264,21.77911228419089,0 74.46733192989117,21.77908210299559,0 74.46739551767182,21.77900672765195,0 74.46744268819015,21.77896156119022,0 74.46772422790501,21.77870641760176,0 74.46775603697219,21.77866152607337,0 74.46780287170472,21.7786166813441,0 74.46795972167271,21.77843770789825,0 74.46799702934666,21.7782296989171,0 74.46799754623073,21.77821487506424,0 74.46807856024375,21.77803736554528,0 74.46825032561475,21.77781642050551,0 74.46840279468982,21.77771368288755,0 74.46858600287113,21.77756728686929,0 74.46875615998609,21.77733394676646,0 74.46878704383603,21.77729032218733,0 74.46888103040364,21.77710173151832,0 74.4689605818274,21.77688504515129,0 74.46911352707806,21.77666936713544,0 74.46927955593519,21.7764975435355,0 74.46947381131426,21.77635485010762,0 74.46963811994114,21.77621257870829,0 74.46968291377209,21.77616997969947,0 74.46997968305659,21.77594345154507,0 74.47002439355724,21.77588698135045,0 74.47020166744862,21.77574612180073,0 74.4704372965894,21.77554962407891,0 74.47075904007166,21.77538188696025,0 74.47094867290943,21.77527038912946,0 74.47121053325326,21.77508975914061,0 74.47147149274298,21.77499282034751,0 74.47181047283671,21.77499645660303,0 74.47186478664737,21.77499469806321,0 74.47186674739105,21.77499292433286,0 74.47191308021949,21.77498762333621,0 74.47191670624736,21.77498585513252,0 74.47192201445439,21.77498408870472,0 74.47195810352311,21.77496648748779,0 74.47196505473563,21.77496473521892,0 74.47197055779348,21.77496123175762,0 74.472020113331,21.77494031912025,0 74.47202512300876,21.77494032067462,0 74.47207188019159,21.77494033518396,0 74.47208896283557,21.77493686952942,0 74.47212305664475,21.77492995273347,0 74.47214638655397,21.77492995995771,0 74.47217105753865,21.77493342887425,0 74.47220380404397,21.77494037614066,0 74.47220714390726,21.77494037717792,0 74.47224346956538,21.77494560406435,0 74.4722735603283,21.77494561342426,0 74.47231524054672,21.77494736737556,0 74.47233217725487,21.77494389189509,0 74.47239242422189,21.77494217208686,0 74.47241294156376,21.77493177262246,0 74.47246140951309,21.77492832872281,0 74.47246973913354,21.77492833130516,0 74.47248806432947,21.77492833698672,0 74.47250823516879,21.77492143981522,0 74.47253503053942,21.77491284583746,0 74.47253838626771,21.77491113001226,0 74.47255338569103,21.77490770449798,0 74.47257835204088,21.77490086618904,0 74.47259992761465,21.77489575077857,0 74.47262149566556,21.77487876060839,0 74.4726281078465,21.77487030821583,0 74.47263305367035,21.77486188443277,0 74.47266090355359,21.77484345901507,0 74.47267393903415,21.77483512984359,0 74.47269326421183,21.77481030669586,0 74.47270940292897,21.77480209153353,0 74.47271721948283,21.77478410791526,0 74.47272031286343,21.77477597766497,0 74.47272810833856,21.77476141301094,0 74.47273592326286,21.7747501464718,0 74.47274362975047,21.77473573799506,0 74.47274226283245,21.77471269523114,0 74.4727465994512,21.7746958300694,0 74.47273934019108,21.77467072154581,0 74.47271159013755,21.77463759465188,0 74.47267676497101,21.77461708881422,0 74.47265000593958,21.77458259464462,0 74.47266866243412,21.77457857281003,0 74.47271212096349,21.77457657553035,0 74.47271782646189,21.77457456716388,0 74.47272321510336,21.7745745689538,0 74.47273070987322,21.77457256274739,0 74.47278093465731,21.77456055872965,0 74.47280478679424,21.77455657175758,0 74.47282984914472,21.77455658005995,0 74.47287025401621,21.77456258802123,0 74.47287691433321,21.77456659414558,0 74.47289484989554,21.77456660010616,0 74.4729336089795,21.77457263021839,0 74.47293876432684,21.7745746406626,0 74.47294751743929,21.77457665387605,0 74.47295605197934,21.77458068180989,0 74.47300038416606,21.77458674562783,0 74.4730201880752,21.77458675225108,0 74.47306556565472,21.77458273319608,0 74.47306754794853,21.77458071904821,0 74.47310912229962,21.77455667276745,0 74.47311091256201,21.77455667336289,0 74.47311807357562,21.77455667574477,0 74.47314941809927,21.77454473712574,0 74.47318487555766,21.77452298109222,0 74.47318843338532,21.77452298226745,0 74.47320674006359,21.77451511695644,0 74.47323409815891,21.77450336278133,0 74.47326685244218,21.77448777058799,0 74.47327983057373,21.77447613315333,0 74.47331210329203,21.77446455350704,0 74.47334371418194,21.77442250155712,0 74.47338428586654,21.77440927279612,0 74.4733878881804,21.77440550297872,0 74.4734115882513,21.77436624477984,0 74.47344290037361,21.77435514526599,0 74.47344462284605,21.77435514581376,0 74.47346710873452,21.7743496162484,0 74.4734793406266,21.77433674759047,0 74.47349815988294,21.77434226241544,0 74.47352909411529,21.77436255560939,0 74.47358559276076,21.77436442647025,0 74.47361137567952,21.77435702866001,0 74.47365444665948,21.77435704193287,0 74.4736789486531,21.77435520138381,0 74.47372237083569,21.7743533679938,0 74.47375508161521,21.77435337807531,0 74.47379331693514,21.77436078503201,0 74.47381884701829,21.77436264505077,0 74.47382347068341,21.7743368378693,0 74.47383945918813,21.77432403571636,0 74.47386188428044,21.77431311618304,0 74.47389232751931,21.77431494329722,0 74.47391723614925,21.77428781971276,0 74.4739410320513,21.77427705547327,0 74.47395571071449,21.77426990442825,0 74.47397474090081,21.77424502515788,0 74.47400338914001,21.77424503377616,0 74.47403297664769,21.77425035447424,0 74.47405996847509,21.77425036260804,0 74.47408550387534,21.77424859843892,0 74.47412680133925,21.77425570585773,0 74.47413312906417,21.77425926279158,0 74.47415323811232,21.77427532903885,0 74.4741889793616,21.7742897021277,0 74.47420090033958,21.77427355396312,0 74.47422408125837,21.77427893345022,0 74.47424578821035,21.77428252806195,0 74.47426225991364,21.77428792468968,0 74.47429253732592,21.77429153474225,0 74.47431374360094,21.77430237460024,0 74.47435526628006,21.77431690431506,0 74.47438382061031,21.77432420286329,0 74.47442400795705,21.77433885779597,0 74.47448066380522,21.77433887530804,0 74.4745028144046,21.77434255600353,0 74.47455509319606,21.77437029578527,0 74.47457720291385,21.77438147663571,0 74.47457893411379,21.77438147717726,0 74.47462357542268,21.77439834367081,0 74.47463913625808,21.77440210858117,0 74.47466505159076,21.77441342976709,0 74.47468722532929,21.77446303830008,0 74.47469585210823,21.77448431371768,0 74.47471196659581,21.77443812709837,0 74.47473647530296,21.77438900296823,0 74.47475707570587,21.77433712589434,0 74.47476214304919,21.77432067187452,0 74.47476383453612,21.77431703001168,0 74.4747637864446,21.7743079468348,0 74.47478722768665,21.77426302115093,0 74.47479722632072,21.7742505853463,0 74.47479847829143,21.77421538311286,0 74.47480173795626,21.77420840282051,0 74.47481806958936,21.77418412669414,0 74.47482258590222,21.77415666718228,0 74.47482246719184,21.77414984950855,0 74.47482234881021,21.77414305071458,0 74.47481845447592,21.77410766264574,0 74.47481676054937,21.77410431858129,0 74.47481174396525,21.77409764373795,0 74.47480835014268,21.77408932672027,0 74.47480643184261,21.77406948333873,0 74.47479288809541,21.77402380485754,0 74.47478948898411,21.77400770013237,0 74.47475563667334,21.77397264104622,0 74.47473810335759,21.77395844573745,0 74.47472703099244,21.77393498011562,0 74.47472548801417,21.77391946714106,0 74.47473964631084,21.77387961386775,0 74.47474274622962,21.77385993952229,0 74.47474273867223,21.77385391913562,0 74.47474269745594,21.77382108536544,0 74.47474267337536,21.77380190221142,0 74.47475792009377,21.77377706160275,0 74.47475944788636,21.7737770620068,0 74.47476553159751,21.77377270731127,0 74.47477758621095,21.77375536855813,0 74.47477893274367,21.77373673087448,0 74.47478334287587,21.77372391858201,0 74.47478332819671,21.77372249938785,0 74.47478777607989,21.77371541792244,0 74.47477915958663,21.77369581972461,0 74.47478626371702,21.77366639427651,0 74.47480065458278,21.7736434982673,0 74.47482602955718,21.77363316090595,0 74.474855033056,21.77362698197534,0 74.4748712004306,21.77361875786314,0 74.47489270025997,21.77360851333247,0 74.47489264122626,21.7736064676078,0 74.47490636789708,21.77358204470027,0 74.47490624012757,21.77357799494558,0 74.4749355358841,21.77354183071044,0 74.47495156925216,21.77353984060714,0 74.47495514876277,21.77353984178236,0 74.47497421390847,21.77352592245716,0 74.47498886758892,21.77349633084895,0 74.47499324061558,21.77347678419276,0 74.47499081420318,21.77346318576323,0 74.47498849297878,21.77345158578855,0 74.47498812283057,21.77344388133664,0 74.47499420623969,21.77342472138292,0 74.47501265886243,21.77340949871649,0 74.47502414526653,21.77339625032447,0 74.47502567618113,21.77339247693993,0 74.47505850502331,21.77338871895063,0 74.47505757112944,21.77337369992303,0 74.4750572223179,21.77336809027803,0 74.47505502895636,21.77336062918755,0 74.47505111503186,21.77335318916381,0 74.47504039571071,21.77331814368471,0 74.47504028678289,21.77331631258543,0 74.4750380172507,21.77327816123469,0 74.47503557026879,21.773237026828,0 74.47503577971646,21.77321231511857,0 74.47503431583569,21.77318784528365,0 74.47503400401378,21.77318263294892,0 74.47503214674377,21.77315158727322,0 74.47503071819924,21.77312770803373,0 74.47503061668993,21.77312601122487,0 74.47502940403366,21.77310574070244,0 74.47502913731861,21.77307398671794,0 74.47502429965864,21.77304756376738,0 74.47502420199189,21.77304592194545,0 74.47502209389074,21.77303772909729,0 74.47501590654952,21.77301493641439,0 74.47500798985629,21.77298915017955,0 74.47500451147235,21.77298434556002,0 74.47499158345205,21.7729525634734,0 74.47498823182966,21.77294940800726,0 74.47497107429136,21.77292431769272,0 74.47496609889899,21.77291964239238,0 74.47495431278286,21.77290412629015,0 74.47494056529257,21.77287798457542,0 74.47494043185253,21.77287492866515,0 74.47494268731815,21.77285516345174,0 74.47496348237662,21.77283406978558,0 74.47496627647398,21.77279686735754,0 74.47498374909333,21.77277336879646,0 74.47499317531036,21.77273918716418,0 74.47500594728824,21.77269287275329,0 74.47498747080942,21.77265760676672,0 74.47498251701293,21.77264937503206,0 74.47497136238306,21.7726248308417,0 74.47494911938269,21.77258642095846,0 74.47494280486816,21.77258040548114,0 74.47493798880859,21.77257240708792,0 74.47492450817755,21.77254262729247,0 74.47490792873839,21.77251513077159,0 74.47490763641231,21.77251317796198,0 74.47488601667685,21.77247441875346,0 74.47487389703026,21.77245143641834,0 74.47486984750313,21.77244762502989,0 74.47485063036433,21.77242298884768,0 74.47484461686193,21.77241733621282,0 74.47482960519307,21.77239671744272,0 74.47482761707812,21.77239485097029,0 74.47480018337995,21.77235780774515,0 74.47480629296176,21.77232674728392,0 74.47478717578244,21.77227283777527,0 74.47477287700792,21.77224103757326,0 74.47476286472923,21.7722027158262,0 74.47475074320781,21.77214633004446,0 74.47474189656604,21.77211610775597,0 74.47474149920784,21.77211443970915,0 74.4747395164994,21.77210611661067,0 74.47473042048566,21.77207474658735,0 74.47472530111281,21.77206002796849,0 74.47472175251185,21.77205188951129,0 74.4747169862507,21.77204539798903,0 74.47469532312357,21.77201480182116,0 74.47467808577241,21.77199567735659,0 74.47467452750938,21.77199408997156,0 74.47466828783291,21.77198775333282,0 74.4746604730683,21.77198143314447,0 74.47464772686386,21.77196727561626,0 74.47464190965887,21.77196257481099,0 74.47462507284315,21.77194386675229,0 74.47462314964035,21.77194231430659,0 74.47461738759162,21.77193766312943,0 74.47460084040404,21.77192684529927,0 74.47459545280516,21.77192376347288,0 74.4745900723083,21.77192068570869,0 74.47458108714743,21.77190078591407,0 74.47453945239477,21.7718584896452,0 74.47451966055249,21.77184505564162,0 74.47451317594545,21.77184356663411,0 74.47450027997729,21.77183317942223,0 74.47447705957886,21.77181695045032,0 74.47447312742798,21.7718125449599,0 74.47446443710498,21.77179938020188,0 74.47446081338346,21.77179646455837,0 74.47445844238338,21.77179209892338,0 74.47445121877529,21.77178629001451,0 74.47443601083231,21.77177039313785,0 74.47442652639398,21.77176033490323,0 74.47442295788493,21.77175746911271,0 74.47440258780767,21.771729014371,0 74.47439905912996,21.7717261882593,0 74.47436352688081,21.77169533570672,0 74.47435907739916,21.77168699645907,0 74.47433005723718,21.77165668193426,0 74.4743008445443,21.77163218427561,0 74.47429576179648,21.77162812772732,0 74.47428096524237,21.77160929844071,0 74.47427319147067,21.77159727968983,0 74.47426942570033,21.77159195919381,0 74.47426005137034,21.7715787147597,0 74.47425818339575,21.7715760755769,0 74.47424416756047,21.77155116395326,0 74.47424733771958,21.77153428704182,0 74.47423591141505,21.77149950473957,0 74.47422433818922,21.77143347535889,0 74.47421884633749,21.77140214230462,0 74.47422665169822,21.77138218666984,0 74.47422642801239,21.77134923586024,0 74.47423265764041,21.77133182247113,0 74.47425029159589,21.77130590889723,0 74.47426526118366,21.77128663275418,0 74.47426351824575,21.77126748478468,0 74.47425653376062,21.77124005925177,0 74.47425156612981,21.77122331766241,0 74.4742511760566,21.77122123230335,0 74.4742364638383,21.77117165660717,0 74.47423389116554,21.77116756561856,0 74.47423695057185,21.77114518169495,0 74.47419469410468,21.77111093622776,0 74.47416004600039,21.77108702358062,0 74.47413814387531,21.77106332896115,0 74.47413158405638,21.771045699813,0 74.47412948124381,21.77104374782486,0 74.47411526669175,21.77102237413457,0 74.47411109323279,21.77101850613242,0 74.4741024448718,21.77100886166712,0 74.4740901845806,21.77098777066042,0 74.47408955687179,21.77098395474874,0 74.47407740661885,21.77096306404238,0 74.47407300203825,21.77095739532536,0 74.47404677548998,21.77092364202241,0 74.47404445860006,21.77091991902096,0 74.47402604413816,21.77089032811057,0 74.47402204010272,21.77088665266552,0 74.47399405357781,21.77083755532561,0 74.47397828247631,21.77080001887489,0 74.47397438301851,21.77079647228016,0 74.47396544631671,21.77077003825504,0 74.47396325590232,21.77076653446385,0 74.47393726056237,21.7707369476327,0 74.47391322235417,21.770719704526,0 74.47389495254721,21.77071969892873,0 74.47388928601694,21.77071454986768,0 74.47388326019863,21.77069406567553,0 74.47388341836086,21.77067038375757,0 74.47389593722626,21.77065361125731,0 74.47389277181304,21.77063031617596,0 74.47388963655385,21.77060724297733,0 74.47388941374929,21.77060560329908,0 74.47386877161001,21.77056013655542,0 74.47386855800899,21.7705585287595,0 74.47386579422012,21.77053772543746,0 74.47387303688335,21.77052026652161,0 74.47387133491948,21.77050764747367,0 74.47385082349696,21.77049665540104,0 74.47384903337758,21.77049508960685,0 74.47384228839041,21.77049196023067,0 74.47381223774389,21.77047948330976,0 74.47380414899852,21.77047792709466,0 74.47378817082495,21.77047636966861,0 74.47378501291733,21.77047636876717,0 74.47377711810199,21.7704763665135,0 74.47375817064712,21.77047636110458,0 74.47371901769731,21.77047945667351,0 74.47370086555775,21.77047169235058,0 74.47369410021017,21.77046704724974,0 74.47367717238232,21.77045470551965,0 74.47365918469437,21.77044702282293,0 74.47364042335217,21.77041202337272,0 74.47364774353763,21.77038948483692,0 74.47366327558977,21.77035682406157,0 74.47367025899119,21.77033335915015,0 74.47366573750008,21.77030499450549,0 74.47365460960609,21.77024291111163,0 74.47363762846413,21.77018869233386,0 74.47361691029519,21.7701729717254,0 74.47361452864169,21.77016984085711,0 74.47360938563949,21.77015736090482,0 74.47359958644184,21.77006883216786,0 74.47361337245285,21.77005093730775,0 74.47361223925755,21.77000096451618,0 74.47359014676751,21.76994921507172,0 74.47356459490089,21.76990140926518,0 74.4735600212842,21.76989307829285,0 74.47355561430199,21.76988754110774,0 74.47353374341927,21.76986006125101,0 74.47352494151657,21.76984644962098,0 74.47349908376016,21.76981144868644,0 74.47347344335651,21.76977175183315,0 74.47347135134564,21.76976913089904,0 74.47346509054837,21.76976128723811,0 74.47342576408236,21.76970463005672,0 74.47342170456331,21.7696995530688,0 74.47340535016147,21.76966934722158,0 74.47338494726647,21.76961507599318,0 74.47340107389519,21.7695574580718,0 74.47339976520256,21.76949451030634,0 74.47342351308876,21.76947396396459,0 74.47343176196112,21.76943793656532,0 74.47343092314614,21.76940913402454,0 74.47343003327683,21.76937857838534,0 74.47342990727479,21.7693742518229,0 74.473446670687,21.76933362708818,0 74.47344803231253,21.76932097133872,0 74.4734621412975,21.76926911954282,0 74.47347030195124,21.76925282092504,0 74.4734798809551,21.76923063603299,0 74.47348204995805,21.7692007947953,0 74.47348196236987,21.76919882206849,0 74.4734800585202,21.76915594208754,0 74.47347920748466,21.76913677438078,0 74.47347903833496,21.76913296465377,0 74.47347658758181,21.76911591746826,0 74.47347642208683,21.76911215077953,0 74.47347448495175,21.76910651469919,0 74.47347335155791,21.76908044377883,0 74.47347168150867,21.76904202838083,0 74.47347144581677,21.76903660686035,0 74.47346629684949,21.76900283065984,0 74.47345628233072,21.76896678998617,0 74.47345340847507,21.76894413467168,0 74.47344149517602,21.76891213456057,0 74.47342785201921,21.7688931363731,0 74.47341457835388,21.7688868335731,0 74.47340122717677,21.76887428379434,0 74.47338513327986,21.76881864381029,0 74.47338464053928,21.76878528767638,0 74.47338002773321,21.7687613254174,0 74.4733645904077,21.76871121885385,0 74.47335398690633,21.76870248629611,0 74.47334124639102,21.76867936899182,0 74.47333072492974,21.76865933383333,0 74.47327482128399,21.76862538252399,0 74.47326042626621,21.76861977163971,0 74.47323174451903,21.76860859208717,0 74.47314981442921,21.76859744676085,0 74.47312143045269,21.76858913773524,0 74.473092874462,21.76858636721137,0 74.47308058418002,21.76858636225501,0 74.47305665096258,21.76857535111219,0 74.47304083019721,21.76853457197507,0 74.47305241498537,21.7685104724299,0 74.47305257652027,21.7685078106871,0 74.47309140857874,21.76845786285405,0 74.47308976122883,21.76841412207761,0 74.47308874666642,21.76839636887993,0 74.47308328235319,21.76838880366978,0 74.47305732079479,21.76833414608104,0 74.4730393069195,21.76831461607417,0 74.47303419924062,21.76830492092053,0 74.47302911535287,21.7682952709271,0 74.47305620889267,21.76829047391179,0 74.47308404905937,21.76827136680308,0 74.47307034297772,21.76821505651906,0 74.47308000741313,21.76817837265948,0 74.47309217885615,21.76816028127957,0 74.47309415509785,21.76815803148237,0 74.47311953549205,21.76813123072931,0 74.47313657719975,21.76812017193007,0 74.47315691328487,21.76811577056049,0 74.47318268974507,21.76811138096048,0 74.47318944573746,21.76807222881354,0 74.47320286834599,21.76804655898067,0 74.47320943361115,21.7680045112328,0 74.4732246582693,21.76796336697968,0 74.47326067511213,21.76794186099319,0 74.47328543117949,21.76791575313089,0 74.47330772206719,21.76788350912811,0 74.47333188871708,21.76784538243789,0 74.47333406758985,21.76784223274689,0 74.47336007542086,21.76781407626764,0 74.47337720272024,21.76779240640145,0 74.47338929005554,21.76773456861427,0 74.47342898404422,21.76769582581364,0 74.47340198989092,21.76761450158556,0 74.47340777896477,21.76759179916112,0 74.47343036736021,21.76758335312145,0 74.47345295626263,21.76757774319622,0 74.47348765759037,21.76756656128053,0 74.47352141742687,21.76753882872747,0 74.47358375734358,21.76751963653207,0 74.47360954622346,21.76750874022999,0 74.47361546517948,21.76750602432863,0 74.47363239878092,21.76748709708175,0 74.47364817089148,21.76745502187208,0 74.47366455766502,21.76743390092285,0 74.47366855759743,21.76743390252195,0 74.47367633875486,21.76743127910408,0 74.47368633257925,21.76743128309846,0 74.47368675661302,21.76741298680768,0 74.47368123570217,21.76737174096721,0 74.47368079913221,21.76736664091483,0 74.47367949567537,21.76735141380116,0 74.47367585273221,21.7673088565238,0 74.47366022905149,21.76728421456835,0 74.47365596926629,21.76727932043059,0 74.47365171948951,21.76727443776655,0 74.47363371044378,21.76724058136339,0 74.47361685709434,21.76721910394329,0 74.47357397221475,21.76717216531221,0 74.47357209341402,21.76717216460745,0 74.47355182778603,21.76714680411509,0 74.47352786468839,21.7671172381099,0 74.47350414548804,21.76708587945664,0 74.47349203406037,21.76706158532626,0 74.47349001138798,21.76701602875787,0 74.47348537914374,21.76699258159439,0 74.47348080222532,21.76696941453297,0 74.47347938940183,21.76693620856259,0 74.47347949459026,21.76689751243688,0 74.47348229222536,21.76688145368878,0 74.47349356350205,21.76686157363262,0 74.47349973093907,21.76684581905061,0 74.47351372747706,21.76681663430587,0 74.47352187061662,21.76680893015761,0 74.47354438916925,21.7668024331702,0 74.47358455006459,21.76677352001536,0 74.47359120687094,21.76676714122934,0 74.47363297512251,21.76673550565158,0 74.47365910216611,21.76671984744943,0 74.47370867430426,21.76668883951918,0 74.47371721267871,21.76668268631829,0 74.47374015258627,21.76664912090814,0 74.473785784553,21.76666434181021,0 74.47380361546007,21.76667965084224,0 74.47383171694443,21.76667966286997,0 74.47385197390307,21.7666522008377,0 74.473896206514,21.76663709727731,0 74.47391552405637,21.76660418062421,0 74.47394042730004,21.76659529273583,0 74.47396869258101,21.76660420309793,0 74.47400034933455,21.7666012464796,0 74.47402455349732,21.7665864641951,0 74.47404546627745,21.76658352599251,0 74.47406971986145,21.7665717857808,0 74.47411428240322,21.76655429160073,0 74.47414030414222,21.76654270171948,0 74.47417419845101,21.76651111685235,0 74.47420665799912,21.76648842454365,0 74.47421403824022,21.76646594969509,0 74.4742408546627,21.76646596077397,0 74.47425125801578,21.76645203060215,0 74.47425802835944,21.76641347631945,0 74.47425967162462,21.76641074855542,0 74.4742872985522,21.76636488762247,0 74.47431213828533,21.76634364002352,0 74.47435270853531,21.76632260517396,0 74.4743801987326,21.7663199991295,0 74.47438219400773,21.76631999992944,0 74.47440167356802,21.76631739391299,0 74.47440366768689,21.76631739471235,0 74.47442118523905,21.76630437977466,0 74.47445045904023,21.76627090004602,0 74.47445774983446,21.76623792979684,0 74.47446787008089,21.76621042946584,0 74.47446919503463,21.76618819122931,0 74.47446626753862,21.76618328008967,0 74.47445169758902,21.7661395983492,0 74.47443883936431,21.76610388909853,0 74.47442153009769,21.76606415685667,0 74.47440863542739,21.76603657144712,0 74.47439918043266,21.76600710937671,0 74.47439224601364,21.76597143668314,0 74.47438572729438,21.76594727816298,0 74.47437204094072,21.7659234098857,0 74.47436531551445,21.76589770256673,0 74.47436046585267,21.76587233143308,0 74.47435370287593,21.76583695069822,0 74.47436946026293,21.76582028080139,0 74.47435354754245,21.76576711689905,0 74.47431141940966,21.76572059477791,0 74.47428617493355,21.76571787899012,0 74.47424793725,21.76571246267488,0 74.47416088737505,21.76567234490233,0 74.47415687203123,21.76567234324249,0 74.47414554201198,21.76568828268271,0 74.47414063548744,21.76569897535765,0 74.47402267585292,21.76565121012666,0 74.47402067804292,21.76565120930765,0 74.4739778388833,21.765617374171,0 74.47397585674858,21.76561737336585,0 74.47396658677826,21.76561221389707,0 74.47395206732638,21.76560963477949,0 74.47392051716827,21.76559424768156,0 74.47389508650909,21.76557897336941,0 74.47388857541509,21.76557643741398,0 74.47382067853057,21.76552884470169,0 74.47380540579842,21.7655214257059,0 74.47380153035795,21.76552142417396,0 74.47378051560129,21.7655140291071,0 74.47377084419784,21.76551402529323,0 74.47376310714155,21.76551402224273,0 74.47367654673189,21.76548712526684,0 74.47364732362298,21.76547501734211,0 74.47364303156805,21.76547260482561,0 74.4736320968894,21.76546538483217,0 74.47361707794809,21.76544625964991,0 74.47358829553596,21.76541321236292,0 74.47357237042016,21.76540853011901,0 74.4735629434789,21.76540852651227,0 74.47355917267288,21.76540852506976,0 74.47353953282571,21.76540385214439,0 74.47353161197046,21.76540152042032,0 74.47352031910076,21.76540151611069,0 74.47348687422927,21.76539221519759,0 74.47348195782874,21.76539685209156,0 74.47345701701873,21.76540615200517,0 74.47340645842482,21.76540846673897,0 74.47336949726656,21.76535543893522,0 74.4733550908915,21.76531489761681,0 74.47331910760086,21.7652599222195,0 74.4733009629569,21.76517732920631,0 74.47329530480413,21.76511649208221,0 74.47329238406749,21.76508508792082,0 74.47333864980982,21.76504796990328,0 74.47331619625849,21.76499633980982,0 74.47331232701684,21.76495762738719,0 74.47331453489525,21.76491665920181,0 74.47331819871518,21.76487072747353,0 74.47332177813203,21.76484529776863,0 74.47333294402529,21.76481460816638,0 74.47333675025314,21.76481184030195,0 74.47335446612541,21.76478707698574,0 74.47334430429157,21.76473300590315,0 74.47333355767388,21.76469069361586,0 74.47333098279977,21.76468546182545,0 74.47331878447531,21.76464662712624,0 74.47330761368652,21.76461605939506,0 74.47330538291641,21.76461353135335,0 74.47329791491629,21.76459842832624,0 74.47329322575112,21.76459091671843,0 74.47327627260717,21.76453908123742,0 74.47326114325787,21.76450282883863,0 74.47325786462967,21.76446956272873,0 74.47325716893614,21.76446250397289,0 74.47325441000616,21.76443451086145,0 74.47325395385761,21.7644298826086,0 74.47325259163706,21.76441606100763,0 74.47324929985791,21.76436394121645,0 74.47324907848865,21.76436170561641,0 74.47324761615506,21.76432847074314,0 74.47324223412286,21.7643109695317,0 74.47323753290785,21.76430010932034,0 74.47322515559348,21.76424669962598,0 74.47321761966431,21.7642050087793,0 74.4732113442048,21.7641947245245,0 74.47320278063724,21.76417838471524,0 74.47319525263065,21.76413416877526,0 74.473194892736,21.76413020022224,0 74.47320982180597,21.76410461367936,0 74.47322797529195,21.76407937494742,0 74.47323129526011,21.76404498085939,0 74.47323681174419,21.76401898786454,0 74.47329185234439,21.76399214443418,0 74.47330311913919,21.76398918322239,0 74.47333109753171,21.76397736945284,0 74.4733492632258,21.76397148710048,0 74.47337101231065,21.7639685567261,0 74.47340483548359,21.76396857031273,0 74.47340694950397,21.76396857116237,0 74.47344132328361,21.76396564955758,0 74.4735049828964,21.76392785553777,0 74.47349067534094,21.76387932896982,0 74.47347667439621,21.76384291560305,0 74.47345930078683,21.76381530309104,0 74.47345229384412,21.76378803582382,0 74.47342515190314,21.76372131547159,0 74.47341413919925,21.76368741776004,0 74.47341177469652,21.76367967065852,0 74.47342100974654,21.7636161954945,0 74.47346009939102,21.76359629286163,0 74.473462041,21.76359629358441,0 74.47347803922479,21.76356433242937,0 74.47348468512916,21.76352086866676,0 74.47347468252448,21.76347595812558,0 74.47347842654446,21.76343889569313,0 74.47347008328623,21.76338901745774,0 74.47346916744871,21.7633845440606,0 74.47345962105054,21.76335130988706,0 74.47343745721969,21.76332728315056,0 74.47343793220178,21.76332511425706,0 74.47343096222897,21.7632992688471,0 74.47345199694725,21.76326080825431,0 74.47344795453795,21.76322533087765,0 74.47344271543865,21.76321946930208,0 74.47343172322365,21.76321070388935,0 74.47342021228309,21.7632048772769,0 74.47339805079008,21.76317885277413,0 74.47338122018272,21.7631588168586,0 74.47336747019715,21.7631248856828,0 74.47336540404116,21.76312488487055,0 74.47335773038996,21.76312207776344,0 74.47334685959197,21.76310532290207,0 74.47334809265624,21.7630804320196,0 74.47332286838557,21.76305580825634,0 74.47330924110052,21.76305308497679,0 74.47329969388451,21.76305036671585,0 74.47329185506196,21.76303145498181,0 74.47328780945341,21.763031453425,0 74.47327713884265,21.76299941077514,0 74.47328286563734,21.76298356920815,0 74.47329557549884,21.7629548256874,0 74.47330495096536,21.76293159081326,0 74.47331815739985,21.76290860747957,0 74.47332869067915,21.76288838418969,0 74.47333385295711,21.76286585952822,0 74.47332304503875,21.76282884007981,0 74.47333233719303,21.76279728665383,0 74.47335153682361,21.76276383944806,0 74.47335777865017,21.76274496689036,0 74.47336475124257,21.76271466548266,0 74.473370570803,21.76268937487868,0 74.47337014312753,21.76263527156827,0 74.47339227025316,21.7626109648412,0 74.47340058071254,21.76260657886598,0 74.47340931477106,21.76257613060879,0 74.47340848276045,21.76257181846235,0 74.47341383512214,21.76254827387304,0 74.47341746173844,21.7625166195648,0 74.4734245699531,21.76248547788099,0 74.47344424451278,21.76246092922715,0 74.47344945974602,21.76240681792789,0 74.47345390882747,21.76238716662811,0 74.4734547930468,21.76238326108761,0 74.47345743461665,21.76237159343826,0 74.47347504501768,21.76233132928667,0 74.47347716462401,21.76232187039525,0 74.47347927333173,21.76231246013616,0 74.47348555505528,21.7622919274632,0 74.47349482817701,21.76224231686526,0 74.47348674320504,21.76220539889313,0 74.47347596987008,21.76219976911873,0 74.47346115893338,21.76215251119697,0 74.47349717599195,21.76215527686918,0 74.47354398220899,21.76216357096121,0 74.4735534679275,21.76216634026431,0 74.47358144331825,21.76216912007031,0 74.47360534498284,21.76217190186352,0 74.47361209919136,21.76217745997962,0 74.47363112213696,21.76219141720323,0 74.47365859863419,21.76219703235239,0 74.47367512684431,21.76219703876832,0 74.47372111868054,21.7621775021302,0 74.47374332346614,21.76214438438382,0 74.47374504138214,21.76211986255056,0 74.47374206271996,21.76209829146493,0 74.47374775350413,21.76202444119612,0 74.47375299532806,21.76197827213925,0 74.47377799707215,21.76192318191583,0 74.47378389028876,21.76189860896386,0 74.47379699888785,21.76188400657216,0 74.47382588861809,21.76186710432064,0 74.47383273459819,21.76186229983658,0 74.47385479032847,21.76184081421622,0 74.47385776155764,21.76183606928286,0 74.47386675780211,21.7617961699778,0 74.47386179741703,21.761768465862,0 74.47385992969093,21.76176846519759,0 74.47385323217962,21.761757031369,0 74.47383969232361,21.76172760573427,0 74.47383074163007,21.76171863640252,0 74.47381824947374,21.76169418134298,0 74.47381695488518,21.76169197297238,0 74.4738107095752,21.76168756233381,0 74.47378443612156,21.7616613073041,0 74.4737795368341,21.76165913417172,0 74.47377031356409,21.76165263106063,0 74.47375252508107,21.76163754184592,0 74.47375071805369,21.76163754122337,0 74.47374339695358,21.76163111001763,0 74.47373249777034,21.76162469872844,0 74.47372825008463,21.76162043726911,0 74.47370776937339,21.76160348312485,0 74.47370418677677,21.76160348190126,0 74.47368924654172,21.76158041442414,0 74.47368687261782,21.76157624995961,0 74.47368095037528,21.76157209329739,0 74.47368394065954,21.76153713915737,0 74.4736816254309,21.76151485759753,0 74.4736781392179,21.7615088250895,0 74.47367938615467,21.76146910306461,0 74.47368745363411,21.76145344981616,0 74.47371196400312,21.76142829497386,0 74.47372474248614,21.76139590291904,0 74.47372528785344,21.76139401511501,0 74.47373615339207,21.7613622182109,0 74.47375384670728,21.76131118861456,0 74.47375026247033,21.76130821752689,0 74.47374356205438,21.76128166007964,0 74.47374798603801,21.76124384293756,0 74.47374960619389,21.76120948588715,0 74.47375830227877,21.76118968708633,0 74.47377785656197,21.76116727635949,0 74.47380214054608,21.76115061895312,0 74.47384580711856,21.76112860660893,0 74.47388719407728,21.76109598609052,0 74.47391122316954,21.76107717936454,0 74.4739471370537,21.76104794976351,0 74.47397160960497,21.76101390046736,0 74.47399664450319,21.76097527123364,0 74.47400002376635,21.76096762805484,0 74.47401342054863,21.76093732767936,0 74.47403261369095,21.76091737014465,0 74.47407400860632,21.76090253550096,0 74.4741593804933,21.76082510743572,0 74.47416318299308,21.7608251088195,0 74.47416888670378,21.76082511089539,0 74.47421269381525,21.76081092124035,0 74.47421491603752,21.76080856399354,0 74.47422156732981,21.76080150851608,0 74.4742607008193,21.76076198342554,0 74.47430913915144,21.76073227758861,0 74.47435823884112,21.76070748375719,0 74.47438443290422,21.76066754745501,0 74.47440139530738,21.76064353354575,0 74.47440101376822,21.76059212718544,0 74.47440735037297,21.76053610590631,0 74.47441975121126,21.76051026138287,0 74.47444886268121,21.76047064373135,0 74.47448650732463,21.76042896526504,0 74.4745120434328,21.76039889181557,0 74.4745461111917,21.76036655006122,0 74.47455369858356,21.76034789867152,0 74.47456868035411,21.76031107051246,0 74.47458979671686,21.76028000050421,0 74.47460397555992,21.76025190942692,0 74.4746330773223,21.76021918790887,0 74.47464147715625,21.76019682442648,0 74.47467016653124,21.76018451121301,0 74.47467279246597,21.76018205614383,0 74.47469878533403,21.76016495388714,0 74.47471498306993,21.76014798778037,0 74.47473173748878,21.76012160172668,0 74.4747451310911,21.76009319623607,0 74.47476271878953,21.76006286411178,0 74.47480722633092,21.76002160881864,0 74.47484336588283,21.76000354711719,0 74.47487884721757,21.75999458313598,0 74.47491153472993,21.75996569800743,0 74.47495152540709,21.75993505717145,0 74.47497601177577,21.75993941564774,0 74.47498549651486,21.75994596219559,0 74.47498453667093,21.75995033617555,0 74.47498840100383,21.75997457094619,0 74.47499840152712,21.75998791861595,0 74.47499881302517,21.75999462459151,0 74.47501860589247,21.76001488522347,0 74.47507043232538,21.76009331116138,0 74.47507232362928,21.76009331183193,0 74.47509269270743,21.76009567164616,0 74.47512023457828,21.76007926991318,0 74.47515147607777,21.76008395652356,0 74.47517600731094,21.76008396521913,0 74.47521679510513,21.76008866601704,0 74.47526802113592,21.76010044737408,0 74.47531159856206,21.76010046292257,0 74.4753716426102,21.76012182998755,0 74.47544069006005,21.76013620942278,0 74.4754861371522,21.76014103304337,0 74.47552211191035,21.7601458644582,0 74.47557735060921,21.76015071415728,0 74.47559708430283,21.76018481349875,0 74.47563590060436,21.76020210014207,0 74.4756350892423,21.76020457910561,0 74.47566803665818,21.76021703106168,0 74.47570353642512,21.7602345845745,0 74.47570981599431,21.76023962539627,0 74.47571337653548,21.76024720715394,0 74.47574538118113,21.7602650123402,0 74.47580463520876,21.76028555321156,0 74.47581237354542,21.76029330200548,0 74.47584784351169,21.76030889124146,0 74.47587770697339,21.76030890204345,0 74.475906247475,21.76030630839222,0 74.47593207918347,21.76029852480559,0 74.47595045807768,21.76028045720614,0 74.4759786480581,21.76027020742456,0 74.47600944283535,21.76026510697873,0 74.47603309064451,21.76026511548504,0 74.47606124793315,21.76026257447489,0 74.47607982960174,21.76026768659238,0 74.47608068805677,21.76027280459799,0 74.47608185295813,21.76028565318343,0 74.47608451580072,21.76031942464337,0 74.47605816034566,21.76036706398361,0 74.47605640646404,21.76037510744396,0 74.47605372929377,21.76039670315857,0 74.47607351782956,21.76045721805134,0 74.47608244931772,21.76049376658196,0 74.47610056412111,21.7604966094549,0 74.47612716977949,21.76048812215416,0 74.47614386981753,21.76047684847723,0 74.47616461293174,21.76046563295449,0 74.47618215859811,21.76046004899834,0 74.47623899032287,21.76042957101717,0 74.47624308396881,21.76042957255304,0 74.47626447893194,21.76042408006632,0 74.47628716544862,21.76041039690691,0 74.47631088081789,21.76040223149763,0 74.47633409161548,21.76039680745835,0 74.47635764715385,21.76038869227218,0 74.47637947904488,21.76037791513395,0 74.47640799523711,21.76036184699506,0 74.47644163393122,21.76035120585633,0 74.47644364450987,21.76035120660175,0 74.47646708591904,21.76034061364636,0 74.47649241406639,21.76033007297969,0 74.47652988570948,21.76031697122797,0 74.47653188045481,21.76031697196349,0 74.47656035090435,21.76031175848487,0 74.47658727291548,21.76030135833159,0 74.47660439540201,21.76028842265217,0 74.47663524405904,21.7602755696796,0 74.47663744276883,21.7602730069393,0 74.47666848930189,21.76025515903378,0 74.47669340323144,21.76023745781697,0 74.47671455967227,21.76021491085449,0 74.47672530470703,21.76020001147516,0 74.47674834246629,21.76017296953218,0 74.47676121765616,21.76015110037998,0 74.47676823444641,21.76012945760906,0 74.47677382277961,21.76009859049481,0 74.4767789338476,21.76007515965824,0 74.47678424240267,21.76004739426847,0 74.47678096453198,21.76000644587328,0 74.47678299815109,21.75997073968412,0 74.47678838857003,21.7599400170134,0 74.47679479705725,21.75992267526772,0 74.47683552609433,21.75990335899871,0 74.47683931858209,21.75989909060778,0 74.47686524501302,21.75988000100711,0 74.4769123235223,21.75986110491165,0 74.47691594141148,21.75985901619726,0 74.47692133721299,21.75985693033762,0 74.47695722530632,21.75983825466647,0 74.47696436595569,21.75983412885153,0 74.47696970085489,21.75983206985604,0 74.47699453909543,21.75981771463285,0 74.47701744379951,21.7598075284428,0 74.47701920278621,21.75980752902009,0 74.47705257671009,21.75980347772255,0 74.47705782181232,21.75980145157402,0 74.47708057542364,21.75979740978218,0 74.47708404384875,21.75979538953102,0 74.47711470023282,21.75976334805726,0 74.477116438777,21.75976334862181,0 74.47715414863046,21.75974950822044,0 74.47720659434346,21.75972601394618,0 74.47721315833992,21.75972018433306,0 74.47721787669893,21.75971243860706,0 74.47722268680985,21.75970665090162,0 74.47723849347807,21.75968558259928,0 74.47725868497947,21.75965723653926,0 74.47726024515707,21.75965536240064,0 74.47728401016475,21.7596127786004,0 74.4773237435369,21.75960913434489,0 74.47735410352712,21.75961280046654,0 74.47735911022806,21.75961280202907,0 74.47736524284689,21.75960732171729,0 74.4773874202325,21.75959641404709,0 74.47742437035204,21.7595855768976,0 74.47743099560476,21.75958557895026,0 74.47748896683443,21.75958559691708,0 74.47751815123723,21.75959283114782,0 74.47752032752038,21.75959645536927,0 74.47753601677174,21.75961285729541,0 74.47754747025782,21.75959648938164,0 74.477587939508,21.75959468888374,0 74.47760440127438,21.75960013650538,0 74.47762365160739,21.75960742497529,0 74.47767529604923,21.75960744024984,0 74.4776914048952,21.75960379991407,0 74.47771969759167,21.75960380827928,0 74.4777651529737,21.75960200193019,0 74.47779675859859,21.75960201127844,0 74.47784285535124,21.75960384472468,0 74.47784903539402,21.75960566820545,0 74.47788336836472,21.75961481442182,0 74.47794024818657,21.759600235783,0 74.47795394094076,21.75960569930787,0 74.47798557950657,21.75960570869544,0 74.47803476856258,21.75960937220892,0 74.47807441037931,21.75961121122725,0 74.47810233170578,21.7596222220156,0 74.47810832761652,21.75962590624829,0 74.47811231312127,21.75963144519724,0 74.47814017474013,21.75964444117654,0 74.47816646484527,21.7596481769573,0 74.47819941892257,21.75966317518408,0 74.47820297960659,21.75967260680525,0 74.47821979311556,21.75969544502268,0 74.47821874501521,21.75972438938649,0 74.47821926712524,21.75973218503887,0 74.47823587239102,21.75975973387325,0 74.47823817595481,21.75976767921984,0 74.4782767750884,21.7598038625943,0 74.47829653549493,21.75981404028599,0 74.47830482204311,21.75981812677109,0 74.4783360773432,21.75982222929946,0 74.47834137376294,21.75982223097473,0 74.47842435101062,21.75982225723991,0 74.47842611650931,21.75982225779915,0 74.47844377140426,21.7598222633924,0 74.47845083334472,21.75982226563015,0 74.47847429609138,21.7598161373023,0 74.47847605874459,21.75981613786017,0 74.4784981548224,21.75980393232834,0 74.47851500288725,21.75978978832214,0 74.47852039871525,21.7597877772927,0 74.47854284956111,21.7597657848962,0 74.47854298111358,21.75976379768002,0 74.47855003505121,21.75970899758031,0 74.47853779181639,21.75966327769443,0 74.47855930848146,21.75967082500253,0 74.47855591765926,21.75967082397056,0 74.47854926102873,21.75966893383573,0 74.47854078837109,21.75966893125895,0 74.47856770676243,21.75964456999445,0 74.47855545951303,21.75960041862631,0 74.47857740124287,21.75959498196159,0 74.47858591055262,21.75959136484222,0 74.47864822071965,21.75956803242496,0 74.47869893238298,21.75958238115109,0 74.47870546364162,21.75958598457914,0 74.47873335431453,21.75960228983585,0 74.47873498937257,21.75960411026732,0 74.47875481504617,21.75961874239356,0 74.4787701228996,21.75962427963474,0 74.47879355292056,21.75962428642474,0 74.47883211261329,21.75961878256309,0 74.47883712570749,21.75961878401465,0 74.47887277621905,21.75961695972605,0 74.47887611662861,21.75961696069326,0 74.47889949931368,21.75961696746477,0 74.47890116956296,21.75961696794855,0 74.47892895261197,21.75961331234726,0 74.47898368628533,21.75960238166775,0 74.47898917395955,21.75960056529271,0 74.47903784423286,21.75958610155613,0 74.47906285900086,21.75957891352008,0 74.47908846402061,21.75955573489212,0 74.47909437757833,21.75954513662152,0 74.47912289971786,21.75950853850981,0 74.47913597126345,21.75948115636406,0 74.47914923246898,21.75947946267606,0 74.4791802034387,21.75948456850608,0 74.47918342136151,21.75948456940642,0 74.47922613312714,21.75948798781632,0 74.47926282822434,21.75948970383768,0 74.47926570477104,21.75949141205653,0 74.47928632622644,21.7594931269333,0 74.479306314621,21.75949826990525,0 74.47932797970331,21.7595034285379,0 74.47933089969226,21.75950515025684,0 74.4793351281691,21.75950859833186,0 74.47936633636864,21.75951552135006,0 74.47940233032422,21.7595138004132,0 74.47940395284458,21.75951380087197,0 74.47943802564905,21.75951381050788,0 74.47944289320272,21.75951381188467,0 74.47947721033714,21.75951209217263,0 74.47951465012514,21.75948636464801,0 74.47955068512252,21.75948127243892,0 74.47956316254765,21.75951211648987,0 74.47956215192413,21.75952078047605,0 74.4795611362882,21.75952948743027,0 74.47956604585787,21.75954351055738,0 74.47956339300914,21.75955233023232,0 74.47955702288671,21.75956475121494,0 74.47956758667306,21.75960255085226,0 74.47956904644408,21.75960437116467,0 74.4795929244363,21.75959892395733,0 74.47963583206084,21.75958447252489,0 74.47965398519959,21.75956656093181,0 74.47969831396655,21.75954707131205,0 74.47970172446813,21.75954530994115,0 74.47974075976582,21.75952430898553,0 74.47974575395818,21.75952257064708,0 74.47974760249031,21.7595190968372,0 74.47979959581845,21.75948644473513,0 74.47980450747511,21.75948474363953,0 74.47985605607501,21.75948305732186,0 74.47988331132765,21.75948646830093,0 74.4799232502176,21.75950876471347,0 74.47995399109999,21.75951742090613,0 74.47998811682956,21.75952090159115,0 74.4800206345331,21.75952091085687,0 74.48004993925844,21.75952265728272,0 74.48006615963537,21.75952092383371,0 74.48010114819071,21.75951494151087,0 74.48013945125017,21.75949750918084,0 74.48024875093409,21.75944558247988,0 74.48025354465629,21.7594455836593,0 74.480363013003,21.75938852983179,0 74.48037388887246,21.75938286133988,0 74.48045354113336,21.75932653421732,0 74.48052879892771,21.75926532756204,0 74.48053473792524,21.75925980187915,0 74.48061481098962,21.75919399305735,0 74.48067059771374,21.75912908309679,0 74.48073967672947,21.75908631096005,0 74.48080036833251,21.75905978020026,0 74.48090995905001,21.75899148951203,0 74.48090335544779,21.75888322242459,0 74.48095046481626,21.75877747483332,0 74.48097056357867,21.75871813820244,0 74.48097479029541,21.75862576077738,0 74.48099864473475,21.75859220996289,0 74.48101714257427,21.75853999233143,0 74.48108031300877,21.75847907947682,0 74.48112199714956,21.75841441230334,0 74.48118163010531,21.75834167297936,0 74.48121967466822,21.75829236841397,0 74.48126293326115,21.75823482356784,0 74.48131256079256,21.75818673680274,0 74.48134918548517,21.75813918915734,0 74.48140289419526,21.75805830934809,0 74.48145236770962,21.75802890976668,0 74.4814886160555,21.75803310636129,0 74.48154538877023,21.75803731180201,0 74.48163501595701,21.75804152857493,0 74.48164166924845,21.7580541473757,0 74.48165194331008,21.75807103252102,0 74.48167724937389,21.75810074883584,0 74.48179330028232,21.75809651707187,0 74.48180199086721,21.75809226587016,0 74.48189724760005,21.75808803817957,0 74.4819682880422,21.75812644903335,0 74.48197207813024,21.75813073783956,0 74.48208427701468,21.7581869085285,0 74.48218242798765,21.75822185719587,0 74.48218661677659,21.7582218581363,0 74.48234011682818,21.75826153256683,0 74.48235441105913,21.75831734226465,0 74.48244181722228,21.75833218749866,0 74.48243933700439,21.75833962248147,0 74.48249644208104,21.75836576963063,0 74.48249931899454,21.75838078384303,0 74.48250098612394,21.75839963241567,0 74.48256534900867,21.75842999102843,0 74.48257196459645,21.75843380200043,0 74.4825762050782,21.7584452541884,0 74.48261218133676,21.75846826368052,0 74.48261374940529,21.7584759612377,0 74.48270677050684,21.75850691831588,0 74.4827112475031,21.75851858347658,0 74.48277344776393,21.75854986806824,0 74.48278312373277,21.75855772648797,0 74.48281048209149,21.75857349098228,0 74.48288148374463,21.75860520965513,0 74.48288840227163,21.75860919164306,0 74.48289614352005,21.75862515521091,0 74.4829489018051,21.75865325165643,0 74.4830352514838,21.75867749815608,0 74.48303828031683,21.75868155099082,0 74.48304235389227,21.75869780135117,0 74.48303434078778,21.75873049403149,0 74.48307816675756,21.75876759835571,0 74.48316080979147,21.75878005496489,0 74.48323553740757,21.75879254755709,0 74.48324188617087,21.75880088821087,0 74.48332573151259,21.75883022617847,0 74.48333630643215,21.75883864397287,0 74.48345052610077,21.75886401696659,0 74.48353729784762,21.75888527796815,0 74.483550767864,21.75890235361099,0 74.48366298798963,21.75894968897411,0 74.48366714868078,21.75894968983447,0 74.48376525297317,21.75898881999427,0 74.48376877483949,21.758993188714,0 74.48386304904345,21.75903713779295,0 74.48393584347961,21.75905928938407,0 74.4840534355763,21.75909945130168,0 74.48412959289325,21.75913998434414,0 74.48413289049113,21.75914904091053,0 74.48417854041253,21.75920378859933,0 74.4841819143647,21.75921298000582,0 74.48428706168497,21.75928723571451,0 74.48429491647779,21.75929660592185,0 74.48433917844164,21.75933902318847,0 74.48446229559194,21.75938665383975,0 74.48446604791135,21.75939623723671,0 74.48446887418694,21.75942028528268,0 74.484553550637,21.75947855388159,0 74.48461103917101,21.75947856671338,0 74.48469121642191,21.75946395065275,0 74.48477994773535,21.75944938425931,0 74.48478876331943,21.75944938622651,0 74.48485580081372,21.75940592689658,0 74.48488607830028,21.75943003353638,0 74.48488599266061,21.75943486921765,0 74.48484530900208,21.75948350780994,0 74.48482185238176,21.75953763273268,0 74.48482111832442,21.75956743502379,0 74.48484256177876,21.75960748469697,0 74.48485560292001,21.75962764349917,0 74.4849273441917,21.75964283566214,0 74.4849318476483,21.75964283669446,0 74.4850309309208,21.75963779520317,0 74.48513890166129,21.75963276139489,0 74.48521480576903,21.75960254474564,0 74.4853076453939,21.75955758955536,0 74.48534202110358,21.75951799112831,0 74.48534530450371,21.75948362045516,0 74.48542582543159,21.75940124971931,0 74.48552021154519,21.75936302206006,0 74.48553304334236,21.75935826700523,0 74.48558883576978,21.75927350504733,0 74.48560060982653,21.75925488959313,0 74.48568772739328,21.75920870868474,0 74.48575334348975,21.75917211380536,0 74.48575296934624,21.7591675592787,0 74.48586132548282,21.75909535913098,0 74.48590608461072,21.75907750121113,0 74.48600295998209,21.7590375912034,0 74.48613965074691,21.75898931990092,0 74.48617735923632,21.75895887574536,0 74.48622128742198,21.75891576036428,0 74.4864015497448,21.75890294686387,0 74.48640982566721,21.75890294860848,0 74.48648815543848,21.7588773797503,0 74.48658636486617,21.75883626217863,0 74.48668282758446,21.75880157035395,0 74.48678407595453,21.75872324567376,0 74.48683255610128,21.75872325466197,0 74.48685589765346,21.75873297723473,0 74.48692787624664,21.75874273008001,0 74.48701033386286,21.75876228831343,0 74.48706643670728,21.75876719789289,0 74.48713208272505,21.75881649756013,0 74.48718223023455,21.75887637247632,0 74.48724128920941,21.75890661579637,0 74.48726277359705,21.7589779514893,0 74.48730507709752,21.75902440926614,0 74.48733217843498,21.75906086863044,0 74.48732949393924,21.75907133658798,0 74.48733597234124,21.75908183004342,0 74.48732789516978,21.7591134481312,0 74.48735535046302,21.75915061673764,0 74.48744568144143,21.7591399861746,0 74.48756927925434,21.75912408340729,0 74.48757388464759,21.75912408431472,0 74.48765224360304,21.75910294794207,0 74.48767981666995,21.75908189736757,0 74.48777978507152,21.75899863815661,0 74.48783466719597,21.75895245834875,0 74.48788495543104,21.75892700676276,0 74.48788946363571,21.75892700763769,0 74.48795586094643,21.75888657586342,0 74.4879884993244,21.75885648329121,0 74.48803429748521,21.7588265920778,0 74.48808246595009,21.75878211992362,0 74.48815937887431,21.75874784010817,0 74.48821288143911,21.75871866284876,0 74.48826398988147,21.75867524693802,0 74.48832843175843,21.75862750207018,0 74.48841178859156,21.75859439267561,0 74.48845057677859,21.75856620437016,0 74.48849472349693,21.75852889867499,0 74.48860892845873,21.7584781293195,0 74.48868715893155,21.75846897266022,0 74.48877294906895,21.75842795704476,0 74.48890163935744,21.75841891545118,0 74.48896743417394,21.75839634723719,0 74.48898366085221,21.75840536817251,0 74.48902828235614,21.7584325442503,0 74.48904717550757,21.75846446136095,0 74.48905076325708,21.75847362362456,0 74.48905366834545,21.75849200565109,0 74.48906779919436,21.75853365311059,0 74.48911542197888,21.75860600064356,0 74.48921016844075,21.75862976994063,0 74.48926925791685,21.7586656754754,0 74.48927043628044,21.75867369609195,0 74.48930981193439,21.75872216036216,0 74.48932687921898,21.75875479153676,0 74.48932672678255,21.75876709465818,0 74.48931969757093,21.758787681108,0 74.48931263301748,21.75880837104651,0 74.48934062475819,21.75885846159875,0 74.48937868386679,21.75889219794352,0 74.48952731378752,21.7589304979153,0 74.48956689696639,21.75899074949374,0 74.48956996456278,21.7590081226224,0 74.48961022774481,21.75906950170167,0 74.48961181953074,21.75907834238113,0 74.4896807218184,21.75913178472864,0 74.48967944160663,21.75913626739014,0 74.4897675398939,21.75918590510636,0 74.48977180106104,21.75918590581604,0 74.48983523395857,21.75923611755635,0 74.48987713747361,21.75927300336676,0 74.48987545633221,21.75929621204663,0 74.48991189407086,21.75935714468397,0 74.48990951326506,21.75936659312415,0 74.48990473626613,21.75938555106054,0 74.48993416380199,21.75944292565488,0 74.49005231764886,21.75950106700457,0 74.49010421854874,21.75950595384143,0 74.49014074072863,21.7595206255924,0 74.49019552375312,21.75957482240044,0 74.49027402451219,21.75960467033099,0 74.4903167088426,21.75961466655458,0 74.49035753022359,21.75963471749881,0 74.49038408606236,21.75965990206567,0 74.49043049617899,21.75970049027242,0 74.49045557944068,21.75973630046869,0 74.4904563706188,21.75975688730984,0 74.4904999571924,21.75979314524721,0 74.49055748759262,21.75980356551482,0 74.49065546318472,21.75981924228151,0 74.49072548559019,21.75984021633431,0 74.49079582615911,21.75986128571871,0 74.49086188148438,21.75988245023579,0 74.49102328989368,21.75991972954841,0 74.49103191249988,21.75992507681021,0 74.49110594058983,21.75992509079863,0 74.49116289684576,21.75986663340441,0 74.49117479688746,21.75984030000293,0 74.49118098926198,21.7598245712417,0 74.4913849383659,21.75973647097504,0 74.49138947190541,21.75973647181638,0 74.49144916760019,21.75972622386831,0 74.49145822461868,21.75972622554938,0 74.4915365308273,21.75970579061421,0 74.49154621613694,21.75969560188133,0 74.49162069347727,21.7595750780365,0 74.49173042263837,21.75951112610445,0 74.49181580552033,21.75947222365236,0 74.4918203753527,21.75946738353636,0 74.49194051112586,21.75940494826276,0 74.49195380755859,21.75939541958001,0 74.49207633101969,21.75934338568386,0 74.49215446859867,21.7593528185605,0 74.49228904691363,21.7593481304806,0 74.49229773036483,21.75934813202796,0 74.4923193359835,21.75934342887713,0 74.49246164082565,21.75931999462702,0 74.49262230117867,21.7593293920841,0 74.49263557075459,21.75933408639884,0 74.49272047392583,21.75937181887469,0 74.49273451406081,21.75938604917793,0 74.49279772854864,21.75941465457692,0 74.49279809102039,21.75941943833648,0 74.4928897548242,21.75946757810981,0 74.49296851369307,21.7594627567588,0 74.49301545860992,21.75947740695272,0 74.49307084562354,21.75950660130464,0 74.49312125937617,21.75952617262765,0 74.4932042304638,21.75958043001998,0 74.49331398287738,21.75962531977952,0 74.4933229389129,21.75962532110284,0 74.49339580319094,21.75963536455547,0 74.49354236097705,21.75962535362847,0 74.49361546874,21.75963539722731,0 74.49368129835061,21.75965553933387,0 74.49373696512366,21.75968083910202,0 74.49377938855498,21.75970627808078,0 74.49384157263268,21.75972673604892,0 74.49395447673368,21.75976275926125,0 74.49401103295688,21.75973702050494,0 74.49401233864978,21.75973188852968,0 74.49407179401261,21.75971142611306,0 74.49413508255334,21.75971143578912,0 74.49422625801483,21.75974733523913,0 74.49427269646974,21.75976280828198,0 74.49438083478013,21.75978871765805,0 74.49443205881789,21.75978353546236,0 74.49449090623382,21.75976284216662,0 74.49464020783633,21.75974225569587,0 74.49469010280764,21.75974226348487,0 74.49488193054998,21.7598200609801,0 74.49488943535044,21.75983053087191,0 74.49495340859325,21.7598620898188,0 74.49507559342997,21.7599098376948,0 74.49508021214979,21.75990983844374,0 74.4951791331607,21.75996885897699,0 74.4952444333238,21.76000680764644,0 74.49533840540627,21.7600891589192,0 74.49547021506449,21.76008918112451,0 74.49567419719907,21.76006711919936,0 74.49588918741017,21.76008925236309,0 74.49609058307151,21.76012820459408,0 74.49609530997526,21.76012820541411,0 74.49617981832959,21.76016183221658,0 74.49627820804463,21.7601353705458,0 74.49642554483968,21.76010927859988,0 74.49658379250664,21.76010930160401,0 74.49671651676269,21.76010932105886,0 74.49673183111908,21.76010932331312,0 74.49683385149784,21.76007688137794,0 74.49693328101156,21.76005107697122,0 74.49702336639677,21.76003822925248,0 74.49719245388461,21.76003183596787,0 74.49719752055103,21.76003183672584,0 74.49722968352377,21.76002543108448,0 74.49732763000875,21.75999988390162,0 74.49741828596977,21.75996179296584,0 74.4975788799368,21.75994287119054,0 74.49763008369948,21.75991772705261,0 74.49769039913549,21.75987401864131,0 74.49797231710546,21.75986163970499,0 74.49799722944769,21.75986164349662,0 74.49800719420953,21.75986164501455,0 74.49817392287713,21.75984927941472,0 74.49817889927965,21.75984928017789,0 74.49828946062541,21.75984311302865,0 74.4983093539921,21.75984311609489,0 74.49842276156971,21.75981847274008,0 74.49860083769775,21.75978784361813,0 74.49869235177333,21.75976955348611,0 74.49880059412585,21.759733161686,0 74.49882101595422,21.75972712254478,0 74.49889685432346,21.75970905131201,0 74.49897111450623,21.75970304977846,0 74.49902015646626,21.75970305741649,0 74.4991280490851,21.75970307427948,0 74.49913785755338,21.75970307581652,0 74.49915747450414,21.75970307889264,0 74.4992686731501,21.75966120762599,0 74.49935545429877,21.75960788112471,0 74.49947340685446,21.75958437715976,0 74.49948309802859,21.75958437867059,0 74.49959643990192,21.75954350203327,0 74.49968416550176,21.75952030028595,0 74.49969881512581,21.75951451595173,0 74.49988711935812,21.75947423057218,0 74.49999758744251,21.75942290256523,0 74.50001190643532,21.75941723329681,0 74.5001446488419,21.75935530509599,0 74.50020561916492,21.75932185875277,0 74.50024736678327,21.75928864241042,0 74.50031599484115,21.75922289667658,0 74.50032050491143,21.75921745871201,0 74.50042539558885,21.75915806020349,0 74.50043422365526,21.7591473392179,0 74.50053330424086,21.75909410808566,0 74.50054223024939,21.75908881807646,0 74.50062341113842,21.75906246340867,0 74.50062799894326,21.75906246408459,0 74.50075782953604,21.75902060572261,0 74.5008410280463,21.75897911655976,0 74.50084967127435,21.7589739563477,0 74.50087192958431,21.75896880390462,0 74.50097275598394,21.75893288996102,0 74.50097727986345,21.75893289061644,0 74.50105365327993,21.75888711851866,0 74.50105759338985,21.75888206032781,0 74.50111406133232,21.7588267907572,0 74.50121937965936,21.75877713264466,0 74.50122318117073,21.75877219586427,0 74.50129224413774,21.75875742607594,0 74.50139280999295,21.75877715713133,0 74.50143651706402,21.75877222597021,0 74.50145315861919,21.75870853245491,0 74.50150017051799,21.75854187351276,0 74.50159050106485,21.75849866064779,0 74.50164357077178,21.75823750035945,0 74.50176364999494,21.75810716636038,0 74.50180268977105,21.758011311556,0 74.50178236594749,21.75790147339535,0 74.50180793287204,21.75778612384915,0 74.50183652402855,21.75762114801055,0 74.50186428232165,21.75746097695958,0 74.50186676576017,21.75744664696245,0 74.50189866637442,21.75735442001947,0 74.50196274994363,21.75725684450775,0 74.50196915913131,21.7572499429514,0 74.50205802341264,21.75715425318384,0 74.50213604492781,21.75708695370804,0 74.50215876340687,21.75707359791128,0 74.50227755478876,21.75700074537386,0 74.50236586290637,21.75691593839934,0 74.50237181359198,21.75690947204722,0 74.50239554211525,21.7568836876662,0 74.50241832413502,21.75686443474019,0 74.50248190906933,21.75680077515521,0 74.50259114046898,21.75672542501069,0 74.50260822491124,21.7567067600288,0 74.50277096014506,21.75657196782676,0 74.50277646630904,21.75656592621884,0 74.50280766584039,21.75654784730973,0 74.50284149758689,21.75639384338683,0 74.50297170414142,21.75633589117045,0 74.50313907045256,21.75634745185423,0 74.50320638371718,21.75634746071566,0 74.50330254598626,21.7563474734249,0 74.50339932066139,21.75633018817032,0 74.50340412026731,21.75633018880683,0 74.50345792916553,21.75629578360055,0 74.50352578305871,21.75625595179683,0 74.50358860823845,21.75619961046099,0 74.50362729950216,21.75613285987562,0 74.50369809069245,21.75607794585833,0 74.5037913937921,21.75603988733285,0 74.50380067284689,21.75603447488401,0 74.50386989102022,21.7559913975654,0 74.50392957559998,21.75596467593445,0 74.50396601839972,21.75594340670509,0 74.50400555074432,21.7558749358567,0 74.50400997443413,21.75586971067459,0 74.50407046808435,21.75577153853872,0 74.50421312086338,21.75573083759735,0 74.50422186137861,21.75572577434106,0 74.50423958912118,21.75572071778089,0 74.50426599871707,21.75571062041596,0 74.50434868536914,21.7556704513393,0 74.50438235442796,21.75564055338039,0 74.50441432738442,21.75559115728605,0 74.50443234550144,21.75553744074191,0 74.50443637581411,21.75553258954213,0 74.50446494025158,21.75545091542803,0 74.50446455113013,21.75544615743116,0 74.50447566506314,21.7554224455993,0 74.50455613096085,21.75535207351827,0 74.50456044726624,21.75535207398825,0 74.5046376870586,21.75530578364228,0 74.50469098814611,21.75528282359726,0 74.50474079024485,21.75526910764347,0 74.5047808033457,21.75524633941655,0 74.50482259056513,21.75520565407625,0 74.5048518919678,21.75516980934897,0 74.50488515840499,21.75513426302244,0 74.50492408614568,21.75508149326456,0 74.50496756458149,21.75506405147064,0 74.50497500496779,21.75502937477576,0 74.50503055718943,21.75501214814514,0 74.50508724171496,21.7550293859546,0 74.5051095360003,21.75509026225155,0 74.50511470019015,21.75512866966023,0 74.50512949889223,21.75518772483528,0 74.50557027915713,21.75577879845724,0 
					</coordinates>
				</LinearRing>
			</outerBoundaryIs>
		</Polygon>
		<atom:link rel="app" href="https://www.google.com/earth/about/versions/#earth-pro" title="Google Earth Pro 7.3.6.10201"></atom:link>
	</Placemark>
</Document>
</kml>
