<?xml version="1.0" encoding="UTF-8"?>
<kml xmlns="http://www.opengis.net/kml/2.2" xmlns:gx="http://www.google.com/kml/ext/2.2" xmlns:kml="http://www.opengis.net/kml/2.2" xmlns:atom="http://www.w3.org/2005/Atom">
<Document>
	<name>निंदरडा_१०६_१०७_693.kml</name>
	<StyleMap id="m_ylw-pushpin">
		<Pair>
			<key>normal</key>
			<styleUrl>#s_ylw-pushpin</styleUrl>
		</Pair>
		<Pair>
			<key>highlight</key>
			<styleUrl>#s_ylw-pushpin_hl</styleUrl>
		</Pair>
	</StyleMap>
	<Style id="s_ylw-pushpin">
		<IconStyle>
			<scale>1.1</scale>
			<Icon>
				<href>http://maps.google.com/mapfiles/kml/pushpin/ylw-pushpin.png</href>
			</Icon>
			<hotSpot x="20" y="2" xunits="pixels" yunits="pixels"/>
		</IconStyle>
		<LineStyle>
			<color>d600ffff</color>
			<width>2.8</width>
		</LineStyle>
		<PolyStyle>
			<color>8affffaa</color>
		</PolyStyle>
	</Style>
	<Style id="s_ylw-pushpin_hl">
		<IconStyle>
			<scale>1.3</scale>
			<Icon>
				<href>http://maps.google.com/mapfiles/kml/pushpin/ylw-pushpin.png</href>
			</Icon>
			<hotSpot x="20" y="2" xunits="pixels" yunits="pixels"/>
		</IconStyle>
		<LineStyle>
			<color>d600ffff</color>
			<width>2.8</width>
		</LineStyle>
		<PolyStyle>
			<color>8affffaa</color>
		</PolyStyle>
	</Style>
	<Placemark>
		<name>निंदरडा_१०६_१०७_693</name>
		<styleUrl>#m_ylw-pushpin</styleUrl>
		<Polygon>
			<tessellate>1</tessellate>
			<outerBoundaryIs>
				<LinearRing>
					<coordinates>
						74.03814572892452,21.18865347071954,0 74.03812954083942,21.18848276064062,0 74.03811336170077,21.18831212633698,0 74.03811087470005,21.18805891298569,0 74.03809470613754,21.18788846649878,0 74.03802818468803,21.18775419510309,0 74.03806923332097,21.18750653465413,0 74.03801642842285,21.18728990559286,0 74.03804378260932,21.18712498331056,0 74.03793385557181,21.18698578729918,0 74.03796121709982,21.18682099586289,0 74.03794510599458,21.18665109522069,0 74.03792900358452,21.18648127092181,0 74.03791290826872,21.18631152035962,0 74.0378968178709,21.18614184440201,0 74.03788073634466,21.18597224346662,0 74.03790807204614,21.18580789354898,0 74.03794222416953,21.18560255922787,0 74.03796953218402,21.18543837231928,0 74.03799682790782,21.18527425777427,0 74.03802411134998,21.18511021554056,0 74.03806501331321,21.18486428881214,0 74.03804210610798,21.1847362166502,0 74.03798949666731,21.18452113402909,0 74.0379734272054,21.18435225315633,0 74.03795736263606,21.18418344625765,0 74.03799142512312,21.18397899864839,0 74.03792525783443,21.18384605649444,0 74.03791602589668,21.18363662789253,0 74.03795007463457,21.18343247571658,0 74.03796368882094,21.1833508460064,0 74.03796125809883,21.18310090590236,0 74.03799526915292,21.18289704630763,0 74.03801566669524,21.18277478388863,0 74.03804964726972,21.18257110316353,0 74.03808360891269,21.18236753352868,0 74.03811076444363,21.18220475872333,0 74.03805830847817,21.18199108727845,0 74.03804906172617,21.18178268325287,0 74.03803303393147,21.18161501190863,0 74.03796706265285,21.18148287138134,0 74.03800778129991,21.18123930635006,0 74.03798498939487,21.18111243801471,0 74.03801212034796,21.18095020468473,0 74.03800289540899,21.18074236879892,0 74.03803678499467,21.18053978891427,0 74.03802078465787,21.18037266361533,0 74.03801156537111,21.18016514495293,0 74.03799557600139,21.17999818319865,0 74.03797959538232,21.17983129450364,0 74.03797039306734,21.17962407048426,0 74.03791137671783,21.17945221021881,0 74.03793846234868,21.1792906928785,0 74.03797230253251,21.17908889456078,0 74.03796310812881,21.17888207559711,0 74.03790415243604,21.17871054533162,0 74.03793121211967,21.17854934758218,0 74.03782930109607,21.17837283651387,0 74.03777717927481,21.17816127661987,0 74.03776804970437,21.17795495697845,0 74.03780187526093,21.17775387325177,0 74.03784244112695,21.17751271705722,0 74.03787622535121,21.17731187377294,0 74.03790999081528,21.17711113962501,0 74.03802279669073,21.17696086767349,0 74.03816498044124,21.17689599197182,0 74.03829367830244,21.1769113456012,0 74.03852160574712,21.17685671720269,0 74.03873607793219,21.17688230346106,0 74.03888484527863,21.17677735438874,0 74.03904024767546,21.17663236058988,0 74.03915271421319,21.17648231577614,0 74.03938704380208,21.17638772130361,0 74.03953558929877,21.17628293285893,0 74.03972693392255,21.176183290477,0 74.03983916957696,21.17603344909606,0 74.03995135402427,21.17588367269192,0 74.0400996924713,21.17577904598228,0 74.0402545895775,21.17563448931774,0 74.04032381585725,21.17547978266354,0 74.0402646313028,21.17530982704119,0 74.04041279652373,21.17520537884116,0 74.04056091298771,21.17510096467446,0 74.04066620972397,21.17499148163771,0 74.04074185238768,21.17479718545519,0 74.04066948451181,21.1747072540766,0 74.04069578156562,21.17454784917973,0 74.04080754128518,21.17439871092571,0 74.04095542313439,21.1742945465108,0 74.04113943339316,21.17423531705086,0 74.04137265664247,21.17414140041129,0 74.04156309295665,21.17404241856859,0 74.04166154284199,21.17397305148608,0 74.04182218781777,21.17378951235026,0 74.04196975757672,21.17368554799906,0 74.04216644329792,21.17354698135175,0 74.04232037311679,21.17340338374081,0 74.0424315751126,21.17325475844003,0 74.04257892428208,21.17315096479206,0 74.04273267177382,21.17300753799048,0 74.04280108609586,21.17285400018516,0 74.04294828649259,21.17275033297405,0 74.04305924457987,21.17260199314443,0 74.04317015242047,21.17245371691681,0 74.04327460381197,21.1723450932757,0 74.04346420813991,21.17224666843974,0 74.04348979894945,21.17208838744052,0 74.04342382992222,21.17195956137412,0 74.04340684936044,21.17179632260004,0 74.04343883211558,21.17159871994351,0 74.04347079735352,21.17140122350951,0 74.04350274508995,21.17120383320463,0 74.0435346753405,21.17100654893559,0 74.04356658812073,21.17080937060923,0 74.04359848344622,21.17061229813249,0 74.04363036133257,21.17041533141244,0 74.04361337244312,21.17025276565206,0 74.04360276322603,21.17005092317273,0 74.04371316231546,21.16990371232655,0 74.04373861592836,21.16974643426497,0 74.04384893961928,21.16959935241059,0 74.04387435270712,21.16944220703319,0 74.04389340524274,21.1693243921881,0 74.04361765561049,21.16889147275245,0 74.04354558158556,21.16880292092871,0 74.0434014817935,21.168625872914,0 74.04320868346387,21.1684830212506,0 74.04305832251084,21.16834527229733,0 74.04303511330093,21.16822273457137,0 74.0430734240246,21.16798788606141,0 74.04309895065445,21.16783140367999,0 74.04313084330408,21.16763589473746,0 74.0431627185033,21.16744049074186,0 74.04327283131558,21.16729434136719,0 74.04346115253372,21.16719739315903,0 74.04367902521889,21.16718359466202,0 74.04378264510025,21.16707658875159,0 74.04388623142762,21.16696961710972,0 74.04395382447706,21.16681863234671,0 74.04414820596513,21.16668284566924,0 74.04425797548058,21.16653703002606,0 74.04439735943211,21.16647423132375,0 74.04458525451402,21.166377537335,0 74.04461039363916,21.16622177475468,0 74.04476222111668,21.16608119800757,0 74.04492024724301,21.1659017823179,0 74.04506567975567,21.16580022466929,0 74.04525327261968,21.16570373573622,0 74.04548300708277,21.16561231372453,0 74.0455860845567,21.16550581552786,0 74.04569534402673,21.1653605137084,0 74.04579834854782,21.16525409479358,0 74.04591372589624,21.16507009597847,0 74.04605881027979,21.16496880084265,0 74.04620384706494,21.16486753674713,0 74.04634266165169,21.16480507511238,0 74.0465235908123,21.1647476558957,0 74.04670448092301,21.16469024870037,0 74.04687918599049,21.16467160619112,0 74.04710214037929,21.16461924342893,0 74.04727067101578,21.16463935396965,0 74.0474514315044,21.16458197267591,0 74.04761994253892,21.16460208047864,0 74.04776462009316,21.16450094932737,0 74.04798130983002,21.16448735026189,0 74.04811374363072,21.16446370036581,0 74.04837856827442,21.16441640774442,0 74.04863728756754,21.16440783847763,0 74.04885387211407,21.16439424554906,0 74.04907043212911,21.16438065358187,0 74.04929298197403,21.16432835739711,0 74.04950348245261,21.16435347298691,0 74.04967188311406,21.16437356523208,0 74.04988238285716,21.16439868008437,0 74.05000868270366,21.16441374882255,0 74.05021918277431,21.16443886313637,0 74.0504237297589,21.16450268942107,0 74.05054409010896,21.1645564757006,0 74.05079078238518,21.16462533769688,0 74.05094735860739,21.16472289165849,0 74.05110396803008,21.16482046601547,0 74.05123031375756,21.16483553881963,0 74.05147120887899,21.16494318322343,0 74.05163379763096,21.16500203921826,0 74.05179640353825,21.16506090118281,0 74.0520070232278,21.16508602632591,0 74.05217551932887,21.16510612622591,0 74.05238613845927,21.16513125066189,0 74.05251250998529,21.16514632515841,0 74.05268100550872,21.16516642430639,0 74.0529337479699,21.16519657250314,0 74.05310224304064,21.16521667102788,0 74.05326493441106,21.16527554520864,0 74.05343343813898,21.16529564429409,0 74.05364406684681,21.16532076771757,0 74.0538067953126,21.16537964970668,0 74.05397530751931,21.16539974904892,0 74.05413230297201,21.16549743154016,0 74.05430083288451,21.16551753251028,0 74.05450001723764,21.16562026310895,0 74.05466283412539,21.16567917527257,0 74.05482566779628,21.1657380933806,0 74.05498851921747,21.16579701755004,0 74.0551513874358,21.16585594766881,0 74.05531427341853,21.1659148838539,0 74.05547717621236,21.16597382599326,0 74.05563441583587,21.16607161907181,0 74.05584518911215,21.16609675570514,0 74.05577710555831,21.16656323122185,0 74.0559401634317,21.1666222539891,0 74.05610323912956,21.16668128285044,0 74.0562663316977,21.16674031769372,0 74.05642379817954,21.16683827938294,0 74.05663476206591,21.16686343706082,0 74.05674445986898,21.16699532452288,0 74.05685419227838,21.16712725444594,0 74.05700617282538,21.16726426011983,0 74.05716381092445,21.16736233325843,0 74.05731588173809,21.16749941248131,0 74.05747359499671,21.16759753686039,0 74.05762575617379,21.16773468970866,0 74.05773572399912,21.16786684866283,0 74.05793579670582,21.16797009086429,0 74.05810478455282,21.16799024057294,0 74.05829042688362,21.16789330376182,0 74.05843377599452,21.16779136257365,0 74.0585770790825,21.16768945329293,0 74.05872586094473,21.16754859100737,0 74.05878464168994,21.16743669295132,0 74.0588489198047,21.16728587313129,0 74.05899204877626,21.16718412014043,0 74.05905625831556,21.16703341071718,0 74.05912044043811,21.16688276485081,0 74.05922127144571,21.16677610747305,0 74.05936971632971,21.16663562722222,0 74.05947046960395,21.1665290487803,0 74.05961880556427,21.16638867194084,0 74.05972494200154,21.16624333080572,0 74.05982557911264,21.16613687691659,0 74.05997375227402,21.16599666505882,0 74.06011642559565,21.16589531201,0 74.06022237641965,21.16575018327694,0 74.06040163558924,21.16569270012779,0 74.06058626566431,21.16559646085771,0 74.0606920652309,21.16545146445903,0 74.06079781965514,21.16530652949275,0 74.06094559551514,21.16516667222299,0 74.06109330839642,21.16502687298831,0 74.0611989096614,21.16488211986699,0 74.06134114412329,21.16478111348403,0 74.06148868625968,21.16464147694596,0 74.06166750503544,21.16458420805873,0 74.06176757460368,21.16447828698236,0 74.06191495529666,21.16433878058853,0 74.06206227326325,21.16419933307784,0 74.06216753349584,21.16405493810765,0 74.06230943184671,21.16395419013175,0 74.06245657963252,21.16381490569289,0 74.06256169449554,21.1636706756398,0 74.06270344706108,21.16357004670025,0 74.0627665154763,21.16342092019718,0 74.06290818272493,21.16332036780651,0 74.06304454628827,21.16325835041361,0 74.06319138174526,21.16311935916783,0 74.06341677016285,21.1630288977003,0 74.06359493847891,21.16297193729082,0 74.06376263371021,21.1629919265362,0 74.06392511943487,21.16305039164611,0 74.06403528567684,21.1631808391374,0 74.06419262380527,21.16327782448171,0 74.0643028621115,21.1634083411137,0 74.06441313560386,21.16353890011388,0 74.06448148691918,21.1636644994201,0 74.06463378818717,21.16380014200497,0 74.06479130748481,21.16389726381043,0 74.0649540213477,21.1639558371939,0 74.06506446935398,21.16408656528134,0 74.06525892131849,21.16422734260009,0 74.06537459434692,21.1643195495789,0 74.06552715231938,21.1644553955196,0 74.06572176143223,21.16459629030263,0 74.06587953993784,21.16469358242226,0 74.06599534088316,21.1647858881182,0 74.06619009784356,21.16492688694374,0 74.06630596316104,21.16501924156029,0 74.06649065002028,21.16523768883328,0 74.06668559078777,21.16537883353515,0 74.0667964992779,21.16551000115436,0 74.06686031985545,21.16567493229661,0 74.06692923507549,21.16580118293266,0 74.06699310841246,21.16596623708021,0 74.06701999187246,21.16608756525985,0 74.06717314063413,21.16622397908726,0 74.06723710034854,21.16638921049413,0 74.06730613827882,21.16651568858734,0 74.06737519886498,21.16664220700561,0 74.06748135295284,21.16681263386094,0 74.06758755267543,21.16698313199732,0 74.06769379826241,21.16715370371112,0 74.06780511838116,21.16728544636834,0 74.06791647432047,21.16741723098732,0 74.06802786610076,21.16754905759181,0 74.06809211557425,21.16771484187842,0 74.06820357746213,21.1678467649865,0 74.06831507525322,21.16797873015787,0 74.06846879370556,21.16811576413454,0 74.06873916739259,21.16834592664936,0 74.0689302476666,21.16852712767985,0 74.06903200903072,21.16873738871191,0 74.06914376041566,21.16886963593008,0 74.06920338822863,21.16907504538437,0 74.06926801127008,21.16924146467094,0 74.06924815585332,21.16939788621271,0 74.06922829198597,21.16955437447448,0 74.0692506907087,21.16971596576178,0 74.06927309952837,21.16987762664729,0 74.06933284222221,21.17008357865111,0 74.06935527967718,21.17024539575546,0 74.06938269061618,21.17036806419944,0 74.06944250204111,21.1705742793333,0 74.06950730559872,21.17074134867604,0 74.06957213671136,21.17090848886854,0 74.06959465012757,21.17107065546619,0 74.06961717288952,21.17123289084749,0 74.06963970582957,21.17139519628183,0 74.06960995590292,21.17163120979152,0 74.06950533731643,21.17177853532298,0 74.0694430700114,21.17193097561471,0 74.06938077653625,21.17208348066021,0 74.06927604136555,21.17223099748391,0 74.06921368526957,21.1723836320543,0 74.0691088692093,21.17253127625849,0 74.06896156638182,21.17267392627507,0 74.06886165981258,21.17278221779601,0 74.068676810234,21.17288042643082,0 74.06849190069592,21.17297866606648,0 74.06830693205913,21.17307693739264,0 74.0681219033909,21.17317523975712,0 74.0679368155876,21.17327357357191,0 74.06775674038772,21.17333239613168,0 74.06760895671663,21.17347539997634,0 74.06754612072056,21.17362859597065,0 74.06748325713556,21.17378185797967,0 74.0674203669825,21.17393518560852,0 74.0673574492377,21.17408857906661,0 74.06728940060489,21.17428168129333,0 74.06722642457881,21.17443522350435,0 74.06712085813261,21.17458375930813,0 74.06710039051657,21.17474250603105,0 74.06703221013228,21.17493596074747,0 74.06688906640694,21.17503990181621,0 74.06683107180856,21.17515402936262,0 74.06668784965956,21.17525803895157,0 74.0665394281032,21.17540184913347,0 74.06639610460492,21.17550593757025,0 74.06616748002648,21.1755998989726,0 74.06597622911654,21.17573877817622,0 74.06574225007152,21.17587263456425,0 74.06559868892273,21.17597687713572,0 74.06549252489668,21.17612608867054,0 74.06542898618159,21.17628045040072,0 74.06540810001273,21.17643996553496,0 74.06538197958912,21.17663945646742,0 74.06527567082045,21.17678894798749,0 74.06524950179914,21.17698863014827,0 74.06522855638907,21.17714845358714,0 74.06520236187558,21.17734833009717,0 74.06518139605568,21.17750830913843,0 74.06511766924358,21.1776632619047,0 74.06501115308681,21.17781318506785,0 74.06499013210605,21.17797336863802,0 74.06488354198594,21.17812342371888,0 74.06477690578917,21.17827354383206,0 74.06463270390927,21.17837852516746,0 74.06448845504035,21.17848354057929,0 74.06438167476445,21.17863381987297,0 74.06436049171602,21.17879437216386,0 74.06433399995343,21.17899516054744,0 74.06431279618867,21.17915586961765,0 74.06428627850995,21.17935685413213,0 74.06426505397704,21.17951772037394,0 74.06423851034066,21.17971890133331,0 74.06422257724391,21.17983966223998,0 74.06449097138852,21.18011709312416,0 74.06459848835385,21.18029362400394,0 74.06465784525356,21.18050544373945,0 74.0647225250257,21.18067702905594,0 74.06474429634092,21.18084357137252,0 74.06471783888512,21.18104545251066,0 74.06469136701526,21.18124744353831,0 74.06465958171934,21.18148997802056,0 74.06455241353052,21.18164150907922,0 74.06444519798771,21.1817931063407,0 74.06441862418349,21.18199551019221,0 74.06435434048127,21.18215238534597,0 74.06432772874936,21.18235498678309,0 74.06430642897455,21.18251714694269,0 74.06427979107123,21.18271994741322,0 74.064253138685,21.18292285802549,0 74.06422647165284,21.18312588002028,0 74.06419979011176,21.18332901235446,0 74.0642108497281,21.1835780553388,0 74.06427570153522,21.18375102492579,0 74.06425968931195,21.18387309387246,0 74.06415743133661,21.18398492335559,0 74.06396888535194,21.18408650825529,0 74.06373714311368,21.18418298427971,0 74.06349994115409,21.1843202398285,0 74.06343524801822,21.18447812994232,0 74.06345685190429,21.18464637966948,0 74.06348385354089,21.18477390180702,0 74.06362963341655,21.18499854144103,0 74.06369448547298,21.18517216428529,0 74.06379719274027,21.18539187431276,0 74.06381890118743,21.18556051831913,0 74.06379201982914,21.18576498650611,0 74.06377050404855,21.18592864230238,0 74.06374359609559,21.18613331253986,0 74.06372205902197,21.1862971301079,0 74.06368973572015,21.18654299086741,0 74.0636627832709,21.18674799916069,0 74.06363581598806,21.18695312015025,0 74.06360883401014,21.1871583527826,0 74.06358723760754,21.18732262109489,0 74.06352771189904,21.18744070574292,0 74.06350608926984,21.18760509947931,0 74.06347904757511,21.18781069346666,0 74.06344657801053,21.18805755455983,0 74.06342491959265,21.18822222006082,0 74.06339241403856,21.18846935444459,0 74.06332191536829,21.1886702519672,0 74.06329478414146,21.18887643324153,0 74.06326763777378,21.18908272943333,0 74.06324047640435,21.18928913948577,0 74.06318617256422,21.18936655780659,0 74.06286030614211,21.18949555076811,0 74.06262667455435,21.18959362850769,0 74.06247440373116,21.18974344549635,0 74.06237102334086,21.18985714704557,0 74.06227310194789,21.18992951419772,0 74.06207168869298,21.19011568563932,0 74.06196267183522,21.19027091747867,0 74.0618971112231,21.19043140515288,0 74.06178248219118,21.1906282240485,0 74.06171684885727,21.19078887071636,0 74.061607650515,21.19094439876097,0 74.06149840359639,21.19109999447494,0 74.06138910824954,21.19125566030322,0 74.06124176066982,21.19136466544232,0 74.06113793418567,21.1914789006648,0 74.06051549997396,21.19182704511068,0 74.06013440776682,21.19169710955808,0 74.05997132187181,21.19159318200002,0 74.0598026289297,21.19153083566361,0 74.05959037538658,21.19146330121342,0 74.05934590572191,21.19130749023039,0 74.05913372485567,21.19123998311405,0 74.05901438792246,21.19114134444688,0 74.0588572110542,21.19099602365659,0 74.0587757936342,21.19094413268835,0 74.0585808508679,21.19075219931636,0 74.05841810098327,21.19064847884981,0 74.05830464394255,21.19050851111357,0 74.05814196993245,21.19040484631472,0 74.05797933203803,21.19030120444705,0 74.05777321130475,21.19019239761552,0 74.05761065041783,21.19008880214423,0 74.05743659422482,21.19006805288839,0 74.05727408870081,21.18996448258009,0 74.05711161921143,21.1898609351556,0 74.05686218669611,21.18974703937264,0 74.05666211073087,21.18959698187028,0 74.05649395682163,21.18953487775697,0 74.05629398634613,21.18938488849845,0 74.05607657257822,21.18935897019427,0 74.05590264155745,21.18933823551262,0 74.05564174504615,21.18930713342993,0 74.05546781387999,21.18928639864752,0 74.05529388240001,21.18926566379432,0 74.05504477504466,21.18915188976927,0 74.05487676631989,21.18908982925325,0 74.05471468761851,21.18898645791804,0 74.05454080448584,21.18896572863169,0 74.05436692076688,21.18894499924026,0 74.05411204030631,21.18887259608351,0 74.05390660933524,21.18876408409835,0 74.0537071892843,21.18861431259333,0 74.0535393378841,21.18855231215926,0 74.05338346946277,21.18840778813842,0 74.05321567292842,21.18834581264671,0 74.05304189427453,21.18832509536042,0 74.05281264477851,21.1883817125207,0 74.05250246757966,21.18838671489181,0 74.05228520768823,21.18836081377441,0 74.05211139940732,21.18834009279376,0 74.05189413908398,21.18831419151767,0 74.05172033094095,21.1882934704677,0 74.05151524217378,21.18818506310049,0 74.05135364128944,21.18808185989764,0 74.05118597348742,21.18801990836212,0 74.05102443521244,21.18791673905159,0 74.05086293300664,21.18781359246005,0 74.05065804060438,21.18770529127391,0 74.05049047546198,21.18764338402634,0 74.05032292866824,21.18758148351514,0 74.05015540021536,21.18751958973749,0 74.04994447423572,21.18745252656226,0 74.04982657329501,21.18735465160554,0 74.04956610248598,21.18732359757295,0 74.04943586689323,21.18730807049684,0 74.04926221890706,21.18728736762684,0 74.04904515834994,21.18726148890856,0 74.04882809841016,21.18723561019469,0 74.04866068778109,21.18717374832151,0 74.04853670316031,21.18711706843549,0 74.04827625850776,21.1870860169551,0 74.04805922019465,21.18706014051259,0 74.04788559043439,21.18703943941408,0 74.04776165468803,21.18698276970408,0 74.04763773249891,21.18692610617008,0 74.04734653002288,21.186807624496,0 74.04713585831996,21.1867406316912,0 74.04697493305204,21.18663770873982,0 74.04685742888675,21.18653998114246,0 74.046646841371,21.1864730210405,0 74.04643627766029,21.18640606824848,0 74.04626274974908,21.18638537855648,0 74.0460892215259,21.18636468877828,0 74.04587231154255,21.18633882652188,0 74.04569878260074,21.18631813654776,0 74.04556223092813,21.18634370294379,0 74.04530192262285,21.18631266610339,0 74.04512195328458,21.18633306037047,0 74.04494196368132,21.1863534568469,0 74.04472501497898,21.18632758968907,0 74.04455145502811,21.186306895791,0 74.04437789472048,21.18628620180247,0 74.0441609445687,21.18626033427718,0 74.04403077400519,21.18624481366974,0 74.04377043225111,21.18621377229924,0 74.04359687028152,21.18619307789693,0 74.04342330793003,21.18617238340118,0 74.04327353796853,21.18628012511611,0 74.04303690820038,21.18637755076391,0 74.04284361075587,21.18648018600144,0 74.04273052052758,21.18663434370362,0 74.04254367549363,21.18669591443022,0 74.04243706875278,21.18680901130508,0 74.04228038789145,21.18695813867496,0 74.04216709039807,21.18711251181319,0 74.04209059742755,21.18731334952568,0 74.04201405975851,21.18751429803682,0 74.04198758991187,21.1876792849133,0 74.04191761181488,21.1878391576472,0 74.04189110845735,21.18800428939266,0 74.0417775594224,21.18815911760099,0 74.04166395965689,21.18831401444907,0 74.04151342661643,21.18842244685358,0 74.04136284304994,21.18853091537326,0 74.04121220911495,21.18863941886579,0 74.04102465248138,21.1887013904199,0 74.04083035938579,21.18880476034333,0 74.04064270515411,21.18886676729319,0 74.04041815986349,21.18888219340489,0 74.04023042737469,21.18894421933001,0 74.04005613535412,21.18892343999983,0 74.03986834072313,21.18898547743007,0 74.03964368735593,21.18900091436081,0 74.03942578247039,21.18897493551361,0 74.03925145920498,21.18895415249073,0 74.03903355294044,21.18892817342467,0 74.03885922657422,21.18890738998854,0 74.03864132088732,21.18888141093689,0 74.03842341241955,21.18885543152346,0 74.03824908625836,21.18883464804401,0 74.0380311763368,21.1888086684028,0 74.03790729070329,21.18875167771138,0 74.03814572892452,21.18865347071954,0 
					</coordinates>
				</LinearRing>
			</outerBoundaryIs>
		</Polygon>
		<atom:link rel="app" href="https://www.google.com/earth/about/versions/#earth-pro" title="Google Earth Pro 7.3.7.1094"></atom:link>
	</Placemark>
</Document>
</kml>
