<?xml version="1.0" encoding="UTF-8"?>
<kml xmlns="http://www.opengis.net/kml/2.2" xmlns:gx="http://www.google.com/kml/ext/2.2" xmlns:kml="http://www.opengis.net/kml/2.2" xmlns:atom="http://www.w3.org/2005/Atom">
<Document>
	<name>Payarvihir.kml</name>
	<StyleMap id="msn_ylw-pushpin">
		<Pair>
			<key>normal</key>
			<styleUrl>#sn_ylw-pushpin</styleUrl>
		</Pair>
		<Pair>
			<key>highlight</key>
			<styleUrl>#sh_ylw-pushpin</styleUrl>
		</Pair>
	</StyleMap>
	<Style id="sh_ylw-pushpin">
		<IconStyle>
			<scale>1.2</scale>
		</IconStyle>
		<BalloonStyle>
		</BalloonStyle>
		<PolyStyle>
			<color>663cffbb</color>
		</PolyStyle>
	</Style>
	<Style id="sn_ylw-pushpin">
		<BalloonStyle>
		</BalloonStyle>
		<PolyStyle>
			<color>663cffbb</color>
		</PolyStyle>
	</Style>
	<Placemark id="0B6EB493B81F81F47B69">
		<name>Payarvihir</name>
		<styleUrl>#msn_ylw-pushpin</styleUrl>
		<Polygon>
			<outerBoundaryIs>
				<LinearRing>
					<coordinates>
						73.77675240000001,21.1085016,159.3 73.776719,21.1085441,165.4 73.7767087,21.1085621,165.4 73.77673900000001,21.10857,162.1 73.7767692,21.1085619,162.1 73.7767812,21.1085473,161.8 73.7768195,21.1085478,161.8 73.7768339,21.1085255,161.3 73.7768478,21.1085046,160.8 73.77687210000001,21.1084913,160.4 73.7768775,21.1084703,160.6 73.7768902,21.1084505,160.7 73.7769337,21.1084421,161 73.7769662,21.1084407,161.1 73.7769938,21.1084303,161.1 73.7770146,21.108425,161.2 73.77704230000001,21.1084275,161.3 73.7770812,21.1084272,161.8 73.77709,21.1084436,162.4 73.7771233,21.108464,162.9 73.7771494,21.1084854,163.3 73.7771843,21.1084826,163.9 73.77720410000001,21.1084914,164.4 73.77722439999999,21.1085012,164.6 73.7772442,21.1085088,164.9 73.7772677,21.108509,165.5 73.77728930000001,21.1085051,165.7 73.77730889999999,21.1084914,166 73.7773215,21.1084755,166.3 73.77733720000001,21.1084608,165.6 73.7773566,21.1084581,165 73.7773761,21.1084578,164.4 73.777402,21.1084785,163.9 73.77742910000001,21.1084792,163.6 73.7774498,21.1084559,163.6 73.7774673,21.108436,164.4 73.7774879,21.1084309,164.4 73.7775103,21.1084323,164.7 73.7775371,21.1084176,164.9 73.7775492,21.1083955,165.1 73.7775615,21.1083708,165.4 73.7775941,21.1083804,165.8 73.7776156,21.1083835,166.3 73.7776499,21.1083833,167.3 73.7776703,21.108382,167.9 73.7776927,21.1083776,168.3 73.7777212,21.108371,169 73.7777437,21.1083626,169.7 73.77776590000001,21.108362,170.3 73.7777875,21.1083715,170.7 73.7778127,21.1083922,172 73.77783119999999,21.1084137,172.3 73.7778623,21.1084191,172.2 73.77788200000001,21.1084194,172.4 73.77790640000001,21.1084233,172.5 73.7779341,21.1084488,173 73.7779597,21.1084597,173.3 73.7779922,21.1084524,174.1 73.77801719999999,21.1084479,174.7 73.77804860000001,21.1084467,175.3 73.7780767,21.1084369,175.9 73.7780884,21.1084206,176.1 73.7781097,21.108401,176.3 73.7781233,21.1083837,176.5 73.7781425,21.108369,176.9 73.77815630000001,21.108356,177.2 73.77814960000001,21.1083299,177.2 73.778148,21.1082963,177.2 73.7781466,21.1082687,176.8 73.77814290000001,21.1082463,176.6 73.7781359,21.1082248,176.3 73.77813980000001,21.1082013,176 73.7781468,21.1081809,175.9 73.77815459999999,21.1081593,175.3 73.7781705,21.1081451,174.8 73.7781805,21.1081153,173.6 73.7781682,21.108092,172.8 73.77814859999999,21.108082,171.9 73.7781287,21.1080739,171.5 73.77810940000001,21.1080612,171.1 73.7780894,21.1080537,170.6 73.778077,21.108035,169.3 73.7780908,21.1080189,169 73.7781002,21.1079997,168.3 73.77807249999999,21.1079708,167.7 73.7780444,21.1079568,167.4 73.77802320000001,21.1079385,166.3 73.7780286,21.1079141,165.8 73.7780552,21.107885,164.5 73.7780655,21.1078693,163.6 73.77806510000001,21.1078486,162.6 73.77807009999999,21.1078207,161.7 73.7781076,21.1078313,160.2 73.7781172,21.1078152,159.4 73.77811490000001,21.1077916,159.1 73.7781239,21.1077597,158.2 73.7781516,21.1077245,157.6 73.7781763,21.1077049,157.5 73.7781902,21.1076714,157.7 73.77820079999999,21.1076442,158 73.77820819999999,21.1076112,159 73.7782113,21.1075925,160.2 73.77824889999999,21.1076105,162.2 73.778268,21.1076165,162.7 73.77830160000001,21.1076102,163.7 73.778329,21.1076143,164 73.77835779999999,21.1076132,164.5 73.77837839999999,21.1076151,164.6 73.7784046,21.1076163,164.5 73.77842699999999,21.1076149,164.3 73.7784489,21.1076132,164.2 73.77846940000001,21.1076094,164 73.77849449999999,21.1076031,164 73.7785207,21.107602,164.1 73.7785466,21.1076013,164.5 73.7785702,21.1075937,164.6 73.7785919,21.1075847,164.8 73.7786174,21.1075756,164.9 73.7786387,21.1075671,165.1 73.7786655,21.1075623,165.5 73.77868789999999,21.1075608,165.6 73.7787132,21.1075527,165.5 73.7787342,21.1075434,165.6 73.7787585,21.1075289,165.4 73.77877359999999,21.1075145,164.8 73.778809,21.1074927,164.9 73.7788279,21.1074807,164.9 73.7788479,21.107469,165 73.77886959999999,21.1074545,165.1 73.7788879,21.1074378,165.2 73.7789069,21.1074211,165.5 73.7789248,21.1074013,165.9 73.7789392,21.1073815,166.1 73.7789521,21.1073618,166.6 73.778964,21.1073417,167.1 73.7789715,21.1073229,167.3 73.77897590000001,21.1073105,167.8 73.7789879,21.1072888,168.2 73.77899909999999,21.107266,168.6 73.77900940000001,21.1072397,169.1 73.779038,21.1072142,169.3 73.77906059999999,21.1072012,170 73.77908499999999,21.1071951,170.5 73.7791119,21.1071886,170.9 73.7791367,21.1071874,170.9 73.7791625,21.1071861,171.1 73.77918529999999,21.1071834,171.1 73.7792133,21.1071849,170.7 73.7792398,21.1071891,170.5 73.7792628,21.1071869,170.5 73.7792869,21.1071824,170 73.7793077,21.1071835,169.6 73.77933609999999,21.1071793,169.4 73.7793637,21.1071789,169.3 73.77938640000001,21.1071747,169.3 73.7794067,21.10717,169.4 73.7794346,21.1071566,169.2 73.77946350000001,21.1071427,169.4 73.7794944,21.1071337,169.6 73.77952089999999,21.1071314,169.7 73.7795584,21.107127,170 73.7795856,21.1071207,170 73.7796194,21.1071091,170.1 73.77965210000001,21.1070994,170.1 73.7796793,21.1070941,170.3 73.7796998,21.1070952,170.5 73.779724,21.1070938,170.7 73.7797557,21.1070928,170.9 73.7797904,21.107097,170.6 73.7798112,21.1070963,170.4 73.7798311,21.1070974,170.4 73.7798597,21.1071012,170.4 73.7798987,21.1070993,170.1 73.7799366,21.1070934,170 73.779963,21.1070876,170.2 73.77998270000001,21.107066,170.1 73.7800147,21.1070347,170.9 73.7800371,21.1070183,171 73.7800605,21.107011,170.9 73.7800846,21.107007,170.8 73.78011480000001,21.1069966,170.7 73.78015190000001,21.1069904,170.5 73.7801803,21.1069896,170.5 73.7802047,21.1069912,170.5 73.7802271,21.1069925,170.7 73.7802475,21.1069978,170.8 73.7802732,21.1069993,170.6 73.78030459999999,21.1069964,169.9 73.7803388,21.1069918,169.4 73.7803675,21.1069919,169.1 73.78039579999999,21.106999,168.2 73.780422,21.1070067,167.3 73.7804402,21.1070126,166.6 73.780466,21.1070163,166.1 73.78049489999999,21.1070224,165.5 73.78051689999999,21.1070288,164.7 73.7805554,21.1070354,163.3 73.7805803,21.1070333,162.9 73.7806174,21.1070276,162.5 73.7806537,21.1070178,162.5 73.7806846,21.1070106,162.7 73.78072539999999,21.1070129,164.5 73.780753,21.1070132,165.4 73.780771,21.1070209,166.1 73.7807815,21.1070396,166.3 73.7808118,21.1070368,166.2 73.7808362,21.1070385,166.2 73.78085729999999,21.1070433,166.3 73.7808852,21.1070477,166.3 73.78092220000001,21.1070537,166.1 73.7809457,21.10706,166.2 73.780976,21.1070798,166.2 73.78099469999999,21.1070898,166.2 73.7810291,21.1070968,166.5 73.78106080000001,21.1071036,166.7 73.78108589999999,21.1071096,166.7 73.7811397,21.1071145,166.3 73.7811749,21.107104,166.2 73.78120439999999,21.1070825,165.9 73.78121760000001,21.1070669,165.7 73.78125,21.1070422,164.7 73.78126930000001,21.1070263,164.6 73.7812923,21.1070111,164.1 73.7813359,21.1069946,163.9 73.781357,21.1069975,164.1 73.78138869999999,21.1070039,164 73.7814162,21.107018,163.6 73.7814391,21.1070226,163.9 73.7814662,21.1070211,163.7 73.7814881,21.1070301,163 73.78151870000001,21.1070443,163 73.7815422,21.10706,163.5 73.7815688,21.1070702,163.7 73.7815925,21.1070795,163.7 73.78161470000001,21.1070857,163.5 73.7816474,21.1070941,163.6 73.7816718,21.1071001,163.2 73.7817031,21.1071105,163.4 73.7817209,21.1071348,163.5 73.7817288,21.1071524,163.1 73.7817653,21.1071801,161.6 73.7817871,21.1071909,160.6 73.781808,21.1072023,160.1 73.781825,21.1072112,159.8 73.78184039999999,21.1072234,160.1 73.78185550000001,21.1072394,160.1 73.78187629999999,21.1072514,160.2 73.7818975,21.1072659,160.2 73.7819155,21.1072849,160.5 73.7819401,21.1072974,161.5 73.7819654,21.1073045,161.8 73.78198930000001,21.1073111,162 73.78201319999999,21.1073162,163.4 73.78203430000001,21.1073103,164.3 73.7820634,21.107308,164.9 73.78208100000001,21.1072963,166.6 73.7821052,21.1072856,167.4 73.7821351,21.1072843,168.2 73.78216569999999,21.1072974,168.4 73.7821946,21.1073115,168.6 73.7822347,21.1073269,169.9 73.7822591,21.10735,169.9 73.7822785,21.1073656,169.8 73.7823075,21.1073784,169.8 73.7823345,21.1073868,169.7 73.78237540000001,21.1073862,169.3 73.7823978,21.1073779,168.8 73.7824305,21.1073704,168.5 73.7824708,21.1073594,168.4 73.7824967,21.1073503,168.4 73.78252089999999,21.1073433,168.2 73.7825517,21.1073279,168.4 73.7825905,21.1073323,168.2 73.7826203,21.1073382,167.6 73.78264040000001,21.1073417,167.4 73.7826602,21.107356,167.2 73.78267219999999,21.1073733,166.9 73.7826926,21.1073898,167 73.7827173,21.1074103,166.7 73.78274759999999,21.1074262,166.2 73.78278880000001,21.1074376,165.6 73.7828184,21.1074383,165.7 73.7828446,21.107442,166.2 73.7828597,21.1074586,166.4 73.7828906,21.1074871,166.1 73.7829151,21.1075136,166 73.7829263,21.1075319,166 73.78293739999999,21.1075482,165.9 73.78294889999999,21.1075677,166.1 73.7829713,21.1076055,166.2 73.78299079999999,21.1076395,166 73.7830112,21.1076665,166.1 73.78302770000001,21.1076815,166 73.7830539,21.1076898,166.5 73.783081,21.1076908,166.7 73.78311429999999,21.1077002,166.7 73.7831463,21.1077093,166.5 73.7831711,21.1077201,166.4 73.7831913,21.107729,166.4 73.7832298,21.1077418,166.2 73.7832587,21.1077605,165.9 73.7832879,21.1077867,165.6 73.78330819999999,21.1078054,165.6 73.78332260000001,21.1078269,164.7 73.78334359999999,21.1078322,164.5 73.7833735,21.1078327,164.1 73.7834024,21.1078275,163.9 73.78342689999999,21.1078296,163.8 73.7834658,21.1078465,163.8 73.7835074,21.1078554,163.9 73.78353850000001,21.1078586,163.8 73.7835616,21.1078657,163.9 73.7835958,21.1078636,163.9 73.78363,21.1078645,163.7 73.783655,21.1078682,163.5 73.7836787,21.1078718,163.4 73.7837115,21.107897,163.2 73.7837348,21.1079005,163.3 73.7837462,21.1078858,162.9 73.783767,21.1078761,162.9 73.7837859,21.1078708,163 73.78382379999999,21.1078547,163.4 73.78384990000001,21.1078398,163.7 73.78388080000001,21.1078329,163.9 73.7839165,21.1078186,164.7 73.7839412,21.1078036,164.9 73.78395860000001,21.1077923,165.1 73.78397390000001,21.107778,165.2 73.7839907,21.1077572,165.4 73.7840068,21.1077349,165.4 73.7840308,21.1077124,165.6 73.784046,21.107701,165.6 73.7840587,21.1076812,165.8 73.7840724,21.1076599,165.9 73.78408880000001,21.107642,166 73.7841052,21.1076322,166.1 73.7841217,21.1076202,166.4 73.78413930000001,21.1076057,166.7 73.7841514,21.1075886,167.4 73.7841688,21.1075768,167.5 73.7841995,21.1075605,168.9 73.7842239,21.1075565,169.6 73.78424130000001,21.1075758,169.9 73.78424339999999,21.1076028,170.6 73.7842433,21.1076269,171.4 73.7842375,21.1076496,171.5 73.78423340000001,21.1076798,171.4 73.7842512,21.1076899,171.5 73.7842775,21.1076963,171.3 73.78430059999999,21.1077197,171.3 73.78431930000001,21.1077267,171.5 73.7843361,21.1077424,171.5 73.7843475,21.107758,171.5 73.7843737,21.1077672,171.2 73.7843853,21.1077832,171.1 73.7843999,21.1077988,171.1 73.784418,21.107822,170.9 73.78441789999999,21.107854,170.6 73.7844273,21.107876,170.4 73.78442320000001,21.1078977,170.5 73.78443110000001,21.1079288,170.2 73.7844456,21.1079587,170.5 73.78445929999999,21.1079762,170.4 73.78447,21.1079945,170.4 73.7844894,21.1080283,170.2 73.7844973,21.1080473,170.2 73.78450890000001,21.1080655,170.3 73.7845262,21.1080796,170.4 73.78454619999999,21.1081006,170.6 73.78458139999999,21.1081151,171.2 73.7846011,21.1081288,171.5 73.7846347,21.1081263,172.4 73.7846703,21.1081297,173.6 73.7847026,21.1081212,174 73.7847228,21.1081165,174.6 73.7847652,21.1081191,175.1 73.7847886,21.1081153,175.2 73.7848127,21.1081148,175.1 73.7848316,21.1081206,174.9 73.7848522,21.1081217,174.6 73.7848748,21.1081175,174.6 73.7848923,21.1081093,174.8 73.7849269,21.1080992,175.2 73.78495270000001,21.1080943,175.4 73.78498279999999,21.1080777,175.6 73.7850026,21.1080638,176.2 73.78502330000001,21.1080506,176.5 73.7850548,21.1080526,177.3 73.785076,21.1080564,177.5 73.7850976,21.108052,177.5 73.7851177,21.1080418,177.4 73.78514269999999,21.10803,177.6 73.7851732,21.1080235,177.6 73.7852029,21.1080112,177.9 73.78522649999999,21.1080089,178 73.78525430000001,21.1079972,178 73.7852742,21.107988,177.8 73.7852978,21.1079884,177.2 73.7853197,21.1079893,177.1 73.785353,21.1079929,176.9 73.7853886,21.1079929,176.9 73.7854111,21.1079857,176.8 73.785432,21.1079824,176.8 73.7854571,21.1079806,176.8 73.78548960000001,21.1079707,177 73.7855167,21.1079619,176.9 73.7855399,21.1079539,177 73.7855637,21.1079487,176.9 73.7855916,21.107947,176.8 73.78561879999999,21.107942,177.1 73.785641,21.1079438,177.3 73.78566960000001,21.1079392,177.2 73.7857085,21.1079387,176.8 73.7857295,21.1079316,176.4 73.7857525,21.1079307,176.3 73.7857818,21.1079326,175.9 73.785804,21.1079333,175.7 73.7858311,21.1079331,175.6 73.78585870000001,21.1079398,175.8 73.78588019999999,21.1079466,175.9 73.785903,21.1079558,176 73.7859272,21.1079685,176.1 73.785955,21.1079818,176 73.7859811,21.1079899,175.9 73.786013,21.1079899,175.1 73.7860347,21.1080026,174.6 73.7860556,21.1080169,174.2 73.7860768,21.1080321,174 73.78610159999999,21.1080481,173.9 73.7861351,21.1080558,173.9 73.7861676,21.1080564,174.1 73.7861868,21.1080627,174.3 73.7862341,21.1080632,175.1 73.7862734,21.1080561,175.8 73.78629460000001,21.1080506,175.9 73.7863227,21.1080193,176.4 73.786356,21.1079997,177.1 73.7863732,21.1079824,177.6 73.786407,21.1079622,177.9 73.7864288,21.1079575,178.3 73.7864496,21.1079485,178.3 73.78646999999999,21.1079349,178.5 73.7864957,21.1079243,178.8 73.7865255,21.1079125,179.1 73.7865554,21.1078867,179.2 73.7865753,21.1078567,179.5 73.78660669999999,21.1078308,179.7 73.78661580000001,21.1078083,179.9 73.7866239,21.1077909,180 73.7866298,21.1077564,180.4 73.7866394,21.1077235,179.9 73.7866437,21.1077042,179.6 73.7866507,21.1076859,179.2 73.7866685,21.1076674,179.2 73.7866855,21.1076509,179 73.7867093,21.1076347,178.5 73.7867256,21.1076201,177.9 73.7867505,21.1076034,177.5 73.7867791,21.1075911,177.7 73.7868014,21.1075828,177.9 73.7868457,21.1075689,177.8 73.78687050000001,21.1075644,177.5 73.786897,21.1075609,177.4 73.78692150000001,21.1075617,176.8 73.7869455,21.1075638,176.4 73.78696859999999,21.1075671,176.3 73.7869975,21.1075708,176.2 73.78703489999999,21.1075681,175.8 73.78705480000001,21.1075675,175.8 73.7870788,21.1075732,175.9 73.7871014,21.107565,175.9 73.7871236,21.1075586,176.1 73.7871433,21.1075515,176.2 73.7871581,21.1075395,176.9 73.78718189999999,21.107517,177.6 73.787193,21.1075006,177.6 73.78722380000001,21.107483,177.6 73.787239,21.1074656,177.3 73.78725679999999,21.1074528,177.1 73.7872808,21.1074506,177 73.7873146,21.107448,176.8 73.7873474,21.1074431,176.3 73.787369,21.1074428,176.1 73.7873883,21.1074452,175.6 73.7874198,21.1074498,175.2 73.7874442,21.1074532,175 73.7874618,21.1074629,174.8 73.78748400000001,21.1074703,174.4 73.78752,21.1074712,174.2 73.7875459,21.1074717,173.6 73.78756749999999,21.1074711,173.6 73.7875773,21.1074513,172.6 73.787598,21.1074392,172.1 73.7876351,21.1074331,171.4 73.7876626,21.107436,171 73.787689,21.1074377,170.7 73.7877165,21.1074367,170.6 73.78775349999999,21.1074453,170.8 73.7877821,21.1074445,170.9 73.7878066,21.1074485,171 73.78782630000001,21.1074514,171 73.7878516,21.1074465,171 73.78787029999999,21.1074397,171 73.78790069999999,21.1074232,171 73.78792,21.1074106,171 73.7879545,21.1074015,170.4 73.78799170000001,21.1073794,170.2 73.78801110000001,21.1073638,169.8 73.7880401,21.1073525,169.4 73.78805730000001,21.10734,169.3 73.7880724,21.107323,168.8 73.78810199999999,21.1073026,168.3 73.7881215,21.1072897,167.9 73.7881481,21.1072748,167.8 73.78817069999999,21.107259,167.7 73.7881888,21.107252,167.6 73.7882097,21.1072507,167.6 73.7882333,21.1072481,167.7 73.7882577,21.1072458,167.7 73.7882785,21.1072521,167.5 73.78830019999999,21.1072572,167.4 73.7883348,21.1072781,167.4 73.7883576,21.1072929,167.2 73.78838469999999,21.1072927,167 73.7884143,21.1073004,166.7 73.7884339,21.1072991,166.7 73.7884622,21.1072898,166 73.78850319999999,21.1072981,165.3 73.7885309,21.1073002,165.1 73.7885574,21.1072971,164.8 73.7885816,21.1073002,164.7 73.7886067,21.1072979,164.5 73.7886365,21.1072993,163.9 73.78865879999999,21.1073004,163.2 73.7886845,21.1073056,162.9 73.7887075,21.1073141,162.9 73.7887257,21.1073207,163 73.78874930000001,21.1073297,162.9 73.7887704,21.1073444,162.8 73.78878880000001,21.1073553,162.6 73.7888126,21.1073615,162.3 73.7888397,21.10737,162.3 73.7888696,21.1073743,162.3 73.7889031,21.107365,162.5 73.788929,21.1073546,162.8 73.7889546,21.1073491,163.2 73.78899269999999,21.107346,164 73.7890155,21.107348,164.2 73.7890431,21.1073459,164.6 73.7890649,21.1073477,165.1 73.7890915,21.107347,165.3 73.7891255,21.1073488,165.4 73.7891537,21.1073623,165.8 73.7891862,21.1073842,166.3 73.7892135,21.1073839,166.3 73.7892378,21.1073809,166.4 73.78925769999999,21.1073801,166.5 73.7892933,21.1073838,166.8 73.7893131,21.1073939,167.1 73.7893328,21.1074079,167.1 73.78935420000001,21.1074298,167.4 73.78937689999999,21.1074443,167.8 73.7893961,21.1074462,167.9 73.7894197,21.1074471,168.3 73.7894427,21.1074479,168.3 73.7894629,21.1074437,168.3 73.7894838,21.1074421,168.4 73.7895137,21.1074405,168.4 73.7895348,21.107438,168 73.7895549,21.1074374,167.7 73.7895781,21.1074394,167.4 73.7896032,21.1074452,167.3 73.78962610000001,21.1074565,168.6 73.7896477,21.107447,168.5 73.789675,21.1074396,168.5 73.7897088,21.1074541,168.5 73.789731,21.1074712,168.2 73.789744,21.1074864,167.7 73.78976110000001,21.1075016,167.6 73.7898065,21.1075103,167.7 73.78982670000001,21.1075112,167.8 73.7898655,21.1075067,167.4 73.78989319999999,21.1074976,167 73.7899165,21.1074953,166.9 73.78993970000001,21.1075143,166.5 73.7899729,21.1075092,166.3 73.78999690000001,21.1075162,165.9 73.7900174,21.107517,165.6 73.7900447,21.107513,165.3 73.7900664,21.1075136,165.2 73.79009139999999,21.1075178,165.2 73.7901269,21.1075218,165.3 73.7901473,21.1075261,165.2 73.7901816,21.107531,165.1 73.7902021,21.1075361,164.9 73.7902306,21.1075373,165.1 73.7902624,21.1075269,165.3 73.7902761,21.107514,165.4 73.7902888,21.1074878,165.3 73.7902982,21.1074571,164.8 73.7903187,21.10744,163.8 73.79032170000001,21.107385,161.6 73.7903295,21.1074252,162.4 73.7903555,21.1074446,162.5 73.7903793,21.1074496,163 73.790404,21.1074228,164.2 73.79042250000001,21.107414,164.6 73.7904408,21.1074059,165.3 73.7904585,21.1073958,165.9 73.79046649999999,21.107371,167 73.7904697,21.1073516,167.4 73.7904803,21.1073359,167.8 73.79050049999999,21.1073276,168 73.79051800000001,21.1073181,168.2 73.7905293,21.1072962,168.4 73.7905533,21.1073083,168.6 73.7905842,21.1073047,168.6 73.7905889,21.10727,168.6 73.79058190000001,21.1072441,168.4 73.7905579,21.1072271,168 73.7905363,21.1072325,167.6 73.7905221,21.1072202,167.3 73.7905143,21.1072016,167 73.7904904,21.1071877,166.5 73.7904846,21.1071587,166.4 73.7904863,21.1071279,168.3 73.7904923,21.1070931,169.9 73.7905071,21.107075,170.9 73.79052419999999,21.1070565,171.3 73.7905402,21.1070382,172.2 73.7905562,21.1070214,173 73.7905739,21.1070068,173.6 73.7905942,21.106981,174.3 73.7906129,21.1069638,174.9 73.79061900000001,21.1069458,174.8 73.79063360000001,21.1069189,174.5 73.79064200000001,21.1068872,175 73.7906545,21.1068588,175.6 73.7906624,21.1068339,176 73.7906701,21.1068112,176.1 73.790695,21.1067874,176.1 73.7907245,21.1067714,176.4 73.79075159999999,21.1067547,175.8 73.790772,21.1067336,175.4 73.7907898,21.106708,174.8 73.79078869999999,21.1066736,174.4 73.79079,21.1066421,174 73.7908011,21.1066207,173.4 73.7908087,21.1066014,172.9 73.7908082,21.1065788,172.7 73.7908018,21.1065504,172.6 73.790789,21.1065198,172.5 73.7907671,21.1064982,172.5 73.79075899999999,21.1064799,172.5 73.7907496,21.1064473,172.7 73.79065970000001,21.1063311,177.5 73.7906383,21.106344,179.1 73.79061849999999,21.1063458,178.9 73.7905863,21.1063502,178.8 73.7906085,21.1063404,177.9 73.79063499999999,21.106349,178 73.79062930000001,21.1063223,177.8 73.7906297,21.1062959,177.8 73.79062140000001,21.1062668,177.6 73.7906145,21.1062481,177.5 73.7906156,21.1062244,177.6 73.7906132,21.1061932,178 73.7906093,21.1061671,178.4 73.79059359999999,21.1061419,178.9 73.7905865,21.1061187,180 73.7905585,21.1061006,180.8 73.79054859999999,21.1060682,181.4 73.79054859999999,21.1060376,181.3 73.7905346,21.1060189,181.1 73.79051130000001,21.1059908,181.2 73.7904941,21.1059777,181.2 73.79046940000001,21.1059679,181.2 73.79044639999999,21.1059586,181.2 73.79048,21.1059874,181.2 73.789395,21.1055933,183.2 73.7893668,21.1055861,176.6 73.7893538,21.1055666,176 73.7893309,21.1055644,175.7 73.7893172,21.1055151,174 73.7893014,21.1054917,174 73.7892777,21.105483,173 73.7892437,21.1054655,171.9 73.7892184,21.105459,170.6 73.78920410000001,21.1054446,170.2 73.78918539999999,21.1054338,169.9 73.7891637,21.1054052,169.7 73.78914399999999,21.1053855,169.1 73.7891195,21.1053773,169.1 73.7890988,21.1053495,168.8 73.7890823,21.1053274,168.6 73.7890584,21.1053117,168.5 73.7890326,21.1052987,168.5 73.7890013,21.1053062,167.9 73.7889795,21.1053103,167.7 73.7889528,21.1053,167.4 73.78893239999999,21.105284,167.2 73.78891280000001,21.1052616,167 73.78890149999999,21.1052451,167 73.788883,21.1052314,167.1 73.78886319999999,21.1052171,167.1 73.7888456,21.1052078,166.9 73.78881560000001,21.1051926,166.8 73.7887759,21.1051871,166.9 73.78875309999999,21.1051832,166.7 73.788732,21.1051762,166.7 73.7887125,21.1051698,166.4 73.7886941,21.105161,166 73.7886748,21.105155,165.8 73.7886414,21.1051522,165.8 73.7886062,21.1051483,166 73.7885778,21.1051657,166.5 73.78855660000001,21.1051666,167.1 73.7885338,21.105149,167.5 73.7885185,21.1051367,167.7 73.788505,21.1051051,168.4 73.7884897,21.1050795,168.8 73.78846969999999,21.1050694,168.8 73.7884451,21.1050868,169.3 73.7884095,21.1051039,169.3 73.78839259999999,21.1051141,169.1 73.7883698,21.1051024,168.9 73.7883336,21.1050945,168.4 73.7883119,21.1050949,168.4 73.7882888,21.1050928,168 73.7882595,21.1050938,167.7 73.7882345,21.1051035,167.8 73.7882209,21.1051199,168.2 73.7881823,21.105137,168.3 73.7881596,21.1051706,168.4 73.78813049999999,21.1051823,168.1 73.7881058,21.1051943,168.1 73.7880696,21.1051964,168.1 73.78803739999999,21.1052076,167.6 73.7880129,21.1051938,167.7 73.7879851,21.1051785,167.2 73.78794910000001,21.1051603,166.6 73.78793020000001,21.1051546,166.6 73.78790669999999,21.1051497,166.9 73.7878718,21.1051446,167.3 73.7878369,21.1051384,167.4 73.78779919999999,21.1051372,167.6 73.7877752,21.1051389,167.5 73.7877551,21.1051451,167.6 73.787736,21.1051566,167.8 73.7877143,21.1051667,168 73.7876984,21.1051557,168.3 73.7876679,21.105151,169.2 73.7876457,21.1051423,170.1 73.7876222,21.1051367,170.1 73.78760459999999,21.1051249,170.5 73.7875806,21.1051138,170.6 73.7875552,21.1051032,170.8 73.78753279999999,21.1050966,171.3 73.7875057,21.105086,171.4 73.7874829,21.105077,171.4 73.7874659,21.105064,171.8 73.7874489,21.1050436,172 73.78742699999999,21.1050317,172.3 73.7874096,21.1050134,172.3 73.7873766,21.105003,172.2 73.7873572,21.104999,171.9 73.78733149999999,21.1049931,171.5 73.78730470000001,21.1049853,171.5 73.78728289999999,21.1049808,170.2 73.78726519999999,21.1049734,170.2 73.7872402,21.1049714,169.8 73.7872078,21.1049754,168.8 73.787181,21.1049713,168 73.7871574,21.1049612,167.3 73.787137,21.1049571,167.1 73.7871114,21.104951,166.9 73.78707439999999,21.1049507,167 73.7870513,21.1049539,167.2 73.7870176,21.1049624,167.7 73.78700329999999,21.1049795,168.3 73.7869659,21.1049866,168.6 73.786935,21.1049933,170.7 73.78689350000001,21.104995,172 73.7868715,21.1049892,172.8 73.7868522,21.1049858,172.8 73.7868179,21.1049703,174 73.7867959,21.1049601,174.3 73.78676350000001,21.1049462,174.6 73.78673790000001,21.1049392,174.6 73.7867184,21.1049285,174.6 73.78669240000001,21.1049196,175 73.7866654,21.1049144,175 73.7866439,21.1049084,175.1 73.7866004,21.104898,175.3 73.78657149999999,21.1048947,175.3 73.7865458,21.1048871,175.2 73.7865252,21.1048821,175.2 73.786507,21.1048726,175.1 73.7864866,21.1048599,174.9 73.786466,21.1048481,174.6 73.7864395,21.1048404,174.6 73.7864033,21.1048314,173 73.78638119999999,21.1048209,173 73.78634820000001,21.104795,172.2 73.78632949999999,21.1047778,172.2 73.7863085,21.1047628,172.2 73.7862768,21.1047438,171.4 73.78625959999999,21.104713,170.8 73.7862506,21.1046969,170.4 73.7862379,21.1046797,170 73.7861979,21.1046686,169.8 73.7861673,21.1046656,169.8 73.7861379,21.1046607,170 73.78611239999999,21.1046557,170 73.78608319999999,21.104649,170.5 73.78606019999999,21.1046425,170.5 73.7860168,21.1046289,170.6 73.7860031,21.1046161,171 73.78596,21.1046188,171 73.7859368,21.1046031,170.7 73.7859148,21.104596,170.7 73.7858923,21.1045917,170.4 73.7858725,21.1045816,169.9 73.78584650000001,21.1045791,169.5 73.78582040000001,21.1045715,169.5 73.7857913,21.1045529,168.9 73.7857743,21.1045381,168.9 73.7857508,21.1045378,168.7 73.7857279,21.1045227,168.8 73.78568799999999,21.1045122,169.1 73.7856628,21.1045047,169.3 73.78563579999999,21.1044977,169.6 73.78560659999999,21.1044894,169.6 73.7855747,21.1044801,169.6 73.7855552,21.1044761,169.9 73.78553770000001,21.1044674,169.6 73.7855184,21.1044513,169.5 73.7854964,21.1044474,169.2 73.78547330000001,21.1044425,169.2 73.7854514,21.1044374,168.9 73.7854298,21.1044338,168.9 73.7854033,21.1044296,168.8 73.78538399999999,21.1044247,168.8 73.78536440000001,21.1044156,168.8 73.7853444,21.1044089,168.5 73.785324,21.1043931,168 73.7852951,21.1043759,167.8 73.7852658,21.104356,167.4 73.7852335,21.1043375,165.5 73.7852034,21.1043267,165.5 73.7851836,21.1043283,164.4 73.7851632,21.1043357,163.8 73.78514,21.1043405,163.2 73.7851189,21.1043473,163.2 73.78508429999999,21.1043494,162.6 73.7850443,21.1043637,162.1 73.7850102,21.1043687,161.7 73.78498980000001,21.1043679,161.4 73.7849679,21.1043678,161.1 73.78494240000001,21.1043607,161.1 73.78492249999999,21.1043501,160.6 73.78489279999999,21.1043533,160.6 73.78487490000001,21.1043732,160.1 73.78485480000001,21.1043955,159.8 73.78483660000001,21.1044065,159.7 73.7848121,21.1043997,159.4 73.7847921,21.1043919,159 73.78476569999999,21.1043815,158.8 73.7847412,21.1043781,158.7 73.78471949999999,21.1043818,159 73.78470059999999,21.1043783,159.4 73.78467620000001,21.1043739,159.4 73.7846515,21.1043704,159.7 73.7846273,21.1043628,160.2 73.78460509999999,21.1043571,160.2 73.7845828,21.104346,160.4 73.7845636,21.104334,160 73.78454170000001,21.1043256,160 73.78452420000001,21.1043179,159.8 73.7845018,21.1043113,159.5 73.78446769999999,21.1042972,159.7 73.7844462,21.1042891,159.7 73.7844252,21.1042812,159.8 73.78440310000001,21.1042753,159.7 73.78438540000001,21.1042652,159.7 73.7843633,21.1042551,159.8 73.7843436,21.1042443,159.8 73.7843262,21.1042352,160.2 73.7843013,21.1042205,160.4 73.7842789,21.1042021,161.3 73.78425,21.104193,161.4 73.7842218,21.1041747,161.7 73.7842076,21.1041532,161.6 73.7841896,21.1041233,161.1 73.7841676,21.1041042,160.6 73.784161,21.1040857,160.7 73.7841669,21.1040603,160.8 73.7841686,21.1040406,161 73.7841596,21.1040011,161 73.7841481,21.1039653,161.5 73.7841373,21.1039433,161.5 73.7841298,21.1039208,161.7 73.7841262,21.1038993,161.7 73.7841217,21.1038816,161.7 73.7841217,21.1038603,161.8 73.7841227,21.1038361,162.1 73.7841198,21.1038084,162.1 73.78410909999999,21.1037841,162.2 73.7840898,21.1037512,161.6 73.78407319999999,21.1037174,161.3 73.7840621,21.1036867,161.3 73.7840609,21.1036678,161.3 73.7840673,21.1036474,161.2 73.7840743,21.1036295,161.2 73.784085,21.10361,161.2 73.78410289999999,21.1035704,161.3 73.7840985,21.1035495,161.3 73.78408330000001,21.1035312,161.3 73.7840734,21.1035118,161.6 73.7840628,21.1034887,162.2 73.7840503,21.1034697,162.4 73.78400619999999,21.1034653,162.4 73.7839815,21.1034559,162 73.7839575,21.1034394,161.5 73.7839426,21.103419,161.5 73.7839249,21.1033944,161.1 73.7839147,21.1033766,161.1 73.78390469999999,21.1033494,160.2 73.7838958,21.1033236,160.2 73.7838994,21.1032998,159.8 73.783891,21.1032729,158.9 73.78387669999999,21.1032519,158.9 73.7838679,21.1032277,158.2 73.7838594,21.1032096,158.2 73.7838501,21.1031888,158.1 73.7838319,21.1031544,158.7 73.7838203,21.1031323,158.5 73.7838021,21.1030924,158.5 73.7837785,21.1030643,158.7 73.78376249999999,21.1030449,158.7 73.78374959999999,21.1030266,158.7 73.7837337,21.1030048,158.9 73.78370750000001,21.1029775,159.8 73.7836928,21.1029585,159.8 73.78366029999999,21.1029295,160.4 73.7836305,21.1029041,160.9 73.7836126,21.1028881,160.9 73.7835961,21.1028653,160.6 73.7835741,21.1028426,160.7 73.7835554,21.1028311,160.5 73.783525,21.102816,160.1 73.7834862,21.1027989,159.8 73.78346670000001,21.1027866,159.5 73.7834462,21.1027768,159.3 73.7834187,21.102763,159.4 73.7834015,21.1027504,159.3 73.78338189999999,21.1027343,159 73.7833651,21.1027211,159 73.7833474,21.1027035,158.8 73.78332090000001,21.1026877,158.8 73.78330529999999,21.102668,158.2 73.7832796,21.1026449,157.6 73.78326130000001,21.102633,157.5 73.7832269,21.1026162,157.5 73.783208,21.1026016,157.5 73.78319519999999,21.1025839,157.5 73.7831709,21.1025606,157.8 73.7831688,21.1025423,157.8 73.78316289999999,21.1025229,158 73.7831552,21.1025061,158 73.78314140000001,21.1024867,158.2 73.7831164,21.1024613,158.2 73.783098,21.1024442,158.2 73.7830797,21.102421,158 73.78305330000001,21.1024172,158.3 73.7830239,21.1024152,158.6 73.7830024,21.1024033,158.7 73.7829857,21.1023816,159 73.78296760000001,21.1023609,159.3 73.7829626,21.1023432,159.3 73.78295249999999,21.1023161,160 73.7829567,21.1022783,155.4 73.78296450000001,21.102241,156.3 73.78296589999999,21.1022219,158.2 73.7829651,21.1021982,158.6 73.7829672,21.1021682,158.6 73.782988,21.1021387,159.8 73.78299389999999,21.1021112,160.7 73.783001,21.1020869,161 73.7830017,21.1020641,161.1 73.7830034,21.1020334,161.7 73.7829967,21.1020086,162.3 73.7829998,21.1019906,162.6 73.7830033,21.1019693,163.1 73.7830022,21.1019404,164.2 73.78300470000001,21.1019177,164.6 73.7830002,21.1018917,165.1 73.7829936,21.101874,165.6 73.7829806,21.1018573,166 73.7829658,21.101836,166.2 73.7829493,21.1018159,166.7 73.78293770000001,21.1018014,166.9 73.7829299,21.1017808,167.6 73.78291230000001,21.1017638,167.7 73.78289650000001,21.1017454,168.4 73.7828646,21.1017293,168.8 73.78284429999999,21.1017247,168.8 73.7828141,21.1017295,168.7 73.78279209999999,21.1017246,168.7 73.7827618,21.1017087,168.8 73.7827417,21.1016862,169 73.7827218,21.1016614,169 73.782708,21.101638,168.8 73.7827042,21.1016185,168.2 73.78270860000001,21.101598,168.2 73.7827269,21.1015864,167.1 73.7827357,21.1015692,167.1 73.7827336,21.1015511,166.3 73.7827119,21.1015331,165.4 73.7826961,21.1015176,165.1 73.7826841,21.1015,165.1 73.78266600000001,21.1014886,164.9 73.78264,21.1014623,165.5 73.78262770000001,21.101477,165.8 73.78260950000001,21.1014966,166 73.7825868,21.1014954,166.1 73.7825684,21.101505,166.1 73.7825385,21.101508,165.8 73.78251640000001,21.1015037,165.4 73.7824945,21.1014921,164.8 73.7824888,21.1014683,164.4 73.7824701,21.1014493,164.4 73.78245219999999,21.1014346,164.3 73.7824459,21.1014095,164.3 73.7824373,21.1013898,164.3 73.78242659999999,21.1013646,163.9 73.782419,21.1013456,163.4 73.7824122,21.1013279,162.8 73.78239619999999,21.1012958,162.8 73.7823932,21.1012728,162.8 73.7823874,21.1012546,162.4 73.78237439999999,21.1012217,164.1 73.78236339999999,21.101193,164.6 73.7823447,21.1011721,164.8 73.7823258,21.1011632,164.7 73.7822996,21.1011419,164.9 73.78227149999999,21.1011277,165.7 73.7822488,21.1011257,166.1 73.78221569999999,21.1011126,167.2 73.7821921,21.1011014,167.6 73.7821847,21.1010837,167.8 73.7821678,21.1010686,167.6 73.78214490000001,21.1010493,167.3 73.7821325,21.1010287,167.5 73.7821154,21.1010145,167.7 73.7820935,21.1009965,168.1 73.78207949999999,21.1009785,168 73.7820834,21.100944,167.5 73.7820743,21.1009167,166.8 73.78206609999999,21.1008919,166.8 73.78207500000001,21.1008588,165.6 73.7820622,21.100837,164 73.7820377,21.1008196,164 73.78202090000001,21.1007908,164.6 73.7820004,21.100759,165.5 73.78197849999999,21.1007211,165.8 73.7819689,21.1007,165.8 73.7819583,21.1006806,165.6 73.7819458,21.1006628,165.3 73.7819338,21.1006457,164.9 73.7819228,21.1006308,164 73.7819094,21.1005992,162.5 73.7818989,21.1005822,162.1 73.7818863,21.1005678,161.9 73.7818789,21.1005501,161.5 73.78188729999999,21.1005138,160.9 73.7818865,21.100493,160.9 73.7818687,21.1004664,159.8 73.78184690000001,21.1004504,159.6 73.7818328,21.1004334,159.3 73.781818,21.1004114,159.2 73.78181120000001,21.1003852,158.9 73.7817891,21.1003477,158.6 73.7817697,21.1003163,158.5 73.7817561,21.1002993,158.6 73.7817438,21.1002828,158.4 73.78173459999999,21.1002585,158.4 73.7817342,21.1002389,158.5 73.7817235,21.1002074,158.5 73.7817108,21.1001927,158.9 73.7816869,21.1001823,159.8 73.78165610000001,21.1001582,160.2 73.7816582,21.10014,160.9 73.7816467,21.1001171,160.9 73.7816268,21.1001161,161.4 73.78160370000001,21.1001093,162.4 73.7815791,21.1000974,162.6 73.7815611,21.1000827,162.6 73.78153570000001,21.1000581,162.6 73.7815028,21.1000353,162.5 73.7814791,21.10002,162.7 73.7814693,21.099998,162.7 73.7814636,21.0999736,162.8 73.7814494,21.0999546,162.8 73.78143470000001,21.0999308,162.4 73.78141890000001,21.0999119,162.4 73.7813967,21.0998859,162.1 73.7813726,21.0998723,161.7 73.78135640000001,21.0998524,161.5 73.781334,21.0998622,161.2 73.7813058,21.0998629,161 73.7812856,21.0998628,161 73.7812531,21.0998804,160.7 73.7812313,21.0998883,160.4 73.7812,21.0998904,159.3 73.7811746,21.0998772,159 73.7811529,21.0998598,159 73.78112539999999,21.0998368,157.8 73.7811184,21.0998199,156.9 73.78110100000001,21.0997976,156.3 73.7810893,21.0997653,156 73.7810839,21.099746,156.1 73.7810738,21.0997286,156.2 73.7810411,21.0997128,156.3 73.7810199,21.0997065,156.3 73.78100209999999,21.0997135,155.9 73.7809768,21.0997039,155.7 73.7809725,21.0996745,155.8 73.78096859999999,21.0996557,156 73.7809554,21.0996397,156.3 73.78093389999999,21.0996276,156.6 73.7809014,21.099604,157 73.7808737,21.0995935,157 73.7808412,21.0995795,157.7 73.7808184,21.0995669,158.1 73.7807842,21.0995495,158.2 73.7807632,21.0995306,158.2 73.78073000000001,21.0995154,158.2 73.78070719999999,21.0995083,158.2 73.7806736,21.0995,158.2 73.7806384,21.0994902,158.1 73.7806113,21.0994938,158.3 73.7805896,21.0994844,157.9 73.7805556,21.0994845,157.7 73.78052390000001,21.0994869,157.8 73.78050330000001,21.0994871,157.8 73.78046399999999,21.0994889,157.9 73.7804347,21.0994924,157.9 73.7804048,21.0994943,157.8 73.7803833,21.0994966,157.8 73.7803435,21.0994923,157.2 73.7803131,21.0994834,156.9 73.7802804,21.0994722,156.9 73.7802361,21.099452,156.2 73.78021080000001,21.0994305,156.1 73.7801929,21.099411,156.1 73.78015980000001,21.0994014,156 73.7801393,21.099391,156 73.7801364,21.0993537,156.3 73.78013009999999,21.0993282,156.4 73.7801146,21.0993159,156.8 73.7800929,21.0993028,156.8 73.78007100000001,21.0992928,157 73.7800373,21.0992786,157.1 73.7800244,21.099258,157.4 73.7799962,21.0992436,157.4 73.7799577,21.0992346,157.1 73.7799334,21.0992307,156.7 73.7799062,21.0992267,156.8 73.7798756,21.0992265,157 73.7798499,21.0992301,156.9 73.77982849999999,21.0992274,156.8 73.77980049999999,21.0992179,156.6 73.779781,21.0992163,156.5 73.7797443,21.0992153,156.8 73.779721,21.0992146,157.2 73.7796969,21.0992089,157.7 73.77967049999999,21.0992065,157.8 73.7796517,21.0991896,157.9 73.7796357,21.0991735,158 73.7796202,21.0991552,158.1 73.77960590000001,21.0991427,158.2 73.7795862,21.0991207,158.5 73.7795521,21.0991168,159.1 73.77952000000001,21.0991034,159.3 73.77949270000001,21.0990807,160.2 73.7794744,21.0990707,160.5 73.77944909999999,21.0990567,161.6 73.7794363,21.0990427,161.6 73.7794167,21.0990322,162.2 73.779394,21.0990217,162.6 73.77937300000001,21.0990199,162.9 73.7793515,21.0990175,163 73.7793288,21.0990198,163.2 73.7793075,21.0990264,162.9 73.7792822,21.0990323,162.6 73.77925999999999,21.0990565,161.9 73.77923,21.0990692,160.6 73.779207,21.099079,160.2 73.7791845,21.0991044,160.1 73.77915110000001,21.099121,159.8 73.7791263,21.0991333,159.1 73.7790924,21.0991293,158.3 73.7790584,21.0991271,158.3 73.77902570000001,21.0991224,158.7 73.7789885,21.0991095,158.9 73.77895359999999,21.0990952,159 73.77893520000001,21.0990765,158.9 73.77892,21.0990553,158.9 73.7789109,21.0990324,157.8 73.7788949,21.0990169,157.8 73.77888179999999,21.0989996,157.7 73.77886549999999,21.0989773,157.5 73.77885070000001,21.0989656,157.5 73.7788329,21.098941,157.6 73.7788171,21.0989222,157.6 73.7788049,21.0989014,157.7 73.77878990000001,21.0988835,157.7 73.7787814,21.0988648,157.8 73.7787731,21.0988352,158.2 73.77876000000001,21.0988129,158.2 73.778752,21.0987899,158.2 73.7787417,21.0987682,158.3 73.7787275,21.0987464,158.3 73.7787179,21.0987242,158.3 73.7786995,21.0986992,158.5 73.77866880000001,21.0986724,158.6 73.7786334,21.0986569,158.9 73.77859479999999,21.0986399,158.6 73.77856749999999,21.0986279,158.5 73.7785198,21.0986195,158 73.7784985,21.0986142,157.7 73.778465,21.0986129,157.6 73.7784448,21.0986034,157.3 73.7784248,21.098594,157.3 73.7783943,21.0985818,157.4 73.7783577,21.0985772,157.4 73.7783254,21.0985669,157.2 73.7783079,21.0985455,157.1 73.7782835,21.0985232,157 73.7782632,21.0985022,156.8 73.7782577,21.0984834,156.3 73.7782364,21.098453,155.5 73.7782256,21.098419,155.2 73.7782366,21.0983972,155.3 73.778215,21.0983773,155.2 73.77819220000001,21.0983583,155.1 73.77818240000001,21.0983383,155.1 73.7781584,21.098338,154.6 73.7781724,21.0983511,155.4 73.778192,21.0983491,155.7 73.7782132,21.0983478,155.9 73.778237,21.0983577,155.9 73.778254,21.0983666,155.8 73.7782863,21.0983796,156.1 73.77831089999999,21.0983955,156.5 73.7783362,21.0984019,157.1 73.77835709999999,21.0984094,157.3 73.7783755,21.098426,157.7 73.7783951,21.098438,158 73.7784276,21.0984403,158.3 73.7784523,21.0984448,158.3 73.778474,21.0984438,158.5 73.778499,21.0984431,158.8 73.77851800000001,21.0984395,159.2 73.77854189999999,21.0984421,160.2 73.77856420000001,21.0984372,161.2 73.7785866,21.0984243,162.4 73.7786198,21.0984168,163.2 73.778651,21.098406,164.1 73.77869149999999,21.0984142,165 73.7787125,21.0984239,165.9 73.77874,21.0984307,166.7 73.778764,21.0984392,167 73.7787958,21.098436,167.4 73.77881480000001,21.098433,168 73.7788414,21.098447,168.6 73.77887010000001,21.0984587,169 73.7788872,21.0984689,169 73.778913,21.098482,169.2 73.7789351,21.0984985,169.5 73.77896010000001,21.0985104,169.9 73.77898089999999,21.0985219,171.5 73.77899549999999,21.0985354,172.4 73.7790212,21.0985446,173.3 73.7790425,21.0985649,174.3 73.7790633,21.0985949,174.7 73.7790806,21.0986201,175.3 73.77910799999999,21.0986346,175.4 73.7791386,21.098652,175.5 73.7791639,21.0986731,175.5 73.77919350000001,21.0986822,176 73.7792237,21.0986791,176.1 73.77924280000001,21.0986767,176.3 73.77927099999999,21.0986778,176.3 73.779291,21.0986757,176.6 73.77930739999999,21.098666,176.9 73.779329,21.0986561,176.9 73.7793605,21.0986541,177.7 73.7793839,21.0986611,177.7 73.77940479999999,21.0986646,177.6 73.7794317,21.0986626,177.8 73.779466,21.09866,178.3 73.77948499999999,21.0986567,178.5 73.77952209999999,21.0986478,178.8 73.7795527,21.0986296,179.1 73.7795727,21.0986281,179.1 73.77958769999999,21.098614,179.3 73.7795974,21.0985953,179.5 73.7796172,21.0985898,179.5 73.7796391,21.0985992,179.8 73.779673,21.0986042,179.7 73.77970000000001,21.098608,179.7 73.779725,21.0986005,179.8 73.77975050000001,21.0985964,179.9 73.7797734,21.098591,179.9 73.77979000000001,21.0986023,179.9 73.7798102,21.0986081,179.9 73.7798303,21.0986022,180.1 73.77986919999999,21.098611,179.5 73.77988259999999,21.0986414,179.4 73.77990130000001,21.0986521,179.1 73.7799188,21.098664,179.1 73.7799364,21.0986733,178.9 73.77996570000001,21.0986727,178.8 73.77999800000001,21.0986719,178.5 73.7800232,21.0986845,178.2 73.7800463,21.0987107,178 73.7800646,21.0987191,178 73.7800917,21.0987153,178.4 73.7801164,21.0987118,178.4 73.78015379999999,21.098715,178.4 73.7801834,21.0987041,178.9 73.780213,21.0986883,180 73.7802384,21.0986689,180.1 73.780265,21.0986753,180.3 73.78028550000001,21.0986791,180.3 73.7803196,21.0986945,180.9 73.7803408,21.0986953,181.1 73.78037860000001,21.0986986,181.9 73.7804069,21.0987074,182.4 73.78043510000001,21.0987079,182.7 73.78046089999999,21.0987009,184 73.78049249999999,21.0987077,184.9 73.7805163,21.098708,185.3 73.7805479,21.0987063,185.8 73.7805778,21.0986893,187.9 73.7805991,21.0986813,189.2 73.7806195,21.0986662,189.9 73.7806063,21.0986377,191.9 73.78059930000001,21.0986063,192.7 73.78060170000001,21.0985802,194.1 73.7806243,21.0985585,195.3 73.7806329,21.0985354,195.9 73.7806492,21.0985185,196 73.7806744,21.098511,197.3 73.7806944,21.0985048,197.3 73.7807169,21.0984976,198.2 73.7807269,21.0984806,198.7 73.7807402,21.0984483,199.7 73.7807662,21.0984353,200.3 73.78078429999999,21.0984506,200.7 73.7808165,21.0984551,201 73.78084250000001,21.0984378,201 73.7808555,21.0984221,201.1 73.7808912,21.0984251,201.1 73.7809254,21.0984162,201.1 73.78094059999999,21.0984048,201 73.7809683,21.098396,201.1 73.7809992,21.098381,201.2 73.7810247,21.0983686,200.7 73.78106440000001,21.0983678,200.6 73.7810879,21.0983741,200.5 73.7811109,21.0983725,200.3 73.7811337,21.0983592,200 73.7811622,21.0983391,199.4 73.7811913,21.0983275,199.4 73.78122260000001,21.098317,199.3 73.78124939999999,21.0983118,199.6 73.781267,21.0982997,200.1 73.781305,21.0982842,200 73.7813294,21.098282,200.3 73.78135140000001,21.0982746,200.3 73.781373,21.0982712,200.3 73.7813974,21.0982625,200.3 73.7814132,21.0982415,200.2 73.7814358,21.0982348,200.1 73.7814693,21.0982285,199.8 73.7815006,21.0982216,200.3 73.7815234,21.0982246,201.2 73.7815425,21.0982269,201.4 73.7815634,21.0982352,201.4 73.7815813,21.0982425,201.2 73.7816038,21.0982467,200.7 73.78162829999999,21.098264,200.4 73.7816303,21.0982923,200.1 73.7816437,21.0983071,199.7 73.7816634,21.0983108,199.2 73.7816734,21.0983296,198.8 73.7816941,21.0983567,198.5 73.7817074,21.0983781,198 73.7817482,21.098393,197.7 73.78177839999999,21.0984117,196.6 73.7818079,21.0984201,196.4 73.7818501,21.0983991,196 73.78186650000001,21.0983876,196 73.78188609999999,21.0983831,196.1 73.7819052,21.098386,196.2 73.78192540000001,21.0983882,196.5 73.7819508,21.0983921,196.8 73.78198089999999,21.0983872,197.1 73.7820014,21.0983834,197.1 73.78205370000001,21.0983867,197.2 73.78207279999999,21.0983835,197.3 73.7821131,21.0983675,197.7 73.7821282,21.0983535,197.7 73.78214389999999,21.0983345,197.4 73.7821562,21.0983174,197 73.7821446,21.0982982,196.3 73.7821367,21.0982758,196.3 73.7821186,21.0982572,195.9 73.7821266,21.0982404,195.8 73.7821498,21.0982274,195.1 73.7821617,21.0982067,194.6 73.78217069999999,21.0981844,194.6 73.7822003,21.0981574,193.9 73.7822192,21.0981418,193.1 73.7822254,21.0981224,192.5 73.7822151,21.098102,192.5 73.7822393,21.0980867,192.5 73.7822549,21.0980748,192.6 73.78227440000001,21.0980638,192.6 73.7823029,21.0980448,192.8 73.7823372,21.0980352,192.9 73.7823776,21.0980276,192.9 73.7824079,21.0980216,192.9 73.7824316,21.0980113,192.9 73.7824531,21.098003,192.9 73.78247159999999,21.0979927,193.6 73.78250060000001,21.0979794,193.8 73.78251590000001,21.0979654,194.1 73.7825309,21.0979459,194.2 73.78252000000001,21.0979255,194.4 73.7825232,21.0979017,194.9 73.78253840000001,21.0978866,194.8 73.78256039999999,21.0978681,194.8 73.7825859,21.0978473,194.6 73.7826024,21.0978239,194.4 73.7826178,21.0978024,194.3 73.7826331,21.0977841,194 73.7826654,21.0977654,193.8 73.7826864,21.0977517,193.6 73.78270000000001,21.0977385,193.6 73.7827071,21.0977166,193.3 73.7826948,21.0976988,192.8 73.7826879,21.0976731,192 73.78268730000001,21.0976528,190.7 73.7826932,21.0976141,189.9 73.7826975,21.0975914,189.9 73.78271429999999,21.0975571,189.5 73.7827281,21.0975384,188.8 73.7827367,21.0975157,188.1 73.78273969999999,21.097494,188.1 73.78276150000001,21.0974887,187.2 73.78278589999999,21.0974825,187.2 73.7828051,21.0974575,186.2 73.7828157,21.0974297,185.6 73.78281320000001,21.0974056,185.6 73.7828154,21.0973839,185.2 73.78282299999999,21.0973558,184.1 73.78283879999999,21.097334,182.9 73.7828518,21.0973189,182.4 73.7828684,21.0972898,182.1 73.7828719,21.0972638,181.5 73.7828837,21.0972457,180.9 73.7829019,21.0972286,180.4 73.782922,21.0972097,179.6 73.78294459999999,21.0971855,179.5 73.78296210000001,21.0971777,179.1 73.7829842,21.0971811,178.9 73.783008,21.0971582,178.5 73.7830328,21.0971472,178.1 73.7830517,21.097137,177.8 73.78307599999999,21.0971299,177.1 73.7831128,21.0971127,176.3 73.7831427,21.0971029,175.4 73.78317180000001,21.097104,174.9 73.78320069999999,21.0971004,173.8 73.7832392,21.0970946,173.3 73.78326389999999,21.0970903,173.2 73.78328380000001,21.0970809,173.2 73.7832892,21.0970433,172.7 73.7833296,21.0970403,171.9 73.78335730000001,21.0970465,171.5 73.7833808,21.0970434,171.3 73.7834115,21.0970386,171.3 73.7834426,21.0970269,170.9 73.7834723,21.0970018,170.9 73.7834861,21.0969759,170.9 73.7834963,21.0969412,170 73.7834916,21.0969012,169.7 73.7834988,21.096884,169.4 73.7835137,21.0968648,169.4 73.78352870000001,21.0968487,169.4 73.78355259999999,21.0968406,169.3 73.7835731,21.0968173,169.3 73.78358609999999,21.0967915,169.1 73.7835936,21.0967635,168.6 73.7835958,21.0967443,168.3 73.7835922,21.0967136,167.9 73.7835931,21.0966951,167.7 73.7835765,21.096671,167.3 73.7835829,21.0966424,166.7 73.78359159999999,21.0966179,166.2 73.783584,21.0965952,166.2 73.7835963,21.0965741,166 73.78362079999999,21.0965591,166.3 73.7836296,21.0965403,165.9 73.783629,21.0965149,165.9 73.7836137,21.0964968,165.8 73.7835986,21.0964847,165.8 73.7835771,21.0964641,166 73.7835678,21.0964459,166.3 73.7835592,21.0964243,166.5 73.7835472,21.0963978,166.6 73.7835436,21.096377,166.7 73.7835405,21.0963585,166.9 73.78353749999999,21.0963249,167.4 73.78353660000001,21.0962941,168.5 73.7835384,21.0962631,169 73.7835449,21.096228,170.4 73.7835469,21.0962089,171 73.7835571,21.0961854,171.9 73.7835668,21.0961647,172.5 73.7835762,21.0961487,172.5 73.7836016,21.0961368,172.9 73.78363659999999,21.0961312,173.4 73.7836556,21.0961186,173.5 73.78367919999999,21.0961178,173.5 73.78369480000001,21.0960955,173.5 73.7837141,21.0960883,173.5 73.7837251,21.0960705,173.5 73.7837497,21.0960425,173.5 73.7837662,21.0960317,173.4 73.7837976,21.0960172,173.2 73.7838197,21.0959995,173.7 73.7838556,21.0959909,174.1 73.783888,21.0959689,174.7 73.7838976,21.0959511,175 73.7839187,21.0959319,175.5 73.7839309,21.095911,176.3 73.7839597,21.0958976,177 73.7839913,21.0958909,176.9 73.78400689999999,21.0958751,176.7 73.7840138,21.0958534,176.5 73.78402490000001,21.0958339,176.6 73.7840436,21.095821,176.8 73.784059,21.0958088,176.8 73.78408109999999,21.0958012,176.8 73.7841071,21.0957968,176.5 73.7841293,21.0957903,176.5 73.7841475,21.0957841,176.3 73.7841655,21.0957768,176.2 73.784189,21.0957703,176.1 73.7842193,21.0957579,175.2 73.78423170000001,21.0957401,174.4 73.78426899999999,21.0957397,172.8 73.78430160000001,21.0957317,171.5 73.78432530000001,21.095733,170.8 73.7843445,21.0957377,170.8 73.7843637,21.0957444,169.8 73.78438869999999,21.0957473,169.7 73.7844089,21.0957529,169.6 73.784429,21.0957601,169.6 73.7844489,21.095764,169.6 73.78446940000001,21.0957663,169.8 73.78448880000001,21.0957685,169.8 73.784504,21.0957572,169.7 73.7845275,21.0957456,169.5 73.7845609,21.0957407,169.9 73.7845942,21.0957387,170.2 73.78462519999999,21.0957399,170.1 73.784648,21.0957376,169.8 73.7846804,21.0957317,169.8 73.7846997,21.0957386,169.7 73.78472069999999,21.0957298,169.7 73.7847457,21.0957231,169.9 73.7847811,21.0957143,169.8 73.78480209999999,21.0957073,169.9 73.78483060000001,21.0956982,169.8 73.784856,21.095679,169.6 73.7848905,21.095673,168.8 73.78491080000001,21.0956682,168.6 73.7849332,21.0956647,168.4 73.78496730000001,21.0956596,167.8 73.7849885,21.0956465,167.6 73.78499619999999,21.095627,166.8 73.7850059,21.0955999,166.7 73.7850052,21.0955812,166.4 73.7850072,21.095562,166.3 73.7850231,21.0955276,166.2 73.7850231,21.0955066,166.2 73.7850212,21.0954824,166.7 73.7850277,21.0954535,167.3 73.7850449,21.0954298,167.8 73.7850631,21.0954137,169.1 73.7850878,21.0954133,170 73.78512139999999,21.0954031,171.6 73.7851364,21.0954146,172.1 73.785162,21.0954266,174.9 73.7851871,21.095432,177.2 73.7852137,21.0954372,178.6 73.7852479,21.095439,178.9 73.78529380000001,21.095467,183.1 73.7853166,21.0954776,183.4 73.7853504,21.0954859,183.8 73.7853858,21.0954834,184.7 73.7854054,21.0954737,184.9 73.7854121,21.0954566,185 73.78542109999999,21.0954406,185.7 73.7854397,21.0954188,186.3 73.78547090000001,21.0953932,185.9 73.78549,21.095383,185.5 73.7855167,21.0953707,185.4 73.7855378,21.0953688,185.1 73.7855553,21.0953581,185.1 73.7855776,21.0953504,184.5 73.78560709999999,21.0953389,184.1 73.7856361,21.0953353,184.1 73.785673,21.0953297,183.4 73.78569640000001,21.0953381,183 73.7857222,21.0953433,182.8 73.7857537,21.0953542,182.8 73.78578,21.0953578,182.6 73.785796,21.0953797,182.5 73.78582059999999,21.0953996,182.7 73.7858506,21.0954168,182.5 73.7858755,21.0954303,182.5 73.78590149999999,21.0954367,182.2 73.78593909999999,21.0954395,182 73.7859747,21.0954335,182.1 73.7859938,21.0954176,182.1 73.7860115,21.0954025,182.4 73.78603630000001,21.0953915,182.1 73.7860618,21.0953808,181.8 73.7860922,21.0953694,181.9 73.7861243,21.095358,182 73.78615069999999,21.095345,182.1 73.786177,21.0953367,182.2 73.78622129999999,21.0953396,182.4 73.78624790000001,21.0953408,182.4 73.7862739,21.0953547,182.8 73.78631350000001,21.0953684,183.3 73.7863498,21.0953691,183.8 73.78637139999999,21.095373,183.8 73.78639389999999,21.0953627,184.4 73.7864173,21.0953413,184.3 73.7864458,21.0953271,184.7 73.78646449999999,21.0953215,184.8 73.7864977,21.0953254,185 73.7865175,21.0953293,185.3 73.7865431,21.0953496,186.3 73.786554,21.0953649,186.5 73.786569,21.0953935,186.9 73.7866065,21.0953943,187.5 73.78662420000001,21.0954043,187.9 73.79155350000001,21.0954484,181.6 73.7915543,21.0954069,194.2 73.79156999999999,21.0953955,200.6 73.7916633,21.09536,228.3 73.7915794,21.0953562,214.2 73.79157240000001,21.09538,211.9 73.791573,21.0954088,212.3 73.79157240000001,21.0954479,213.3 73.7915639,21.0954786,214 73.79158339999999,21.0954941,214.4 73.7916015,21.0955049,214.8 73.7916233,21.0955042,214.9 73.791646,21.0954899,214.9 73.7916716,21.0954955,215.1 73.7916929,21.0954959,215.5 73.7917037,21.0955123,216.9 73.79172029999999,21.0955287,217.1 73.7917458,21.095518,217.2 73.791764,21.0955042,217.7 73.7917836,21.0955124,217.9 73.7918009,21.0955266,218.8 73.7917824,21.0955553,219.6 73.7917801,21.0955814,220.4 73.79180119999999,21.0955841,220.9 73.7918282,21.0956067,223.9 73.7918227,21.0956308,224.7 73.79180049999999,21.0956539,225.1 73.7917863,21.0956722,226 73.7917659,21.0956813,226.5 73.791738,21.095702,227.9 73.791725,21.0957278,228.5 73.791708,21.0957548,229.7 73.79169640000001,21.0957769,231.1 73.79172079999999,21.0957504,231.5 73.7917442,21.0957263,232.2 73.7917628,21.095717,232.6 73.7917874,21.0957207,233.4 73.79181010000001,21.0957241,234.1 73.79183569999999,21.0957222,234.5 73.79185870000001,21.0957311,235.6 73.7918887,21.095737,236.1 73.79190250000001,21.0957522,237.5 73.7918775,21.0957599,237.8 73.79185699999999,21.0957734,237.9 73.7918394,21.0957875,237.8 73.791813,21.0958167,237.8 73.7917934,21.0958265,237.7 73.7917786,21.0958496,237.8 73.7918055,21.0958393,238.1 73.79182969999999,21.0958301,238.8 73.79184600000001,21.0958447,239.7 73.79184650000001,21.0958686,240.6 73.7918428,21.0958881,241.0000000000001 73.79183690000001,21.0959135,242 73.7918561,21.0959004,242.9 73.791883,21.095892,243.5 73.7919072,21.0958958,245.3 73.7918876,21.0959002,246.9 73.79188000000001,21.0959174,247.3 73.79187829999999,21.0959361,247.7 73.7918916,21.095951,250 73.79190819999999,21.0959606,250.8 73.7919211,21.0959883,251.2 73.791932,21.0960086,251.6 73.79195300000001,21.0960092,252.7 73.7919814,21.096023,253.1 73.7920029,21.0960409,254 73.7920067,21.0960693,254.8 73.7919934,21.0960903,255.7 73.7919825,21.0961133,257.3 73.7919843,21.0961426,258.9 73.791965,21.0961833,263 73.7919845,21.0962138,264.9 73.7919855,21.0962353,264.8 73.7919959,21.0962738,264 73.7919977,21.0963032,263.5 73.7920124,21.0963149,263 73.79204369999999,21.0963285,261.8 73.792063,21.0963376,261.8 73.79208130000001,21.0963638,261.8 73.792098,21.0963758,261.7 73.7921147,21.0963956,261.6 73.79212269999999,21.0964265,261.7 73.7921394,21.0964493,261.6 73.7921566,21.0964684,261.9 73.7921771,21.0964978,262.3 73.79218899999999,21.0965158,262.9 73.79219879999999,21.096534,262.9 73.79221459999999,21.0965535,263.1 73.7922451,21.0965773,263.3 73.7922605,21.096595,263.3 73.7922793,21.0966259,263.6 73.7923057,21.0966513,263.9 73.7923203,21.0966695,263.7 73.7923334,21.0966848,263.7 73.7923469,21.09671,263.5 73.7923543,21.0967299,263.6 73.79236349999999,21.09675,263.6 73.79236419999999,21.0967799,263.7 73.7923619,21.0968085,263.7 73.7923547,21.0968253,263.5 73.79235060000001,21.0968446,263.3 73.7923536,21.0968672,263.5 73.7923577,21.0968889,263.5 73.7923727,21.0969194,263.7 73.79237879999999,21.0969557,263.4 73.7923924,21.0969725,263.4 73.7923953,21.0969918,263.2 73.792396,21.0970151,262.9 73.7923957,21.0970372,262.7 73.79239680000001,21.0970561,262.7 73.7923985,21.0970773,262.6 73.7924046,21.0971067,262.8 73.792423,21.0971331,262.5 73.7924288,21.097154,262.5 73.79243390000001,21.0971738,262.7 73.7924435,21.0971972,262.9 73.79245469999999,21.09722,263 73.7924647,21.097236,263.2 73.79247100000001,21.0972541,263.4 73.7924762,21.0972892,263.9 73.79247909999999,21.0973134,264.4 73.7924869,21.097332,264.4 73.7925008,21.0973477,264.4 73.79250380000001,21.097367,264.5 73.792518,21.0973921,264.6 73.79253249999999,21.0974097,264.6 73.7925415,21.0974404,264.6 73.7925582,21.0974683,264.8 73.7925645,21.0974948,265.2 73.79255980000001,21.0975135,266.3 73.7925611,21.0975411,266.3 73.7925649,21.0975732,267 73.79257680000001,21.0975882,267.6 73.7925876,21.0976033,267.6 73.79259999999999,21.097623,267.5 73.7926212,21.0976525,267.5 73.792631,21.097671,267.8 73.7926248,21.0976932,268.6 73.79262919999999,21.0977155,268.6 73.7926422,21.0977383,268.1 73.79266130000001,21.0977516,267.5 73.7926914,21.0977789,267.4 73.7927182,21.0978001,267.4 73.7927383,21.0978068,267.4 73.7927701,21.0978222,268.3 73.7927844,21.0978388,269 73.7927969,21.097854,269 73.7928086,21.0978798,270.2 73.7928174,21.0979071,270.2 73.79282259999999,21.0979267,270.9 73.7928321,21.0979505,271.7 73.7928352,21.0979726,271.7 73.7928438,21.0980112,271.9 73.7928412,21.0980349,271.9 73.79285280000001,21.0980674,271.9 73.7928477,21.0980965,271.5 73.79284180000001,21.0981151,271.7 73.79284560000001,21.0981347,271.9 73.79285400000001,21.0981688,271.9 73.7928879,21.0981866,272.1 73.79290690000001,21.0981946,272 73.79292169999999,21.0982231,270.9 73.79292169999999,21.0982419,271 73.79293509999999,21.0982633,271 73.79295380000001,21.0982766,271.6 73.7929755,21.0982864,271.6 73.79299210000001,21.0983111,271.8 73.7930066,21.0983259,271.7 73.7930308,21.0983352,271.9 73.7930515,21.0983259,271.4 73.7930862,21.0983112,270.6 73.7931076,21.0983049,270.6 73.79313089999999,21.0983068,269.7 73.7931588,21.0983097,269.7 73.79319599999999,21.0983298,268.9 73.79322329999999,21.098345,268.1 73.7932443,21.0983641,268.1 73.7932572,21.0983875,266.8 73.7932673,21.0984041,266.8 73.7932776,21.0984272,265 73.7932876,21.0984544,264.2 73.7932911,21.0984766,263.4 73.7932941,21.0985002,263.4 73.7933027,21.0985211,262.5 73.79331000000001,21.0985441,262.5 73.7933144,21.0985799,261.7 73.7933041,21.0986075,261.7 73.7933207,21.0986395,261 73.79332909999999,21.0986601,261 73.7933441,21.098697,260.2 73.79335810000001,21.0987302,259.7 73.7933706,21.0987639,258.8 73.7933762,21.0987932,258.8 73.7933865,21.0988266,258.3 73.7933783,21.0988484,258.2 73.7933713,21.0988668,258 73.7933656,21.0988915,258 73.79337580000001,21.0989259,257.7 73.7933788,21.0989443,257.6 73.79338300000001,21.098981,257.6 73.7933979,21.0990142,257.7 73.7933973,21.0990329,257.4 73.7933998,21.0990511,257 73.79341100000001,21.0990661,256.7 73.7934247,21.0990817,256.7 73.7934367,21.0991032,256.6 73.7934563,21.0991343,256.8 73.7934612,21.0991519,257.3 73.7934623,21.099171,258 73.7934715,21.099207,259.2 73.7934819,21.0992473,260.2 73.7934862,21.0992681,260.8 73.7934887,21.09929,261.2 73.7934905,21.0993266,262.1 73.7934952,21.0993496,262.7 73.7935032,21.0993891,263 73.79350719999999,21.099421,263.5 73.79351269999999,21.0994512,264 73.79352009999999,21.0994772,264 73.7935244,21.0994959,263.9 73.79353279999999,21.0995159,263.9 73.79354120000001,21.0995477,264.2 73.7935523,21.0995724,264.9 73.7935544,21.0995948,265.3 73.7935545,21.0996179,265.2 73.79356629999999,21.099635,265.1 73.7935739,21.0996535,265.2 73.79358619999999,21.0996846,265.1 73.7935762,21.0997003,265 73.79354979999999,21.0996935,265.7 73.793543,21.0996759,265.8 73.79352009999999,21.0996883,265.6 73.79350599999999,21.0997117,265.5 73.7934972,21.0997327,265.4 73.7934983,21.0997539,265.4 73.7935037,21.0997954,265.4 73.7935076,21.0998132,265.5 73.7935105,21.0998442,265.5 73.79351320000001,21.0998652,265.1 73.7935047,21.0998818,264.9 73.79349019999999,21.0999131,264.7 73.79347970000001,21.0999289,264.7 73.79347970000001,21.0999484,264.6 73.7934707,21.0999708,264.4 73.7934655,21.1000021,264 73.79346870000001,21.1000363,263.8 73.79347420000001,21.1000647,263.7 73.7934759,21.100083,263.4 73.7934626,21.1001104,263.1 73.7934626,21.1001429,262.7 73.79346820000001,21.1001763,262.5 73.7934838,21.1001901,262 73.7935018,21.1002042,262 73.7935097,21.1002249,262.5 73.7935071,21.100246,263.3 73.79349379999999,21.100267,264.9 73.79348330000001,21.100291,265.5 73.79348040000001,21.1003237,266.2 73.7934786,21.1003434,266.3 73.79348280000001,21.1003653,266.9 73.7934925,21.1003812,267 73.7935102,21.1004056,267 73.7935238,21.10043,267 73.7935318,21.1004475,267.1 73.7935442,21.1004618,267 73.7935277,21.1004869,267 73.79351509999999,21.1005089,267.3 73.793509,21.1005269,267.4 73.7934985,21.1005566,267.6 73.7934822,21.100578,267.9 73.79345290000001,21.1005819,268.1 73.79343040000001,21.1005917,268.1 73.793414,21.1006279,269.4 73.793415,21.1006469,269.5 73.79341959999999,21.1006802,270 73.7934298,21.1007112,270.1 73.7934334,21.1007298,271 73.79344469999999,21.1007621,271.6 73.7934542,21.1007913,271.9 73.7934508,21.1008121,272.1 73.7934267,21.1008275,272.3 73.79342,21.1008476,272.7 73.7934101,21.1008879,274.2 73.7934077,21.100916,274.8 73.7934168,21.1009392,275.5 73.7934376,21.1009564,276.2 73.79345309999999,21.1009704,277.6 73.7934692,21.101001,278.3 73.79347439999999,21.1010191,278.7 73.7934917,21.1010417,278.9 73.7935114,21.1010561,279.1 73.7935389,21.1010782,279.8 73.7935696,21.1010818,280.3 73.79359839999999,21.1010894,280.7 73.7936138,21.1011029,281.4 73.79363429999999,21.101126,281.9 73.79366880000001,21.1011477,282.5 73.7936942,21.1011644,282.8 73.79371159999999,21.1011889,283.5 73.793729,21.1012107,283.7 73.7937467,21.1012285,284.3 73.7937721,21.1012477,284.6 73.7937991,21.101264,285 73.79381840000001,21.1012848,285.6 73.7938407,21.1013102,286.2 73.7938491,21.1013277,286.6 73.7938669,21.1013512,286.8 73.7938892,21.1013657,286.8 73.7939128,21.1013864,286.7 73.7939305,21.1014006,286.7 73.7939521,21.1014133,286.6 73.793977,21.1014292,287 73.7939971,21.1014412,287.1 73.79401470000001,21.101457,287.7 73.7940392,21.1014889,288.2 73.7940681,21.1015111,288.8 73.79407430000001,21.1015283,289.2 73.7940839,21.1015444,289.7 73.7941067,21.1015669,291.2 73.7941218,21.1015921,291.3 73.794135,21.1016066,291.4 73.7941484,21.1016207,291.5 73.794167,21.1016334,291.6 73.79417979999999,21.1016518,291.5 73.7941888,21.1016847,291.3 73.7941952,21.1017122,290.9 73.7942022,21.101739,290.9 73.7942036,21.1017725,290.8 73.7942154,21.1017998,290.7 73.7942312,21.1018183,290.8 73.7942465,21.1018363,290.9 73.79426220000001,21.1018575,290.9 73.7942872,21.101882,290.6 73.79431870000001,21.1019105,290.3 73.79433450000001,21.1019314,290.3 73.7943556,21.1019588,290.2 73.7943693,21.1019763,290.1 73.79438399999999,21.1019942,290.2 73.79439139999999,21.1020142,290 73.7943977,21.1020326,290 73.7944057,21.1020498,289.9 73.7944238,21.1020779,289.4 73.7944269,21.1021052,289.3 73.7944164,21.1021254,289.3 73.7944047,21.1021522,289.3 73.79440630000001,21.1021747,289.1 73.79439619999999,21.1021961,288.8 73.7943966,21.1022251,288.8 73.7944,21.1022456,288.8 73.7944035,21.1022828,288.9 73.7944092,21.1023079,288.8 73.7944179,21.1023309,288.8 73.7944349,21.1023589,288.8 73.7944248,21.1023881,288.9 73.7944147,21.1024054,288.9 73.7944037,21.1024222,288.9 73.7943854,21.1024456,289.2 73.7943647,21.1024598,289.6 73.7943528,21.1024753,289.4 73.79434019999999,21.1025063,289.3 73.79433400000001,21.1025373,289.1 73.7943119,21.1025559,288.8 73.7942979,21.1025731,288.5 73.794281,21.1025921,288.3 73.79427080000001,21.1026092,287.6 73.79425550000001,21.1026222,287.5 73.7942438,21.1026406,286.8 73.7942348,21.1026573,286.2 73.7942226,21.1026757,285.3 73.79421600000001,21.1027105,284.9 73.7942134,21.102734,284.7 73.7942085,21.1027629,284.4 73.79420810000001,21.1027817,284.4 73.7942137,21.1028115,284.1 73.7942103,21.1028381,283.2 73.79420260000001,21.1028698,283 73.7942123,21.1028952,282.3 73.7942011,21.1029191,282 73.79418870000001,21.102944,281.2 73.7941764,21.1029758,280.9 73.7941641,21.1030036,280.3 73.7941663,21.1030228,279.2 73.79415590000001,21.1030439,278.8 73.79413940000001,21.1030739,278.4 73.7941306,21.1030999,277.8 73.794116,21.103123,277.4 73.794112,21.1031427,277.2 73.7940991,21.1031656,276.6 73.7940871,21.1031921,276.2 73.7940794,21.1032092,275.8 73.7940689,21.1032257,275.3 73.7940548,21.1032394,275.3 73.79403480000001,21.1032574,274.9 73.7940143,21.103272,274.9 73.7939914,21.1032891,274.8 73.7939727,21.103314,274.5 73.7939755,21.1033398,273.8 73.79397059999999,21.1033628,273.5 73.7939804,21.1033944,272.6 73.79397849999999,21.1034206,272.4 73.7939662,21.103449,272.3 73.793948,21.1034796,272.2 73.79394979999999,21.1035104,271.9 73.79395359999999,21.1035386,271.1 73.7939482,21.1035576,270.6 73.79394360000001,21.1035758,270.5 73.7939361,21.1036115,269.8 73.7939216,21.1036345,269.1 73.7939066,21.1036681,268.3 73.7938918,21.1036865,268 73.79388659999999,21.1037227,267.4 73.79388299999999,21.1037564,266.6 73.7938666,21.1037863,266.2 73.7938565,21.1038062,265.9 73.7938497,21.1038285,265.6 73.7938424,21.1038476,265.6 73.7938376,21.1038738,264.8 73.7938367,21.1038962,264.7 73.7938448,21.1039174,264.6 73.7938554,21.1039362,264.5 73.79386479999999,21.1039554,264.5 73.7938702,21.1039849,264.4 73.7938814,21.1040131,264.2 73.7938946,21.1040416,263.6 73.793899,21.1040598,263.6 73.79390480000001,21.1040895,263 73.7939042,21.1041083,262.8 73.7939058,21.104133,262.5 73.79390480000001,21.1041547,262.2 73.7939179,21.1041819,261.2 73.793925,21.1042162,260.3 73.7939263,21.1042355,259.9 73.7939409,21.1042689,259.5 73.79395,21.1042886,259 73.7939652,21.104312,258.2 73.7939812,21.1043317,257.8 73.7939923,21.1043482,257.4 73.79401129999999,21.1043764,257 73.79403170000001,21.1043992,257.1 73.7940412,21.1044241,257.5 73.7940459,21.1044418,257.5 73.794051,21.1044639,257.8 73.7940602,21.1044822,258.8 73.7940739,21.1044978,258.9 73.7940902,21.1045144,258.9 73.79410249999999,21.10453,259.2 73.794113,21.1045485,259.2 73.79412960000001,21.1045708,259.7 73.7941409,21.1045909,259.9 73.7941562,21.104603,260.1 73.7941838,21.1046285,260.5 73.79420279999999,21.1046367,261.2 73.7942185,21.1046541,261.6 73.79422870000001,21.1046764,261.8 73.7942384,21.1046996,261.8 73.79424710000001,21.1047198,262 73.7942549,21.1047378,262.3 73.7942662,21.1047612,262.5 73.7942845,21.104789,262.3 73.7943053,21.1048229,262.8 73.79431839999999,21.1048414,262.9 73.79433469999999,21.104856,263.7 73.7943477,21.1048752,263.7 73.7943641,21.104889,263.9 73.7943779,21.1049038,264 73.7944028,21.1049292,264.3 73.7944126,21.1049551,264.2 73.7944107,21.104977,264.2 73.79441850000001,21.1049946,264.4 73.7944291,21.105012,264.5 73.7944372,21.1050333,264.5 73.79444599999999,21.1050529,264.5 73.79445800000001,21.1050753,264.6 73.79446470000001,21.1050945,264.7 73.7944718,21.1051155,264.7 73.79447500000001,21.1051368,264.7 73.79447860000001,21.1051732,264.8 73.79448189999999,21.1052016,265.2 73.7944859,21.1052261,265.2 73.7944954,21.1052467,265 73.7945065,21.1052665,264.5 73.79451589999999,21.1052844,264.5 73.7945273,21.1053073,264 73.79453650000001,21.1053347,264 73.7945615,21.1053562,263.1 73.7945785,21.1053807,261.9 73.7945886,21.1053998,261.4 73.7946022,21.1054334,260.8 73.7946152,21.1054482,259.9 73.7946314,21.1054657,259.6 73.7946534,21.1054903,259.6 73.7946737,21.1055064,258.9 73.7946942,21.1055246,258.9 73.79472440000001,21.1055509,258.7 73.79474089999999,21.105568,258.7 73.7947667,21.1055973,258.7 73.7947865,21.1056144,258.8 73.7948055,21.1056225,258.7 73.7948396,21.1056394,258.6 73.7948607,21.1056467,258.7 73.7948907,21.105653,259.1 73.79491470000001,21.1056759,259.2 73.79492310000001,21.1056983,259.4 73.7949352,21.1057191,259.5 73.79494339999999,21.105749,259.2 73.7949524,21.1057797,259.6 73.79495970000001,21.1058062,260 73.7949584,21.10583,260.2 73.794955,21.1058546,260.3 73.7949448,21.1058726,260.3 73.79493650000001,21.1058952,260.5 73.794932,21.1059171,260.5 73.79493479999999,21.1059388,260.4 73.7949357,21.1059583,260.5 73.79493530000001,21.1059779,260.6 73.79493119999999,21.1059979,260.5 73.7949275,21.106016,260.4 73.7949227,21.1060351,260.1 73.7949193,21.1060535,259.9 73.7949199,21.1060741,259.6 73.7949189,21.1060942,259.6 73.7949175,21.1061158,259.3 73.79490869999999,21.1061531,258.8 73.7948997,21.1061847,258.5 73.794893,21.1062222,258.4 73.7949047,21.1062512,258.5 73.7949077,21.1062778,258.4 73.794909,21.106303,258.1 73.7949074,21.1063259,258.1 73.794906,21.1063516,258 73.79490079999999,21.1063709,257.9 73.7949064,21.1063946,257.9 73.79490680000001,21.1064221,257.9 73.79490560000001,21.106454,257.5 73.79490250000001,21.1064744,257.5 73.7949036,21.1065078,257.3 73.79490079999999,21.1065315,257.2 73.79489959999999,21.1065615,257 73.7949052,21.1065847,256.9 73.7949105,21.1066146,256.9 73.79490370000001,21.1066415,256.9 73.7948844,21.1066495,256.8 73.79486369999999,21.1066801,258.6 73.79484239999999,21.1067104,258.9 73.7948287,21.1067303,258.9 73.7948122,21.1067664,260.2 73.79480239999999,21.1067829,260.2 73.7947985,21.1068062,261.5 73.7947976,21.1068363,262.2 73.7947922,21.106854,262.8 73.7947765,21.106873,263.5 73.7947621,21.1068894,263.5 73.79475530000001,21.1069098,264.5 73.7947509,21.1069321,264.5 73.7947456,21.1069638,265.3 73.7947491,21.1069848,265.6 73.7947413,21.107005,266 73.7947368,21.1070355,266.2 73.79471719999999,21.1070615,266.2 73.7947104,21.1070893,266.2 73.7947066,21.10711,266.1 73.7947032,21.1071309,266.1 73.79469520000001,21.1071515,266.1 73.7946901,21.1071765,266.2 73.7946762,21.1072021,266.2 73.7946656,21.1072207,266.2 73.7946505,21.1072443,266.2 73.79464489999999,21.1072647,265.8 73.7946398,21.1072941,265 73.79463079999999,21.1073272,264.3 73.7946204,21.1073478,264.3 73.7946161,21.1073812,263.7 73.7946144,21.1073997,263.5 73.7946053,21.107438,263.4 73.7946029,21.1074568,262.8 73.7945879,21.1074839,262.6 73.7945696,21.1075056,262.3 73.7945555,21.1075246,262.3 73.7945438,21.1075474,262.1 73.7945508,21.107565,262.1 73.7945618,21.1075821,262.3 73.79457480000001,21.1075995,262.2 73.7945915,21.107615,262.2 73.7946019,21.1076467,261.9 73.7946032,21.1076659,261.9 73.7946239,21.1076904,261.9 73.7946383,21.1077059,261.8 73.794662,21.1077355,261.7 73.79467409999999,21.1077497,261.8 73.79468319999999,21.1077665,261.8 73.7946982,21.1077846,261.8 73.7947183,21.107805,261.4 73.794736,21.1078163,261 73.79476529999999,21.107841,261 73.7947795,21.1078697,260.6 73.79478469999999,21.1078903,260.6 73.7947918,21.1079103,260.4 73.7947964,21.1079483,259.4 73.7948189,21.1079783,258.4 73.7948325,21.1079938,257.8 73.79484530000001,21.1080101,257.4 73.79485510000001,21.1080273,257.1 73.79486369999999,21.1080435,256.7 73.7948763,21.1080626,256.5 73.794889,21.1080764,256.1 73.79490130000001,21.1080955,255.8 73.7949132,21.1081099,255.7 73.79492449999999,21.1081254,255.5 73.79493770000001,21.1081388,255.4 73.7949667,21.1081714,255.3 73.7949862,21.1081936,255.2 73.79500590000001,21.1082075,255.6 73.795018,21.1082254,255.9 73.795013,21.1082493,255.9 73.7950373,21.1082753,256.7 73.7950568,21.1082904,256.9 73.7950744,21.108304,257.4 73.79508180000001,21.1083258,257.3 73.7950775,21.1083579,257.2 73.7950798,21.1083807,257 73.79508680000001,21.1084131,256.7 73.79508850000001,21.1084314,256.4 73.7950948,21.10845,256.4 73.7950992,21.1084753,255.9 73.7950968,21.1084998,255.4 73.7950943,21.1085299,254.6 73.7950767,21.1085572,254.1 73.7950845,21.1085765,254.1 73.7950999,21.1085963,254.1 73.795114,21.1086086,254 73.79513900000001,21.1086223,253.6 73.79516580000001,21.1086492,253.2 73.7951812,21.1086749,252.7 73.7952007,21.1086793,252.1 73.7952114,21.1086963,251.7 73.79523,21.1087214,251.4 73.795253,21.1087436,251 73.7952646,21.1087599,250.6 73.7952798,21.1087771,250.4 73.7953054,21.1087916,249.7 73.7953219,21.108802,249.3 73.79534750000001,21.1088094,248.1 73.7953631,21.1088233,248.1 73.7953792,21.1088368,247.8 73.7954098,21.1088596,247.5 73.7954342,21.1088759,247.1 73.7954532,21.1088955,247.1 73.79546999999999,21.1089118,247 73.79548990000001,21.1089315,246.9 73.7955012,21.1089648,246.6 73.79551960000001,21.1089816,246.2 73.7955384,21.1090083,246.1 73.7955539,21.1090232,245.8 73.7955729,21.1090495,245.7 73.7955935,21.1090688,245.3 73.7956088,21.1090835,244.8 73.7956215,21.1090982,244.8 73.79564190000001,21.1091284,244.4 73.7956569,21.1091432,244.1 73.7956811,21.1091644,243.3 73.7956854,21.1091822,243 73.79568,21.1092152,242.7 73.7956764,21.109235,242.7 73.7956786,21.1092652,242.7 73.79568190000001,21.1092848,242.8 73.7956848,21.1093051,242.8 73.7956899,21.1093243,243 73.7957057,21.1093561,243 73.7957279,21.1093864,242.8 73.79575370000001,21.1094119,242.7 73.7957789,21.1094402,242.4 73.795811,21.1094437,242.1 73.7958393,21.109456,241.6 73.79584920000001,21.1094728,241.4 73.7958598,21.1094923,241.3 73.7958735,21.1095057,241.3 73.7958945,21.1095149,241.3 73.7959146,21.1095361,241.2 73.795925,21.1095529,241.0000000000001 73.7959462,21.1095828,240.7 73.795957,21.1096011,240.6 73.79597390000001,21.1096194,240.7 73.7959828,21.1096356,240.7 73.7959941,21.109654,240.7 73.79600689999999,21.1096782,241.0000000000001 73.7960236,21.1096987,241.0000000000001 73.79604019999999,21.1097134,241.3 73.7960542,21.1097329,241.5 73.7960672,21.1097508,241.5 73.796092,21.1097659,242.4 73.7961044,21.109787,242.9 73.7961171,21.1098033,243.1 73.79613519999999,21.1098191,243.1 73.7961581,21.1098358,243.6 73.7961811,21.1098548,243.6 73.79620180000001,21.1098704,243.6 73.7961466,21.1098227,243.6 73.7961572,21.1098606,243.6 73.7961438,21.1098428,243.6 73.7961373,21.1098222,243.6 73.7961217,21.110098,246.6 73.79612830000001,21.1101187,252 73.79610289999999,21.1101571,251.3 73.7960824,21.1101865,250.8 73.7960626,21.1102141,250.4 73.7960398,21.1102225,250.4 73.79602439999999,21.1102608,249.7 73.7960039,21.1102912,249.8 73.79598540000001,21.1103087,249.8 73.79596100000001,21.1103295,249.8 73.7959446,21.1103415,250.1 73.7959305,21.1103541,250.1 73.7959328,21.1103749,250.2 73.7959324,21.110399,250.5 73.7959314,21.1104221,250.7 73.79592479999999,21.110443,251.1 73.7959204,21.1104648,251.4 73.79590570000001,21.1104826,251.7 73.79589989999999,21.1105049,253.6 73.79589989999999,21.1105364,254 73.7959097,21.1105668,254.1 73.7959187,21.1105938,254 73.79590899999999,21.110622,254.2 73.795902,21.1106477,254.7 73.7958986,21.1106756,255.2 73.7958903,21.1106928,255.3 73.79587100000001,21.1107119,255.6 73.7958525,21.1107357,256.3 73.79582790000001,21.1107528,256.5 73.7958154,21.1107784,257.2 73.7958043,21.1107965,258 73.795787,21.1108073,258.6 73.7957779,21.110825,259.4 73.7957672,21.1108497,259.7 73.7957497,21.1108861,260 73.795756,21.1109158,260.1 73.79574890000001,21.110894,260.3 73.7957688,21.1109216,261.1 73.79578170000001,21.1109514,261.5 73.7958,21.1109762,261.4 73.79581899999999,21.110995,261.7 73.7958474,21.1110208,261.9 73.79585,21.1110392,261.8 73.79586089999999,21.1110678,261.8 73.7958665,21.1111052,261.7 73.7958555,21.1111322,261.6 73.7958545,21.1111512,261.5 73.7958352,21.1111656,261.3 73.7958249,21.1111812,261.1 73.7958252,21.1112006,261.3 73.79582720000001,21.1112228,261.3 73.7958229,21.1112427,261.3 73.7958287,21.1112685,260.8 73.79584439999999,21.1112822,260.8 73.79586260000001,21.1112979,260.6 73.7958694,21.1113181,260.5 73.7958788,21.1113361,260.5 73.7958879,21.1113622,260.4 73.79589799999999,21.1113779,260.3 73.7959115,21.1113933,259.8 73.7959271,21.1114091,259.8 73.79594899999999,21.1114309,259.8 73.7959664,21.1114423,259.4 73.79598540000001,21.1114555,259.4 73.79599709999999,21.1114848,258.7 73.7960051,21.1115075,258.5 73.7960145,21.1115244,258.2 73.7960302,21.11155,258.3 73.79604689999999,21.1115672,258.4 73.79607230000001,21.1115989,259 73.7960787,21.1116208,259.3 73.79609809999999,21.1116599,259.9 73.79611509999999,21.1116785,259.6 73.7961162,21.1117112,259.5 73.7961116,21.1117327,259 73.79611439999999,21.1117595,259 73.7961078,21.1117791,259.1 73.7960968,21.1117983,259.2 73.7960889,21.1118253,259.2 73.7960803,21.111848,259.2 73.7960745,21.1118716,259.1 73.79606800000001,21.111892,259.1 73.796053,21.1119219,259.9 73.79602939999999,21.1119486,260.1 73.79600979999999,21.1119602,260.3 73.7959901,21.1119676,260.5 73.79596739999999,21.1119828,260.9 73.7959472,21.1119998,261.6 73.7959254,21.1120096,261.9 73.7959012,21.1120167,262 73.7958819,21.1120269,262.1 73.79585539999999,21.1120363,262.1 73.7958404,21.1120486,262.5 73.79582550000001,21.1120652,263.1 73.7958033,21.1120727,263.3 73.7957732,21.1120681,263.4 73.79573569999999,21.1120812,264 73.7957207,21.1121011,263.7 73.7956911,21.1121118,263.6 73.7956701,21.1121252,263.4 73.7956488,21.112131,263.4 73.7956291,21.1121384,263.4 73.7956094,21.1121516,263.6 73.79559209999999,21.1121622,263.6 73.79557,21.112177,263.8 73.7955527,21.1121883,263.6 73.7955338,21.1122034,263.6 73.7955096,21.1122267,263.4 73.7954957,21.112242,263.3 73.7954809,21.1122584,263.3 73.7954592,21.1122722,263.4 73.7954336,21.1123003,263.7 73.795407,21.112309,264.4 73.7953902,21.1123218,264.4 73.7953488,21.1123448,264.8 73.7953158,21.1123621,265.2 73.79529580000001,21.112367,265.3 73.79527469999999,21.1123734,265.3 73.7952361,21.1123881,265.4 73.7952183,21.112395,265.3 73.7952014,21.1124055,265 73.7951832,21.1124156,265 73.7951442,21.1124385,264.5 73.7951159,21.1124461,264.5 73.7950822,21.1124568,264.4 73.7950501,21.1124656,264.2 73.7950306,21.1124751,264.2 73.79501140000001,21.112483,263.2 73.79499250000001,21.1124923,262.5 73.7949734,21.1125045,262.5 73.79495679999999,21.1125157,262.1 73.794938,21.1125335,261.6 73.7949272,21.1125521,261.6 73.79491539999999,21.1125796,261.6 73.79491590000001,21.1126201,261.6 73.7949212,21.1126561,262.2 73.7949362,21.1126714,262.6 73.7949661,21.1126945,263.4 73.7949806,21.1127252,263.9 73.7949826,21.1127564,264.5 73.7949859,21.1127775,264.7 73.7949871,21.1127969,264.7 73.79497840000001,21.1128388,265.3 73.794977,21.112862,265.2 73.79497910000001,21.1128834,265.2 73.7949765,21.1129067,265.3 73.7949751,21.1129291,265.3 73.7949698,21.1129489,265.5 73.79495729999999,21.11297,266.3 73.79494750000001,21.112993,266.3 73.7949375,21.1130256,267.7 73.79491779999999,21.113052,268.4 73.7949067,21.1130707,268.6 73.7948974,21.1130875,268.9 73.7948844,21.1131039,268.9 73.7948695,21.1131207,268.8 73.7948552,21.1131401,268.8 73.7948399,21.1131669,268.8 73.79482059999999,21.1131837,268.9 73.79480169999999,21.1131973,268.9 73.7947827,21.1132057,268.9 73.7947542,21.1132197,268.5 73.79472199999999,21.1132325,268.5 73.7946882,21.113254,268.1 73.7946652,21.1132724,267.3 73.79464609999999,21.1132905,267.3 73.794622,21.1132988,267 73.79460779999999,21.1133123,266.7 73.7945907,21.1133307,266.7 73.79457170000001,21.1133434,266 73.7945366,21.113356,265.3 73.7945033,21.1133571,265.3 73.7944797,21.113352,265.6 73.7944373,21.1133543,266.1 73.7944066,21.1133488,266.2 73.7943837,21.1133433,266.1 73.79435909999999,21.1133347,266 73.7943382,21.1133275,265.7 73.7943199,21.1133181,265.5 73.7942875,21.113314,264.7 73.79426100000001,21.1133261,264.3 73.7942358,21.1133316,263.9 73.79421910000001,21.1133461,263 73.79424950000001,21.113319,261.7 73.7942639,21.113292,261.6 73.7942767,21.11327,261.7 73.7943001,21.113249,261.4 73.79429469999999,21.1132279,261 73.7942831,21.1132039,260.9 73.79426890000001,21.1131882,260.9 73.7942595,21.1131644,260.9 73.79425329999999,21.1131422,260.9 73.7942461,21.1131237,260.8 73.7942426,21.1131044,260.9 73.7942279,21.1130894,260.9 73.7942202,21.1130661,261.1 73.79420330000001,21.1130493,261.2 73.79418800000001,21.1130291,261.5 73.7941775,21.1130101,261.7 73.79416500000001,21.1129916,261.7 73.7941426,21.1129577,261.4 73.7941307,21.1129309,261.4 73.79411039999999,21.1129175,261 73.7940924,21.1129044,261.1 73.7940741,21.1128949,261 73.79405199999999,21.1128784,261 73.794031,21.1128652,261.4 73.79400459999999,21.1128537,261.4 73.7939842,21.1128435,262.2 73.7939562,21.112821,263 73.79393829999999,21.1128076,263.6 73.7939147,21.1127782,264 73.7939076,21.1127581,264.3 73.7938961,21.1127428,264.4 73.7938868,21.1127234,264.4 73.793888,21.1126913,263.9 73.7938915,21.1126665,263.4 73.7938813,21.1126488,263 73.793862,21.1126183,262.9 73.79383799999999,21.1126009,263.1 73.7938027,21.1126095,263.3 73.7937833,21.1125969,263.3 73.7937635,21.1125845,263.7 73.79374610000001,21.1125711,263.8 73.79372840000001,21.1125573,264 73.7936965,21.1125346,264.1 73.7936818,21.1125188,264.1 73.7936751,21.1124982,263.8 73.7936728,21.1124798,263.3 73.79366779999999,21.1124567,263.1 73.7936376,21.1124272,263.2 73.7936114,21.1123964,263.3 73.79359119999999,21.112382,263.3 73.7935695,21.1123736,263.3 73.7935397,21.1123666,263 73.793515,21.1123394,262.6 73.7934944,21.11233,262 73.7934753,21.11232,261.8 73.7934662,21.1122987,261.8 73.793452,21.1122859,261.6 73.7934295,21.1122773,261.4 73.7934083,21.1122705,260.9 73.7933735,21.1122551,260.1 73.7933443,21.1122343,259.6 73.7933365,21.1121967,258.9 73.7933304,21.1121725,258.6 73.79330659999999,21.1121585,258.6 73.793271,21.1121494,258.3 73.7932483,21.1121477,258.2 73.7932277,21.1121461,258.2 73.7931859,21.1121339,258.6 73.7931562,21.1121311,258.6 73.7931361,21.1121287,258.9 73.7931102,21.1121186,259.9 73.7930866,21.1121097,259.9 73.7930539,21.1121002,260.4 73.7930356,21.1120933,260.4 73.79301460000001,21.1120837,260.7 73.79297769999999,21.1120714,259.7 73.7929481,21.1120557,259.4 73.7929221,21.112044,259.4 73.792897,21.1120392,259.4 73.79286260000001,21.1120258,259.6 73.79283270000001,21.1120198,259.6 73.7927971,21.1120101,260.5 73.7927717,21.1120029,261 73.792754,21.1119896,261.3 73.7927342,21.1119898,261.3 73.7927095,21.1119923,261.5 73.7926891,21.1119796,261.5 73.79266509999999,21.1119533,261.3 73.7926408,21.111929,260.9 73.7926119,21.1119163,260.6 73.7925807,21.111904,260.6 73.7925561,21.1119066,260.9 73.79253660000001,21.1119044,261 73.7925135,21.1119001,261 73.7924926,21.1118999,261.2 73.79245779999999,21.1118816,261.3 73.7924326,21.1118735,261.3 73.7923985,21.1118658,260.8 73.7923813,21.1118555,260.8 73.7923349,21.1118364,261.1 73.79231040000001,21.1118256,260.9 73.79227710000001,21.111816,260.9 73.79224360000001,21.1118058,261.3 73.7921961,21.1118005,261.7 73.7921767,21.1117928,261.8 73.79215689999999,21.111781,261.9 73.7921302,21.1117703,261.9 73.792108,21.1117527,261.8 73.7920908,21.1117356,261.6 73.7920668,21.1117318,261.2 73.7920477,21.1117266,261.1 73.79201209999999,21.1117117,261 73.79198599999999,21.1117157,261.4 73.79196349999999,21.1117157,261.6 73.7919352,21.1117145,261.6 73.7919029,21.1117175,262.1 73.7918805,21.1117158,262.4 73.791861,21.111718,262.8 73.7918267,21.1117228,263.6 73.7918009,21.111718,263.8 73.7917782,21.1117164,263.8 73.79175069999999,21.111723,263.5 73.7917309,21.1117297,263.2 73.7916886,21.1117328,262.8 73.7916596,21.1117272,262.9 73.79162460000001,21.1117112,263.2 73.7916097,21.1116814,262.8 73.7915952,21.1116679,262.9 73.7915608,21.1116592,263 73.7915385,21.1116642,263 73.7915181,21.1116313,263.6 73.7915016,21.1116163,263.9 73.7914823,21.1116182,264.1 73.79146160000001,21.1116245,264.4 73.79141180000001,21.1116068,264.2 73.79139189999999,21.1116046,264.5 73.79137,21.1115952,264.9 73.7913501,21.1115837,265.2 73.7913313,21.1115733,265.5 73.7913136,21.111563,265.8 73.7912812,21.1115426,266.4 73.7912539,21.1115629,266.3 73.7912312,21.1115576,266.2 73.791191,21.1115449,266.6 73.79116759999999,21.1115407,266.6 73.7911486,21.111532,266.6 73.79112720000001,21.1115234,266.7 73.7911091,21.1115301,266.7 73.79108600000001,21.1115332,266.7 73.79106419999999,21.1115298,266.9 73.7910445,21.1115336,267 73.79101919999999,21.1115347,266.9 73.79100029999999,21.1115413,267 73.7909662,21.111551,267 73.7909475,21.1115435,267.3 73.7909164,21.1115331,267.4 73.79088369999999,21.1115437,267.7 73.7908667,21.1115285,267.5 73.7908291,21.1115166,268.7 73.7908066,21.1115,268.9 73.7907884,21.1114904,269.2 73.7907596,21.1114881,269.2 73.7907388,21.1114738,269 73.790717,21.1114547,269 73.790707,21.1114367,269 73.7906728,21.1114188,269.2 73.7906529,21.1114162,269.3 73.79063189999999,21.111417,269.9 73.7906064,21.1114152,269.9 73.7905688,21.1114116,270.1 73.7905478,21.1114094,270 73.7905255,21.1114046,269.8 73.79049240000001,21.1114003,270 73.7904698,21.1113943,270.6 73.79044879999999,21.1113903,270.6 73.79041220000001,21.1114084,270.2 73.79038130000001,21.1114197,270.2 73.7903613,21.1114181,270.6 73.79033149999999,21.1114237,270.6 73.79033149999999,21.1114055,270.2 73.7903012,21.1114061,269.4 73.7902653,21.1114201,269.2 73.7902436,21.1114212,269 73.7902066,21.1114234,268.9 73.790184,21.1114357,268.8 73.7901596,21.1114437,268.8 73.790133,21.1114415,269.1 73.7901086,21.1114395,269.1 73.79008589999999,21.1114375,269.3 73.7900465,21.1114322,269.3 73.7900272,21.1114346,269.4 73.7900049,21.1114347,269.2 73.7899797,21.1114356,269 73.7899561,21.1114375,269.1 73.7899267,21.1114321,268.9 73.7898963,21.1114418,268.8 73.7898671,21.1114503,268.1 73.7898474,21.1114508,267.9 73.7898234,21.1114412,268 73.7898028,21.1114336,267.9 73.789778,21.1114282,267.8 73.7897524,21.1114211,267.7 73.78971900000001,21.1114251,267.9 73.7897019,21.1114337,267.8 73.7896846,21.111447,267.8 73.78964449999999,21.1114329,268 73.7896247,21.1114226,268.1 73.7895996,21.1114199,268.3 73.7895754,21.1114146,268.3 73.78955430000001,21.1114106,268.4 73.78951379999999,21.1114071,268.8 73.7894857,21.1113892,269.2 73.7894719,21.1113737,269.1 73.7894579,21.1113608,269 73.7894508,21.1113405,269.1 73.78943080000001,21.1113359,269 73.7894112,21.1113382,268.8 73.7893905,21.1113338,268.8 73.789372,21.1113073,268.7 73.7893526,21.1113072,268.6 73.78932519999999,21.1113027,268.4 73.78929290000001,21.1113058,267.8 73.78926509999999,21.111294,267.2 73.7892382,21.1113027,267.4 73.7892066,21.1113012,267.7 73.7891825,21.111292,268.3 73.7891575,21.1112876,268.4 73.78912440000001,21.1112892,268.7 73.7890943,21.1112871,268.8 73.78907169999999,21.1112848,269.1 73.7890534,21.1112932,269.2 73.78901569999999,21.1112981,269.5 73.7889971,21.1113032,269.6 73.7889674,21.1112987,269.6 73.7889358,21.1112858,269.2 73.7889016,21.1112918,268.9 73.78886110000001,21.1112915,269.1 73.7888308,21.1112935,269.3 73.78880220000001,21.1112832,269.5 73.7887751,21.1112788,269.6 73.7887496,21.1112623,269.4 73.7887345,21.1112501,269.3 73.7887222,21.111236,269.2 73.7887011,21.1112185,268.9 73.7886879,21.1111888,268.7 73.7886675,21.1111689,268.8 73.7886503,21.1111567,269.1 73.7886409,21.1111403,269.2 73.78862049999999,21.111134,269.4 73.7885943,21.1111207,270.1 73.7885749,21.1111074,270.2 73.7885656,21.1110899,270.3 73.7885603,21.1110701,270.5 73.78852759999999,21.1110577,270.5 73.7885101,21.1110416,270.1 73.7884966,21.1110215,269.7 73.7884715,21.1110067,269.7 73.7884486,21.1110114,269.5 73.7884164,21.1110159,269.5 73.78839019999999,21.1110199,269.5 73.7883684,21.1110219,269.9 73.7883317,21.1110296,270 73.7882972,21.1110302,269.9 73.7882776,21.1110292,269.7 73.7882405,21.1110329,269.4 73.78820949999999,21.1110314,267.8 73.7881764,21.1110305,267.4 73.7881434,21.1110317,267 73.7881299,21.1110049,266.4 73.7881064,21.1109941,266.6 73.7880785,21.110982,266.3 73.78806059999999,21.1109722,266.3 73.7880334,21.1109702,266.4 73.7880119,21.1109693,266.5 73.78797830000001,21.1109742,266.5 73.78794790000001,21.1109685,266.5 73.7879164,21.1109698,266.4 73.78788470000001,21.1109839,266.1 73.7878563,21.1109782,266.2 73.7878407,21.1109575,265.7 73.7878204,21.1109399,265.8 73.787791,21.110921,265.9 73.78776329999999,21.1109106,266.2 73.78774869999999,21.1108971,266.1 73.787711,21.1108843,266.3 73.7876775,21.1108834,266.5 73.7876534,21.1108755,266.7 73.7876428,21.1108556,267 73.78761780000001,21.1108284,267.4 73.7875966,21.1108265,267.8 73.7875757,21.1108313,268.1 73.7875568,21.1108357,268.1 73.7875423,21.1108496,268.3 73.7875138,21.1108577,268.5 73.7874942,21.110858,268.7 73.7874717,21.110857,268.7 73.7874303,21.1108535,269.4 73.78741789999999,21.1108374,269.2 73.78739330000001,21.1108297,269.2 73.787369,21.1108239,268.4 73.7873539,21.1108121,268.1 73.78733389999999,21.1107813,268 73.78729939999999,21.1107607,268.2 73.7872823,21.1107499,268.3 73.7872629,21.1107403,268.2 73.7872356,21.110733,268.2 73.787215,21.1107298,268.2 73.7871796,21.1107208,268.1 73.7871631,21.1107053,268 73.7871349,21.1106793,267.9 73.78712299999999,21.110663,267.4 73.78712229999999,21.1106304,266.9 73.7871233,21.1106112,266.6 73.7871006,21.1105909,266 73.78708760000001,21.1105759,266 73.78707470000001,21.1105565,266 73.787074,21.1105274,265.8 73.7870791,21.1105069,265.5 73.7870545,21.1104875,265.7 73.7870258,21.1104728,265.8 73.7869962,21.1104494,265.7 73.78697510000001,21.1104384,265.7 73.7869558,21.1104322,265.8 73.7869378,21.1104251,266 73.78692030000001,21.1104124,266.2 73.78688699999999,21.1103865,266.4 73.7868599,21.1103695,266.4 73.786834,21.1103504,266 73.7867988,21.1103473,265.8 73.78678429999999,21.1103236,265.7 73.786765,21.1103136,265.5 73.7867298,21.1103249,265.6 73.7867112,21.1103403,265.5 73.7866855,21.1103454,265.3 73.7866635,21.1103505,265.2 73.78663090000001,21.1103346,265.1 73.78662,21.1103052,265.1 73.7866028,21.1102886,265.1 73.7865798,21.1102796,265.3 73.786551,21.110262,265.3 73.78652200000001,21.1102211,265.6 73.78649799999999,21.1102063,265.5 73.78645229999999,21.1101956,265.1 73.7864344,21.110178,264.7 73.7864081,21.1101549,264.4 73.7863952,21.1101375,264 73.78638050000001,21.1101238,264 73.78635610000001,21.1101299,263.1 73.7863337,21.1101308,263.1 73.78629979999999,21.1101314,262.6 73.7862796,21.1101195,262.2 73.7862398,21.1101126,262.2 73.78621510000001,21.1101174,262.2 73.7861941,21.110094,262.7 73.786175,21.1100842,262.7 73.78615720000001,21.1100725,263.3 73.7861418,21.1100607,263.5 73.7861315,21.1100432,263.5 73.7861061,21.1100427,263.2 73.7860845,21.1100367,263 73.7860568,21.1100275,263 73.78603320000001,21.1100079,262.6 73.7859941,21.1099858,262.7 73.7859689,21.1099554,262.1 73.7859382,21.1099455,262.3 73.7859078,21.1099428,262.3 73.7858865,21.1099408,262.6 73.7858586,21.1099395,262.2 73.785839,21.1099531,261.5 73.78581509999999,21.1099571,261.5 73.7857851,21.1099558,260.7 73.78575739999999,21.1099693,260.2 73.7857352,21.1099783,260.2 73.7857011,21.109971,260.7 73.7856622,21.1099766,260.5 73.7856276,21.109991,260.5 73.785608,21.1100046,259.7 73.78559129999999,21.1100175,259.7 73.7855703,21.1100262,259.5 73.7855467,21.1100346,259.1 73.7855089,21.1100434,258.8 73.7854844,21.1100507,258.8 73.78545219999999,21.1100628,259 73.78542760000001,21.1100699,259.1 73.78540599999999,21.1100726,259 73.7853865,21.1100773,259 73.7853653,21.1100764,258.8 73.78534430000001,21.1100769,258.8 73.7853076,21.1100735,258.5 73.78528350000001,21.1100729,258.5 73.78525519999999,21.1100736,258.7 73.78521720000001,21.1100716,258.9 73.78518800000001,21.110087,258.9 73.7851685,21.1100847,259.1 73.78513289999999,21.1100796,259.3 73.7851065,21.1100816,259.7 73.78508189999999,21.1100772,259.8 73.7850475,21.1100665,260 73.7850207,21.1100611,260.1 73.7850011,21.1100523,260.4 73.784981,21.1100467,260.7 73.7849477,21.1100308,261.2 73.7849125,21.1100158,261.4 73.7848901,21.1100067,261.7 73.78487199999999,21.1099999,261.8 73.78485190000001,21.1099965,262 73.7848257,21.1099936,261.9 73.78480020000001,21.1099924,261.7 73.7847606,21.1099788,261.8 73.78472309999999,21.1099682,261.9 73.78470110000001,21.1099687,261.6 73.7846792,21.1099708,261.5 73.78465629999999,21.1099704,261.5 73.78463000000001,21.1099715,261 73.7845994,21.1099688,260.9 73.7845782,21.1099702,260.7 73.7845469,21.1099704,260.9 73.78451320000001,21.1099722,261 73.7844868,21.1099788,260.9 73.78446649999999,21.1099838,260.8 73.7844418,21.109987,260.8 73.7844212,21.1099869,260.8 73.78439969999999,21.1099906,260.8 73.78437630000001,21.1099985,260.2 73.7843563,21.110008,260.2 73.7843158,21.1100042,260.3 73.7842766,21.1099948,260.6 73.7842429,21.109976,260.6 73.7842234,21.1099575,260.6 73.78420989999999,21.1099427,260.4 73.7841864,21.1099155,259.9 73.7841683,21.1099026,260.1 73.784147,21.1098966,260.1 73.78412489999999,21.1098899,260.1 73.7841035,21.1098876,260.3 73.7840807,21.1098908,260.4 73.7840451,21.1099012,260.2 73.7840236,21.1099053,260 73.7839863,21.1099147,260 73.7839614,21.1099233,259.8 73.7839235,21.1099307,259.6 73.7838891,21.1099403,259.2 73.7838714,21.1099478,259.2 73.783851,21.1099576,258.4 73.7838339,21.1099669,258.3 73.7838098,21.1099764,258.2 73.7837814,21.1099883,258.3 73.7837522,21.1099953,258.5 73.7837318,21.110001,258.5 73.7837134,21.1100067,258.8 73.783692,21.1100068,259.1 73.78365719999999,21.1100098,260.1 73.7836365,21.1100166,260.4 73.7836054,21.110023,261.3 73.7835887,21.1100409,262.6 73.7835589,21.1100582,263.2 73.7835231,21.1100607,263.7 73.7834865,21.1100736,264 73.7834546,21.1100825,264.2 73.7834342,21.1100866,264.4 73.78341210000001,21.1100899,264.7 73.783389,21.110091,265.1 73.7833614,21.1101061,265.8 73.7833261,21.1101158,266.5 73.7832897,21.1101226,266.8 73.7832678,21.1101279,266.8 73.78322660000001,21.1101308,266.8 73.78320069999999,21.1101334,266.7 73.78317819999999,21.1101321,266.6 73.78315360000001,21.1101305,266.6 73.783112,21.1101234,266.8 73.7830811,21.1101205,266.8 73.7830498,21.1101163,267.2 73.7830215,21.1101172,267.5 73.7829969,21.1101121,267.5 73.78297379999999,21.1101069,267.3 73.78295300000001,21.1100985,267.1 73.7829211,21.110092,266.9 73.7828921,21.1100867,266.9 73.7828562,21.1100798,267 73.78282729999999,21.1100769,266.8 73.7828016,21.1100668,266.8 73.78276940000001,21.1100493,266.9 73.7827439,21.1100397,266.9 73.7827096,21.1100303,267 73.78268559999999,21.1100262,267.1 73.7826621,21.1100204,267.1 73.7826388,21.1100123,267 73.78262220000001,21.1100023,267 73.782599,21.1099877,266.9 73.78257410000001,21.1099774,266.7 73.7825548,21.1099708,266.7 73.7825272,21.1099592,266.6 73.7825031,21.1099515,266.5 73.7824767,21.109948,266.5 73.7824416,21.109933,266.8 73.78241939999999,21.1099293,266.8 73.78239120000001,21.1099157,266.3 73.78236339999999,21.1099078,265.9 73.7823428,21.1098986,265.7 73.7823197,21.1098859,265.7 73.7823028,21.1098756,265.6 73.7822855,21.1098601,265.7 73.782259,21.1098408,265.7 73.7822324,21.1098267,266 73.7822036,21.1098008,265.9 73.78219060000001,21.1097757,266.5 73.7821764,21.1097571,266.7 73.7821622,21.1097389,267 73.7821495,21.10972,267 73.7821321,21.1097077,267 73.7821065,21.1096886,267 73.78208789999999,21.1096812,267.6 73.78206280000001,21.1096588,267.8 73.7820396,21.1096396,267.7 73.7820177,21.1096243,267.3 73.78199480000001,21.1096076,267.3 73.7819758,21.1095774,266.4 73.78195789999999,21.1095601,266.4 73.78192989999999,21.1095331,266.5 73.7819068,21.1095169,266.1 73.7818858,21.1094997,266.1 73.7818596,21.1094722,266.1 73.77675240000001,21.1085016,159.3 
					</coordinates>
				</LinearRing>
			</outerBoundaryIs>
		</Polygon>
		<atom:link rel="app" href="https://www.google.com/earth/about/versions/#earth-pro" title="Google Earth Pro 7.3.6.10201"></atom:link>
	</Placemark>
</Document>
</kml>
