<?xml version="1.0" encoding="UTF-8"?>
<kml xmlns="http://www.opengis.net/kml/2.2" xmlns:gx="http://www.google.com/kml/ext/2.2" xmlns:kml="http://www.opengis.net/kml/2.2" xmlns:atom="http://www.w3.org/2005/Atom">
<Document>
	<name>Sisa.kmz</name>
	<atom:link rel="app" href="https://www.google.com/earth/about/versions/#earth-pro" title="Google Earth Pro 7.3.7.1094"></atom:link>
	<StyleMap id="m_ylw-pushpin">
		<Pair>
			<key>normal</key>
			<styleUrl>#s_ylw-pushpin</styleUrl>
		</Pair>
		<Pair>
			<key>highlight</key>
			<styleUrl>#s_ylw-pushpin_hl</styleUrl>
		</Pair>
	</StyleMap>
	<Style id="s_ylw-pushpin">
		<IconStyle>
			<scale>1.1</scale>
			<Icon>
				<href>http://maps.google.com/mapfiles/kml/pushpin/ylw-pushpin.png</href>
			</Icon>
			<hotSpot x="20" y="2" xunits="pixels" yunits="pixels"/>
		</IconStyle>
		<LineStyle>
			<color>ff0000aa</color>
			<width>5</width>
		</LineStyle>
		<PolyStyle>
			<fill>0</fill>
		</PolyStyle>
	</Style>
	<Style id="s_ylw-pushpin_hl">
		<IconStyle>
			<scale>1.3</scale>
			<Icon>
				<href>http://maps.google.com/mapfiles/kml/pushpin/ylw-pushpin.png</href>
			</Icon>
			<hotSpot x="20" y="2" xunits="pixels" yunits="pixels"/>
		</IconStyle>
		<LineStyle>
			<color>ff0000aa</color>
			<width>5</width>
		</LineStyle>
		<PolyStyle>
			<fill>0</fill>
		</PolyStyle>
	</Style>
	<Placemark id="0B6EB493B81F81F47B69">
		<name>Sisa</name>
		<styleUrl>#m_ylw-pushpin</styleUrl>
		<Polygon>
			<outerBoundaryIs>
				<LinearRing>
					<coordinates>
						74.1769133,21.7469167,628.4 74.1769378,21.7469402,628.5999999999999 74.176912,21.7469275,632.6999999999999 74.1769049,21.7469104,632.5 74.1768903,21.7468964,632 74.1768708,21.7468813,629.0999999999999 74.1768529,21.7468614,628.5 74.1768337,21.7468546,628.1999999999999 74.1768103,21.7468465,628.0999999999999 74.17677070000001,21.7468331,627.6999999999999 74.1767394,21.7468221,627.5999999999999 74.1767194,21.7468172,628.3 74.1766982,21.7468112,627.8 74.17665580000001,21.7468056,627.1999999999999 74.17662489999999,21.7468008,627 74.17659380000001,21.7467867,627.8 74.1765705,21.7467736,628.5999999999999 74.17654829999999,21.7467609,629.5999999999999 74.17651669999999,21.7467506,630.5 74.1764943,21.7467395,630.5999999999999 74.1764695,21.7467303,630.6999999999999 74.176441,21.7467206,631.9 74.1764214,21.7467069,632.4 74.17638669999999,21.7466971,633.5 74.1763505,21.7466879,634.1999999999999 74.1763258,21.7466796,634.6999999999999 74.1763059,21.7466723,634.5999999999999 74.17628379999999,21.7466643,634.0999999999999 74.1762647,21.7466538,634.0999999999999 74.17623330000001,21.7466452,633.9 74.1762047,21.7466456,632.3 74.17618539999999,21.7466388,631.5 74.17615379999999,21.7466265,630.8 74.17613350000001,21.7466174,630.1999999999999 74.176085,21.7465941,629.4 74.1760661,21.7465827,629.3 74.1760269,21.7465769,630.4 74.1759986,21.7465716,630.3 74.17596709999999,21.7465673,630.3 74.1759462,21.7465658,630.1999999999999 74.17591539999999,21.7465496,630.3 74.1758938,21.7465394,630.3 74.17587279999999,21.7465318,629.9 74.17584239999999,21.7465268,629.5999999999999 74.1758146,21.7465192,629.3 74.1757739,21.7465049,629.3 74.17574159999999,21.7464958,628.6999999999999 74.175721,21.7464882,628.6999999999999 74.1757021,21.7464743,627.9 74.1756767,21.7464685,628 74.1756468,21.7464699,628 74.175603,21.7464718,627.5 74.1755746,21.7464675,626.6999999999999 74.17555280000001,21.7464633,627 74.1755215,21.7464571,626.8 74.17549169999999,21.7464512,626.5999999999999 74.17546830000001,21.7464562,627.9 74.17544700000001,21.7464598,628 74.1754226,21.7464577,627.5999999999999 74.17540030000001,21.7464502,627.0999999999999 74.1753813,21.7464434,626.4 74.1753576,21.7464374,626.1999999999999 74.1753205,21.746432,625.3 74.1752991,21.7464269,624.5 74.1752764,21.7464178,624.3 74.1752549,21.7464,623.1999999999999 74.1752338,21.7463888,621.4 74.1752094,21.7463924,620.1999999999999 74.1751836,21.7463773,619.4 74.1751618,21.7463766,618.6999999999999 74.175121,21.7463698,618.1999999999999 74.17509920000001,21.746362,617.0999999999999 74.17507620000001,21.746344,616.3 74.1750545,21.7463186,616.3 74.175021,21.7462907,615.5 74.1749964,21.7462875,614.5999999999999 74.1749738,21.7462977,613.3 74.1749499,21.7462891,611.1999999999999 74.17492129999999,21.7462949,610.1999999999999 74.1748968,21.7462821,610.4 74.1748815,21.7462605,609.9 74.1748597,21.7462457,609.1999999999999 74.17483970000001,21.7462243,608 74.17482080000001,21.7462129,607 74.1747945,21.7461994,607 74.1747695,21.7461729,605.3 74.1747475,21.7461495,604 74.1747215,21.746119,603.5999999999999 74.1747055,21.746097,604.3 74.1746926,21.746075,604.5999999999999 74.17468409999999,21.7460491,604.8 74.1746725,21.7460227,605 74.17465850000001,21.7459963,604.9 74.1746388,21.7459773,604.5 74.1746205,21.7459695,605.4 74.17460010000001,21.7459677,606.3 74.17455750000001,21.745965,607.8 74.1745138,21.7459712,609 74.1744913,21.7459695,610 74.1744728,21.7459578,610.9 74.1744399,21.7459438,611.3 74.174423,21.7459338,611 74.1743906,21.7459044,612.3 74.1743661,21.7458859,612.8 74.1743347,21.7458694,613 74.17430640000001,21.7458545,612.6999999999999 74.1742801,21.7458471,612.6999999999999 74.17424339999999,21.7458509,614.6999999999999 74.1742143,21.7458411,615 74.17417519999999,21.7458333,613.8 74.1741335,21.7458315,613.8 74.1741044,21.7458305,613.8 74.1740738,21.7458204,613 74.1740405,21.7458092,613.5 74.1740176,21.7457921,612.9 74.17399279999999,21.7457774,612.3 74.1739597,21.7457646,611.9 74.1739243,21.7457707,612 74.1738814,21.7457535,611.5 74.1738517,21.7457445,611.0999999999999 74.1738287,21.7457405,611.4 74.1737854,21.7457355,611.3 74.1737517,21.745726,611.0999999999999 74.1737238,21.74572,610.5999999999999 74.1737042,21.7457164,610.1999999999999 74.1736777,21.7457108,610.0999999999999 74.173644,21.7456996,610.1999999999999 74.1736159,21.7456843,610.3 74.17357629999999,21.7456817,609.9 74.1735481,21.7456958,609.1999999999999 74.17351960000001,21.745696,608.9 74.1735092,21.7457223,606.5 74.1735048,21.745742,606.3 74.1734836,21.745727,604.5999999999999 74.17346430000001,21.7457176,604.5999999999999 74.1734409,21.7457079,604.4 74.1734113,21.7457001,604.9 74.1733747,21.7456927,606.0999999999999 74.173337,21.7456871,607.4 74.1732961,21.7456864,609.0999999999999 74.17326389999999,21.7456988,608.5999999999999 74.1732385,21.7457077,607.9 74.173219,21.7457218,607.5999999999999 74.17318969999999,21.7457313,608.0999999999999 74.1731563,21.7457229,608.4 74.1731327,21.7457002,609.1999999999999 74.1731068,21.7456834,611.1999999999999 74.1730908,21.7456695,611.1999999999999 74.1730606,21.7456501,610.4 74.17303269999999,21.7456475,610.3 74.1730053,21.7456438,610.8 74.1729531,21.7456486,609.5999999999999 74.1729266,21.7456503,608.6999999999999 74.1729005,21.7456532,607.9 74.1728645,21.7456683,606.8 74.17283159999999,21.7456827,605.8 74.172814,21.7456908,605.5 74.17277850000001,21.7456964,605.1999999999999 74.17275100000001,21.7456886,604.4 74.1727183,21.7456722,603.5999999999999 74.1726907,21.7456639,602.3 74.1726683,21.745677,601.3 74.1726276,21.7456644,601.3 74.1725884,21.7456452,600.0999999999999 74.1725343,21.7456227,599.6999999999999 74.1724849,21.7456116,598.9 74.1724315,21.7456054,597.1999999999999 74.17238519999999,21.7456014,595.9 74.1723508,21.7455978,594.5 74.1723216,21.7455987,593.8 74.1722951,21.7455895,593.5 74.172265,21.7455735,593.8 74.1722285,21.745557,593.6999999999999 74.1722073,21.7455581,593 74.1721725,21.7455384,593.4 74.17212360000001,21.74553,593.9 74.1720852,21.7455243,594.1999999999999 74.1720413,21.7455201,592.9 74.1719938,21.7455202,591.6999999999999 74.1719744,21.7455146,591.4 74.17193690000001,21.745504,591.1999999999999 74.1718858,21.7454987,591 74.1718582,21.7454937,591.6999999999999 74.1718381,21.7454831,592.0999999999999 74.1717968,21.7454799,592.3 74.17175640000001,21.745476,591.5999999999999 74.1717077,21.7454775,590.5 74.1716703,21.7454793,590.1999999999999 74.1716393,21.7454753,590.9 74.1716206,21.7454683,590.5 74.1716012,21.7454532,590.1999999999999 74.17158240000001,21.7454464,589.8 74.1715509,21.745442,589.3 74.1715172,21.7454513,588.9 74.17147900000001,21.7454596,588.0999999999999 74.1714482,21.7454618,587.3 74.17141049999999,21.7454687,586.6999999999999 74.17137270000001,21.7454394,587.8 74.17134780000001,21.7454237,587.1999999999999 74.1713305,21.7454017,586.1999999999999 74.1712993,21.7453858,585.5 74.17127240000001,21.7453697,585 74.17125729999999,21.745355,584.3 74.17122550000001,21.7453398,582.8 74.171204,21.7453353,582.5999999999999 74.1711857,21.7453273,582.5999999999999 74.1711693,21.7453134,582.5 74.17114909999999,21.7452983,582.5 74.17111920000001,21.7452818,582.0999999999999 74.1710909,21.7452785,581.8 74.1710714,21.745265,580.8 74.17105309999999,21.745244,579.9 74.1710363,21.7452198,578.5999999999999 74.1710104,21.7452179,576.6999999999999 74.1709912,21.7452245,575.4 74.17096220000001,21.7452051,572.9 74.17094160000001,21.7451871,572.0999999999999 74.170895,21.7451608,571.6999999999999 74.1708613,21.7451355,571.5 74.17083359999999,21.7451199,571.4 74.1708077,21.7451103,570.6999999999999 74.1707883,21.7451118,570.5999999999999 74.1707667,21.7451067,570.4 74.1707536,21.7450881,570.6999999999999 74.1707402,21.7450707,569.5999999999999 74.17072039999999,21.7450494,568 74.1707074,21.7450331,567.8 74.17068449999999,21.7450139,567.0999999999999 74.17064790000001,21.744985,565.9 74.1706188,21.7449683,565.4 74.1705872,21.7449623,565.3 74.170557,21.7449536,565.1999999999999 74.1705323,21.7449485,564.8 74.1704946,21.7449387,565 74.1704715,21.7449364,565.5 74.170445,21.7449305,566.5999999999999 74.17042189999999,21.7449189,566.3 74.1703998,21.7449006,565.1999999999999 74.1703828,21.7448863,564.0999999999999 74.1703602,21.7448698,562.5999999999999 74.17034510000001,21.7448544,561.6999999999999 74.1703248,21.7448468,560.8 74.17031710000001,21.7448202,560.8 74.17032930000001,21.7448028,559.6999999999999 74.1703371,21.7447854,558.6999999999999 74.1703222,21.7447719,557.6999999999999 74.170295,21.7447586,556.9 74.1702726,21.7447514,555.8 74.17024929999999,21.7447443,554.5999999999999 74.17022679999999,21.7447381,553.1999999999999 74.17020340000001,21.7447279,551.5999999999999 74.1701588,21.7447142,550.5 74.1701355,21.7447104,550.0999999999999 74.1701264,21.744731,550.0999999999999 74.1701132,21.7447667,549.5 74.1701036,21.7447865,549 74.1701022,21.7448055,548.5999999999999 74.1700843,21.7448347,547.3 74.1700798,21.744858,546.6999999999999 74.1700951,21.7448873,546.3 74.1701083,21.7449053,545.9 74.17011530000001,21.7449296,545.1999999999999 74.1701132,21.7449613,543.8 74.1701087,21.7449833,543.4 74.1701017,21.7450083,543.4 74.1700939,21.7450293,543.5 74.1700834,21.7450492,543.8 74.1700963,21.7450935,543 74.1701028,21.7451299,542.8 74.1701118,21.7451612,542.0999999999999 74.1701118,21.7451865,542.0999999999999 74.1701341,21.7452187,541.4 74.1701468,21.745247,540.9 74.17014930000001,21.7452782,540 74.1701489,21.745307,539.3 74.1701467,21.7453288,539 74.17014380000001,21.7453619,538.9 74.1701357,21.7453899,538.6999999999999 74.1701216,21.7454179,538.4 74.1700981,21.7454241,537.6999999999999 74.1700621,21.7454068,536.9 74.1700338,21.7453985,536.3 74.16999370000001,21.7453905,535.6999999999999 74.1699615,21.745383,536 74.16994529999999,21.7454065,535.8 74.1699282,21.7454422,535.6999999999999 74.1699119,21.7454573,535.8 74.1699127,21.7454834,535.4 74.16992689999999,21.7455163,533.8 74.1699335,21.745557,532.6999999999999 74.16995230000001,21.7455908,532.3 74.1699672,21.7456219,531.6999999999999 74.1699807,21.745643,531.4 74.1699981,21.7456609,531.4 74.1700163,21.7456757,531.0999999999999 74.1700335,21.7456935,530.4 74.170047,21.7457087,529.5 74.1700594,21.7457282,528.8 74.1700724,21.7457469,528.9 74.1700989,21.745762,529 74.17012029999999,21.7457958,529.4 74.1701317,21.7458245,529.5 74.1701513,21.7458443,529.3 74.17017370000001,21.745863,529.1999999999999 74.1701869,21.7458933,529 74.1701904,21.7459152,529 74.1701953,21.7459361,529.8 74.1702075,21.7459763,530.1999999999999 74.1702281,21.7459997,529.6999999999999 74.17024429999999,21.7460181,529.8 74.1702703,21.7460475,529.1999999999999 74.17030080000001,21.7460722,527.9 74.1703131,21.7460927,527.1999999999999 74.1703368,21.7461302,526.6999999999999 74.1703517,21.746152,526.9 74.1703613,21.7461691,527.1999999999999 74.1703725,21.7461865,526.5999999999999 74.1703873,21.7462053,526 74.1704064,21.7462318,525.4 74.1704257,21.7462541,524.4 74.1704386,21.7462719,523.4 74.17044629999999,21.7462918,521.5 74.1704562,21.7463185,520.1999999999999 74.17046929999999,21.746344,520 74.1704788,21.7463762,519.5999999999999 74.1704915,21.7463998,519.1999999999999 74.17050519999999,21.7464232,518.6999999999999 74.1705102,21.7464483,518.4 74.1705183,21.7464755,518.4 74.1705292,21.7464972,518.0999999999999 74.17053799999999,21.7465178,518.0999999999999 74.17054950000001,21.7465404,518.5999999999999 74.170564,21.7465597,518.4 74.1705789,21.7465814,518.5 74.170593,21.7466121,518.6999999999999 74.1706088,21.7466397,519.5 74.17062799999999,21.746661,520.0999999999999 74.1706446,21.7466865,519 74.1706669,21.7466992,518.8 74.17068860000001,21.7467224,518 74.1707093,21.7467506,516.6999999999999 74.1707272,21.7467682,515.5999999999999 74.1707468,21.7467801,514.6999999999999 74.17076470000001,21.7468022,514.6999999999999 74.1707892,21.7468172,515.3 74.1708234,21.7468381,515.3 74.17084629999999,21.7468511,515.0999999999999 74.17087100000001,21.7468622,514.9 74.170891,21.74687,515.5999999999999 74.1709228,21.7468918,516.0999999999999 74.1709413,21.7469067,516.5999999999999 74.17096239999999,21.7469267,517.0999999999999 74.1709949,21.7469446,517.3 74.17101940000001,21.746962,517.0999999999999 74.1710358,21.7469749,517.1999999999999 74.1710547,21.7469882,516.9 74.1710698,21.7470064,516.8 74.1710913,21.7470242,517 74.1711136,21.7470343,516.6999999999999 74.17114840000001,21.7470519,516.0999999999999 74.1711856,21.7470538,515.5999999999999 74.1712113,21.7470586,515.4 74.17124509999999,21.7470597,515.9 74.17126949999999,21.7470633,515.6999999999999 74.1713017,21.7470723,515.5 74.17131980000001,21.7470879,515.3 74.1713385,21.7470932,515.3 74.1713637,21.7471003,515.3 74.1713919,21.7471116,514.9 74.1714126,21.7471169,515 74.17143179999999,21.7471116,514.9 74.1714697,21.7471035,515.0999999999999 74.17149499999999,21.7471038,515.1999999999999 74.1715329,21.7471099,515.8 74.1715545,21.7471103,515.5999999999999 74.1715864,21.7470964,515.5 74.17161609999999,21.7470875,515 74.1716438,21.747089,514.5999999999999 74.17166400000001,21.7470877,514.3 74.1716811,21.7471002,514 74.1717057,21.7471062,514 74.17172650000001,21.7470991,513.6999999999999 74.17175159999999,21.7470936,512.8 74.1717716,21.747096,512.5999999999999 74.1718087,21.7471008,512.6999999999999 74.17184229999999,21.7471139,513.3 74.1718587,21.7471286,513.5 74.1718922,21.7471419,513.4 74.1719241,21.747155,513.3 74.1719445,21.7471625,513.3 74.1719733,21.7471592,513.4 74.1720019,21.7471622,513.0999999999999 74.1720346,21.7471659,513 74.1720638,21.7471938,513.1999999999999 74.1720761,21.7472099,513.4 74.1720876,21.747237,513.0999999999999 74.1720916,21.7472556,512.4 74.172084,21.747277,512 74.17208789999999,21.747303,511.1 74.1721072,21.7473186,510.3 74.172132,21.7473228,510.0000000000001 74.1721517,21.7473386,509.7 74.1721642,21.7473717,509.9 74.1721804,21.7473846,510.0999999999999 74.17220639999999,21.7473951,510.0000000000001 74.1722264,21.7474069,510.0999999999999 74.17225860000001,21.7474263,510.3 74.1722832,21.7474432,510.8 74.1723049,21.7474512,510.5999999999999 74.1723283,21.7474625,510.5999999999999 74.1723559,21.7474833,510.9 74.1723787,21.7475018,511.3 74.1724043,21.7475132,512.1999999999999 74.1724246,21.747532,512.9 74.17244549999999,21.747541,513 74.172484,21.7475554,513.8 74.1725045,21.7475627,514 74.1725264,21.7475624,514.9 74.17256260000001,21.7475624,514.8 74.17258959999999,21.7475582,514.8 74.1726087,21.7475498,514.8 74.17264249999999,21.7475375,515.3 74.17267150000001,21.7475153,514.8 74.17270480000001,21.7474973,514 74.172731,21.7474821,513.8 74.17275239999999,21.7474622,513 74.17278589999999,21.7474546,513.3 74.172808,21.7474535,513 74.1728284,21.7474588,513.0999999999999 74.17285339999999,21.7474651,513.0999999999999 74.172843,21.7474958,512.3 74.17287229999999,21.7474984,509.7 74.1728969,21.7474979,509.1 74.17292569999999,21.7475038,509.5 74.1729574,21.747498,510.0000000000001 74.1729799,21.7474782,510.5000000000001 74.1729958,21.7474578,510.8 74.1730242,21.7474506,511.4 74.17305260000001,21.7474535,511.1 74.1730826,21.7474592,510.9 74.17310670000001,21.747475,510.5000000000001 74.17312509999999,21.7474845,510.6999999999999 74.1731463,21.7474923,511.1 74.1731831,21.7475061,512.1999999999999 74.17320359999999,21.7475181,512.8 74.17322129999999,21.7475279,513.4 74.1732591,21.7475361,515.1999999999999 74.17328999999999,21.7475305,516.6999999999999 74.1733224,21.7475423,517.6999999999999 74.1733448,21.7475451,517.8 74.1733833,21.7475547,517.9 74.1734148,21.7475522,517.9 74.1734464,21.7475507,517.0999999999999 74.17346670000001,21.7475532,516.8 74.173495,21.7475445,515.6999999999999 74.1735025,21.7475187,515.9 74.1735197,21.7475062,515.8 74.173541,21.7475164,517 74.1735726,21.7475376,518.1999999999999 74.1735982,21.7475456,517.9 74.173626,21.7475273,517.3 74.173643,21.7475118,517.0999999999999 74.17366079999999,21.7474993,517.1999999999999 74.1736794,21.7474849,517.3 74.1736959,21.7474676,517.9 74.17371489999999,21.7474461,517.9 74.1737318,21.7474289,519.1999999999999 74.1737469,21.7474149,520.3 74.1737613,21.7473957,521.4 74.1737825,21.7474081,524 74.173801,21.7474432,525 74.1738239,21.7474813,527.9 74.1738369,21.7474993,528.5 74.1738462,21.7475163,529.0999999999999 74.17386399999999,21.7475364,529.5999999999999 74.1738804,21.7475532,530 74.17389679999999,21.7475661,529.9 74.1739111,21.7475821,529.5999999999999 74.17392940000001,21.747598,529.5999999999999 74.1739482,21.7476178,529.3 74.1739674,21.7476267,529.0999999999999 74.1739857,21.747643,528.9 74.1739989,21.7476567,529.0999999999999 74.1740336,21.7476903,528.5 74.1740539,21.7477132,528.3 74.1740678,21.74773,528.0999999999999 74.1740811,21.747759,527.3 74.1741004,21.7477711,527.4 74.1741145,21.7477873,527.0999999999999 74.1741265,21.7478022,527.3 74.1741427,21.7478312,526.5999999999999 74.1741629,21.7478535,526.6999999999999 74.1741899,21.7478694,527.0999999999999 74.17422019999999,21.7478717,527.9 74.1742481,21.7478594,529.0999999999999 74.174272,21.7478526,529.6999999999999 74.17429250000001,21.7478425,530.1999999999999 74.17431449999999,21.7478389,530.8 74.1743343,21.7478412,531.5999999999999 74.1743558,21.7478547,531.9 74.1743798,21.7478766,532.6999999999999 74.1743982,21.7478886,533.8 74.17441839999999,21.7479013,534.0999999999999 74.1744413,21.7479174,534.4 74.1744707,21.7479421,534.9 74.1745011,21.7479659,535.8 74.1745221,21.7479845,535.5999999999999 74.1745411,21.7480054,535.8 74.174577,21.7480117,535.5 74.1745947,21.7480221,535.6999999999999 74.1746255,21.7480452,536.5999999999999 74.1746455,21.7480529,536.8 74.1746665,21.7480687,537.4 74.17470470000001,21.748091,537.3 74.17472119999999,21.7481048,536.8 74.1747604,21.7481253,536.5999999999999 74.1747908,21.7481446,536.3 74.1748092,21.7481567,536.0999999999999 74.174835,21.748162,535.8 74.1748652,21.7481622,534.9 74.1748923,21.7481602,534.6999999999999 74.17493090000001,21.7481474,534.4 74.1749567,21.7481551,533.8 74.1749861,21.7481801,534.1999999999999 74.1750036,21.7481921,534.4 74.17502159999999,21.7482001,534.3 74.1750471,21.7482066,534.3 74.1750717,21.748212,534.9 74.17510540000001,21.7482157,535.1999999999999 74.1751338,21.7482162,535.3 74.17516670000001,21.7482201,535.0999999999999 74.1751963,21.7482368,534.1999999999999 74.17521410000001,21.7482506,533.5999999999999 74.1752285,21.7482632,533.8 74.17524450000001,21.7482881,533.3 74.1752494,21.7483258,533.6999999999999 74.1752649,21.7483497,533.4 74.175292,21.7483786,532.3 74.1753167,21.7483979,531 74.17533969999999,21.7484098,530.1999999999999 74.17535890000001,21.7484202,529.8 74.17538690000001,21.748431,529.5 74.1754152,21.7484476,529 74.17544030000001,21.7484601,528.8 74.1754634,21.7484657,528.9 74.17549959999999,21.7484747,529 74.17553030000001,21.74848,529.3 74.17556020000001,21.748486,529.5 74.1755955,21.7484956,529.4 74.1756259,21.7485076,528.9 74.1756414,21.7485268,529.3 74.1756594,21.7485374,529.3 74.1756851,21.7485743,528.8 74.17569039999999,21.7486009,528.9 74.1757032,21.7486377,528.3 74.1757063,21.7486651,526.9 74.1757173,21.74868,526.0999999999999 74.1757413,21.7487024,525.4 74.17575840000001,21.748721,524.9 74.17577780000001,21.7487365,524.0999999999999 74.1758013,21.7487516,523.3 74.175832,21.7487713,523 74.1758463,21.748784,522.8 74.1758657,21.7487971,522.5999999999999 74.1758991,21.7488182,522.3 74.17593239999999,21.7488357,522.0999999999999 74.1759632,21.7488574,521.4 74.1759972,21.7488736,522.8 74.1760221,21.7488793,523 74.1760443,21.7488849,523.0999999999999 74.1760673,21.7488979,524.1999999999999 74.17608749999999,21.7489048,524.6999999999999 74.17612250000001,21.7489049,524.3 74.17615600000001,21.7489191,524 74.1761772,21.7489244,523.8 74.17622059999999,21.7489245,523.1999999999999 74.17624120000001,21.7489225,523.0999999999999 74.17627709999999,21.7489178,523.4 74.1763053,21.7489188,523.8 74.17632570000001,21.7489213,524 74.176345,21.7489224,524 74.1763802,21.7489245,523.0999999999999 74.176417,21.748925,522.0999999999999 74.17643820000001,21.7489295,521.4 74.1764737,21.7489329,521 74.1765034,21.7489331,520.9 74.1765367,21.7489398,521 74.1765606,21.7489419,521.4 74.1765905,21.7489393,520.9 74.17661870000001,21.7489544,520.0999999999999 74.1766453,21.7489678,519.5 74.17668190000001,21.7489802,520.5 74.1767083,21.7489868,520.4 74.1767486,21.7489942,519.4 74.1767713,21.7489989,519.4 74.1768,21.7490041,519.3 74.17682929999999,21.7490101,519.8 74.17684869999999,21.749013,519.5999999999999 74.1768732,21.7490121,519.3 74.176902,21.749006,519.1999999999999 74.1769273,21.7490021,519.1999999999999 74.1769529,21.7490012,519 74.1769886,21.7490062,518.5999999999999 74.1770106,21.7490113,518.1999999999999 74.17703880000001,21.74902,517.5 74.17706560000001,21.7490344,517.1999999999999 74.1770823,21.749051,516.5999999999999 74.17711610000001,21.749069,516.3 74.1771445,21.7490823,515.9 74.17716729999999,21.7490872,515.6999999999999 74.1772035,21.7491026,515.6999999999999 74.17723460000001,21.749112,516 74.1772584,21.7491163,515.9 74.17728870000001,21.7491168,515.3 74.1773201,21.7491281,515.4 74.17733920000001,21.7491346,515.5999999999999 74.1773891,21.7491438,515.8 74.1774195,21.7491543,515.3 74.17744279999999,21.7491572,514.5999999999999 74.1774672,21.7491612,514.1999999999999 74.1774903,21.7491679,514.6999999999999 74.17752280000001,21.7491708,515.5999999999999 74.1775446,21.7491776,516.9 74.1775663,21.7491765,517.8 74.1775847,21.7491905,518.6999999999999 74.1776131,21.7492036,519.4 74.1776448,21.7492098,518.5 74.1776626,21.7492214,518.5 74.1776842,21.749233,518.5999999999999 74.1777079,21.7492463,518.4 74.1777292,21.7492479,518.5999999999999 74.1777541,21.749248,518.0999999999999 74.17777390000001,21.7492538,517.8 74.1778012,21.7492554,517.6999999999999 74.17782579999999,21.7492586,517.3 74.1778563,21.749257,516.5 74.1778853,21.7492635,515.6999999999999 74.1779169,21.7492783,514.5999999999999 74.1779531,21.749294,513.1999999999999 74.1779817,21.7493055,512.5 74.1780184,21.7493159,511.9 74.17804870000001,21.7493301,511.0000000000001 74.1780763,21.7493495,509.5 74.17807430000001,21.7493725,508.9 74.17806090000001,21.7494002,508.3 74.17804630000001,21.749419,508.3 74.1780758,21.7494253,509.5 74.1780924,21.7494506,508.8 74.1780911,21.7494858,508.3 74.1780935,21.7495125,507.9 74.1780962,21.7495426,507.4 74.17810830000001,21.7495615,506.5999999999999 74.17812499999999,21.7495767,506.0000000000001 74.1781404,21.7495992,505.7 74.1781548,21.7496275,505.2 74.17818010000001,21.7496398,504.6999999999999 74.1781999,21.7496324,503.7 74.1782224,21.7496283,503.4 74.1782575,21.7496321,503.2 74.1782953,21.7496373,503.5 74.1783233,21.7496416,504.0000000000001 74.1783494,21.7496487,503.5 74.178376,21.7496573,502.5000000000002 74.1783973,21.7496776,502.8 74.17841989999999,21.7497122,502.5999999999999 74.1784356,21.7497423,502.2 74.17845490000001,21.7497636,502.0999999999999 74.1784743,21.7497864,501.2 74.17848309999999,21.7498189,500.5000000000002 74.1784847,21.7498425,500.6999999999999 74.1784724,21.7498726,501.1 74.1784612,21.7499022,502.0000000000001 74.1784538,21.7499237,502.3 74.17844650000001,21.7499429,502.3999999999999 74.1784366,21.7499598,501.5 74.1784227,21.7499819,500.5000000000002 74.1784121,21.7500122,499.5 74.17839600000001,21.7500355,498.5999999999999 74.1783844,21.7500546,498.2 74.1783832,21.7500888,497.7 74.1783784,21.7501178,497.4 74.17837,21.7501503,498.0000000000001 74.1783655,21.7501702,498.3 74.1783564,21.750202,497.4 74.1783397,21.7502303,497.1 74.1783255,21.7502617,496.6999999999999 74.1783125,21.7502854,495.8 74.1782918,21.7502884,494.3999999999999 74.1782773,21.7503047,493.8 74.1782539,21.7503375,493.5 74.1782334,21.7503659,493.0000000000001 74.17821840000001,21.7503845,492.5999999999999 74.1781831,21.7504143,491.2 74.1781538,21.7504409,491.2 74.1781314,21.750462,491.4 74.17811519999999,21.750484,492.2 74.1769133,21.7469167,628.4 
					</coordinates>
				</LinearRing>
			</outerBoundaryIs>
		</Polygon>
	</Placemark>
</Document>
</kml>
