<?xml version="1.0" encoding="UTF-8"?>
<kml xmlns="http://www.opengis.net/kml/2.2" xmlns:gx="http://www.google.com/kml/ext/2.2" xmlns:kml="http://www.opengis.net/kml/2.2" xmlns:atom="http://www.w3.org/2005/Atom">
<Document>
	<name>sob bkPlaces.kml</name>
	<StyleMap id="msn_ylw-pushpin">
		<Pair>
			<key>normal</key>
			<styleUrl>#sn_ylw-pushpin</styleUrl>
		</Pair>
		<Pair>
			<key>highlight</key>
			<styleUrl>#sh_ylw-pushpin</styleUrl>
		</Pair>
	</StyleMap>
	<Style id="sh_ylw-pushpin">
		<IconStyle>
			<scale>1.3</scale>
			<Icon>
				<href>http://maps.google.com/mapfiles/kml/pushpin/ylw-pushpin.png</href>
			</Icon>
			<hotSpot x="20" y="2" xunits="pixels" yunits="pixels"/>
		</IconStyle>
		<BalloonStyle>
		</BalloonStyle>
		<PolyStyle>
			<color>80ffc27b</color>
		</PolyStyle>
	</Style>
	<Style id="sn_ylw-pushpin">
		<IconStyle>
			<scale>1.1</scale>
			<Icon>
				<href>http://maps.google.com/mapfiles/kml/pushpin/ylw-pushpin.png</href>
			</Icon>
			<hotSpot x="20" y="2" xunits="pixels" yunits="pixels"/>
		</IconStyle>
		<BalloonStyle>
		</BalloonStyle>
		<PolyStyle>
			<color>80ffc27b</color>
		</PolyStyle>
	</Style>
	<Folder>
		<name>Temporary Places</name>
		<open>1</open>
		<GroundOverlay>
			<name>imh</name>
			<visibility>0</visibility>
			<Icon>
				<href>C:/Forest Governance and Livelihoods Project-Nandurbar/MAPs/Maharashtra/नंदुरबार/धडगाव/Son Bk/2.png</href>
				<viewBoundScale>0.75</viewBoundScale>
			</Icon>
			<LatLonBox>
				<north>21.85946702877733</north>
				<south>21.82658230804294</south>
				<east>74.16816675626535</east>
				<west>74.11129450124581</west>
			</LatLonBox>
		</GroundOverlay>
		<GroundOverlay>
			<name>bunakshan</name>
			<color>7dffffff</color>
			<Icon>
				<href>C:/Forest Governance and Livelihoods Project-Nandurbar/MAPs/Maharashtra/नंदुरबार/धडगाव/Son Bk/Bhunaksha.png</href>
				<viewBoundScale>0.75</viewBoundScale>
			</Icon>
			<LatLonBox>
				<north>21.85919588618535</north>
				<south>21.83300198594002</south>
				<east>74.1595374859434</east>
				<west>74.12654814995793</west>
				<rotation>0.2824362814426422</rotation>
			</LatLonBox>
		</GroundOverlay>
		<Placemark>
			<name>SON BK all cpt</name>
			<visibility>0</visibility>
			<styleUrl>#msn_ylw-pushpin</styleUrl>
			<Polygon>
				<tessellate>1</tessellate>
				<outerBoundaryIs>
					<LinearRing>
						<coordinates>
							74.14290638269645,21.84191725896797,0 74.14393957370217,21.84206256721352,0 74.14683826722407,21.84236930665009,0 74.14888624084891,21.84220646767427,0 74.15047053370733,21.84146964099735,0 74.15138203745558,21.84102890769146,0 74.15172584713305,21.84106221219195,0 74.15362296676709,21.84199436669693,0 74.15255726318148,21.84584601189495,0 74.15220522146626,21.85039906350154,0 74.15053675727549,21.85027609013003,0 74.14920659646334,21.85005040421064,0 74.14739905372423,21.85011392683084,0 74.14678249588171,21.85058965238663,0 74.14617220388494,21.85002081680527,0 74.14514077541247,21.84992083570093,0 74.14365305039971,21.84942822942453,0 74.14248804945539,21.84965076885073,0 74.14138191645648,21.8489177257631,0 74.14112025777268,21.84969880109441,0 74.1403378909488,21.85090680820258,0 74.13952515137511,21.85256994294381,0 74.13917317214396,21.85353582524706,0 74.13872903196855,21.85464116814549,0 74.13848029154664,21.85573966396399,0 74.13823154702453,21.85683817175395,0 74.1379191571331,21.8575756599463,0 74.1374702414643,21.85736437216335,0 74.13652356627865,21.85694351254701,0 74.13561466956249,21.8562488837627,0 74.13474909873398,21.85541651836202,0 74.13450198452294,21.85415380459243,0 74.13447696733128,21.85233844665067,0 74.13407962444575,21.85099022676361,0 74.13345366630189,21.84883275478384,0 74.13319181506714,21.8472073819676,0 74.13226826072551,21.84615007579155,0 74.13248467649616,21.84305501050255,0 74.13264868158375,21.84227738966501,0 74.13263182681031,21.83946289663398,0 74.13768137322189,21.83973971908459,0 74.13920750399043,21.83877802333277,0 74.1412719917594,21.8390233245363,0 74.14199835927012,21.84004211757205,0 74.14290638269645,21.84191725896797,0 
						</coordinates>
					</LinearRing>
				</outerBoundaryIs>
			</Polygon>
		</Placemark>
		<Placemark>
			<name>24 cmpt</name>
			<styleUrl>#msn_ylw-pushpin</styleUrl>
			<Polygon>
				<tessellate>1</tessellate>
				<outerBoundaryIs>
					<LinearRing>
						<coordinates>
							74.13322199091752,21.8392901657068,0 74.13374441044498,21.8393098302446,0 74.1343508412661,21.83936456313467,0 74.13525010889883,21.83939005127257,0 74.13606855656572,21.83958971947985,0 74.13701313720142,21.83972813595334,0 74.13774632541207,21.83972147967742,0 74.13809803407027,21.83951849497976,0 74.13850827719853,21.83916168102709,0 74.13883872540963,21.83899819966169,0 74.13887083454216,21.83861818590048,0 74.13930864880213,21.8386028142288,0 74.14023124551841,21.83874077156897,0 74.14040414398039,21.83892425778423,0 74.13986074217971,21.83892437334353,0 74.13935865329211,21.83890407492582,0 74.13914991442496,21.83891140415486,0 74.13913607956852,21.83917763886286,0 74.13947624488925,21.83937489789803,0 74.13962914246923,21.83959815437377,0 74.13961578488097,21.83986588609686,0 74.13865648846787,21.84009082478231,0 74.1384022369519,21.84088698538,0 74.1376234073978,21.8419393937642,0 74.13741402551706,21.84204388402072,0 74.137416651857,21.8421799141436,0 74.13736100780807,21.84259112428413,0 74.13739116330478,21.84305942819021,0 74.13724720461417,21.84446335367911,0 74.13719946067107,21.84535973149626,0 74.13723659975554,21.84621930602636,0 74.13716075838666,21.84678569233136,0 74.13717127043412,21.84737182020902,0 74.13733138196429,21.84785361971187,0 74.13762450931469,21.84845522491793,0 74.1378726324082,21.84891761933669,0 74.13799372012843,21.84950984692675,0 74.1379579131153,21.84988272995597,0 74.13767778929046,21.85005808195622,0 74.137739101599,21.84984907183496,0 74.13773457066074,21.84962207196284,0 74.13764140536084,21.84931622696653,0 74.13739601354581,21.84899593779406,0 74.13721412072816,21.84855144742835,0 74.13690264620178,21.84809270173694,0 74.13645838508768,21.84735632049762,0 74.13595350125438,21.84672723647731,0 74.13601266824499,21.84632256200038,0 74.13527896874739,21.84606725907305,0 74.13306583964469,21.84514618741384,0 74.13283058998067,21.8451345472802,0 74.13295945821893,21.84552852150487,0 74.13276693468552,21.8458749874797,0 74.13261681198939,21.84582024074336,0 74.13238110295131,21.84566861060432,0 74.13238144357729,21.84526972477689,0 74.13244594357559,21.84473096770967,0 74.1324036398028,21.8442179716276,0 74.13240411790956,21.84358761603971,0 74.13244691869554,21.8430762786165,0 74.13265891538967,21.84275612314856,0 74.13272218600461,21.84222795163429,0 74.13272217586541,21.84220851458348,0 74.13272199319687,21.84185916346251,0 74.13272182039523,21.84153011435428,0 74.13263740951786,21.84101223388388,0 74.13263727928349,21.84034029763611,0 74.13253251922553,21.83978995770299,0 74.13255351155657,21.83933259130134,0 74.13322199091752,21.8392901657068,0 
						</coordinates>
					</LinearRing>
				</outerBoundaryIs>
			</Polygon>
		</Placemark>
		<Placemark>
			<name>5 cmpt</name>
			<styleUrl>#msn_ylw-pushpin</styleUrl>
			<Polygon>
				<tessellate>1</tessellate>
				<outerBoundaryIs>
					<LinearRing>
						<coordinates>
							74.14628612342298,21.85002500567835,0 74.14534004372527,21.84991312131285,0 74.14394151565543,21.84942462134203,0 74.14403252652018,21.84804620838248,0 74.14456611611824,21.8473961179551,0 74.1451262335863,21.8477833890709,0 74.1459237952989,21.84769422885128,0 74.14601726728134,21.84700021170615,0 74.14632567153464,21.8467060334244,0 74.14673969293692,21.84677236771628,0 74.14739745409786,21.84768317250617,0 74.14783633203227,21.84776966946517,0 74.14842211853835,21.84776946932283,0 74.14918122299271,21.84776317747519,0 74.14950466637666,21.84773140618688,0 74.15001596209073,21.84759110507417,0 74.15047639063708,21.84735095890367,0 74.15062801613689,21.84643351138148,0 74.15077146351142,21.84572352588528,0 74.15073989204933,21.84528352263299,0 74.15042868658979,21.84483493912299,0 74.15006624950024,21.84425079522836,0 74.14968971876546,21.84406570084466,0 74.14889752527387,21.84405393634478,0 74.14820980667328,21.8439989010713,0 74.14740776378216,21.84380949878089,0 74.14642304857493,21.84376508780512,0 74.14494713867634,21.84326509983211,0 74.14438241589683,21.84302954265002,0 74.14409879327921,21.84241301591949,0 74.14295582715131,21.84196590330065,0 74.1434201334348,21.84193013381453,0 74.14422351003921,21.84190189666083,0 74.1449240581764,21.84193563532569,0 74.1456350861578,21.84216386740367,0 74.14636767337022,21.84237231419413,0 74.14700443306805,21.84236945857108,0 74.14777199371821,21.84242064157214,0 74.14867967307771,21.8423300747553,0 74.149215099034,21.84207695740786,0 74.15019980234986,21.84159448859683,0 74.15116514463028,21.84090143539371,0 74.15148132605182,21.84089030497898,0 74.15217863722108,21.84115609860082,0 74.1531519031155,21.84166561628762,0 74.15370200872869,21.84189952397983,0 74.15353601755542,21.84270753299719,0 74.15337247431945,21.84304740179949,0 74.15314873696013,21.84396380812215,0 74.15240122852316,21.84562602692754,0 74.15245412129256,21.84602638719851,0 74.15239240034292,21.84885955052741,0 74.15237118358762,21.85028913082767,0 74.15207118276824,21.85038299561224,0 74.15101482538991,21.85033681539259,0 74.14881021975783,21.85014390543456,0 74.14748346798157,21.84992069891975,0 74.14694934678694,21.85054220498716,0 74.14628612342298,21.85002500567835,0 
						</coordinates>
					</LinearRing>
				</outerBoundaryIs>
			</Polygon>
		</Placemark>
		<atom:link rel="app" href="https://www.google.com/earth/about/versions/#earth-pro" title="Google Earth Pro 7.3.6.10201"></atom:link>
	</Folder>
</Document>
</kml>
