<?xml version="1.0" encoding="UTF-8"?>
<kml xmlns="http://www.opengis.net/kml/2.2" xmlns:gx="http://www.google.com/kml/ext/2.2" xmlns:kml="http://www.opengis.net/kml/2.2" xmlns:atom="http://www.w3.org/2005/Atom">
<Document>
	<name>थुवा_४८_413.kml</name>
	<StyleMap id="m_ylw-pushpin">
		<Pair>
			<key>normal</key>
			<styleUrl>#s_ylw-pushpin</styleUrl>
		</Pair>
		<Pair>
			<key>highlight</key>
			<styleUrl>#s_ylw-pushpin_hl</styleUrl>
		</Pair>
	</StyleMap>
	<Style id="s_ylw-pushpin">
		<IconStyle>
			<scale>1.1</scale>
			<Icon>
				<href>http://maps.google.com/mapfiles/kml/pushpin/ylw-pushpin.png</href>
			</Icon>
			<hotSpot x="20" y="2" xunits="pixels" yunits="pixels"/>
		</IconStyle>
		<LineStyle>
			<color>d600ffff</color>
			<width>2.8</width>
		</LineStyle>
		<PolyStyle>
			<color>8affffaa</color>
		</PolyStyle>
	</Style>
	<Style id="s_ylw-pushpin_hl">
		<IconStyle>
			<scale>1.3</scale>
			<Icon>
				<href>http://maps.google.com/mapfiles/kml/pushpin/ylw-pushpin.png</href>
			</Icon>
			<hotSpot x="20" y="2" xunits="pixels" yunits="pixels"/>
		</IconStyle>
		<LineStyle>
			<color>d600ffff</color>
			<width>2.8</width>
		</LineStyle>
		<PolyStyle>
			<color>8affffaa</color>
		</PolyStyle>
	</Style>
	<Placemark>
		<name>थुवा_४८_413</name>
		<styleUrl>#m_ylw-pushpin</styleUrl>
		<Polygon>
			<tessellate>1</tessellate>
			<outerBoundaryIs>
				<LinearRing>
					<coordinates>
						73.70331375624416,21.11762167667984,0 73.70334568040322,21.11740825376607,0 73.70332546082535,21.11723155862313,0 73.70330524119599,21.11705486335291,0 73.70323287914846,21.11691489565453,0 73.70312114315414,21.11672628642089,0 73.70310092349219,21.11654959067286,0 73.7030285614844,21.11640962243326,0 73.70291044079542,21.11626369726632,0 73.70284446248246,21.11608104392165,0 73.70277848520516,21.11589839046961,0 73.70271889159824,21.11567305166947,0 73.70273804571275,21.11554499673388,0 73.70267206836731,21.11536234261666,0 73.70265823312883,21.11514296034715,0 73.70264439881525,21.1149235779389,0 73.702669937168,21.11475283766511,0 73.70270824446506,21.11449672682538,0 73.70264226580169,21.11431407160151,0 73.70266780381085,21.11414333045416,0 73.70260821067463,21.11391798890208,0 73.70258160569878,21.11378397579795,0 73.70260714342962,21.11361323408973,0 73.70258692380536,21.11343653533373,0 73.70256670316122,21.11325983560369,0 73.70254648244938,21.11308313563066,0 73.70253903125129,21.11282106480991,0 73.70246666798862,21.1126810921787,0 73.70239430566086,21.11254112003798,0 73.70228256960149,21.11235250331367,0 73.70226234863289,21.11217580189574,0 73.70224212750134,21.11199910080352,0 73.70222829164334,21.11177971293838,0 73.70226021250448,21.11156628318285,0 73.70228574911755,21.11139553863652,0 73.70235704236302,21.11123075240696,0 73.70238257868066,21.11106000740106,0 73.70240811486956,21.11088926214836,0 73.70247940861709,21.11072447537504,0 73.70255070224462,21.11055968776568,0 73.70262199453204,21.11039490038065,0 73.70273904536315,21.11023607039667,0 73.70285609483932,21.11007724000658,0 73.70297314495981,21.10991841007691,0 73.70309019382316,21.10975957912985,0 73.70316786964797,21.10955210377089,0 73.70337643148997,21.1094051880701,0 73.70343495598377,21.10932577222103,0 73.70355200371259,21.10916694016027,0 73.70371480811629,21.10901406690843,0 73.70383823972668,21.10881254720913,0 73.70399466011391,21.10870235916868,0 73.70411170661909,21.10854352580058,0 73.70426812642324,21.10843333719702,0 73.70442454575412,21.10832314950598,0 73.70462033850244,21.10826160536239,0 73.70473738495573,21.10810277097897,0 73.70490018679007,21.10794989369374,0 73.70505022199774,21.10788239112198,0 73.70521302321393,21.1077295131273,0 73.70541519753364,21.1076252797886,0 73.70566312669702,21.10752700439066,0 73.70586529970539,21.10742277003147,0 73.70605470701555,21.10740391088137,0 73.70621112365316,21.10729371871183,0 73.70640691341598,21.10723217111643,0 73.7066484585813,21.10717658000874,0 73.70679849165431,21.10710907473641,0 73.70708579179768,21.10705943940219,0 73.70728157978452,21.10699789127754,0 73.70751674101857,21.10698498613941,0 73.70775828467958,21.10692939247126,0 73.7079540726577,21.10686784193777,0 73.70819561578192,21.10681224723663,0 73.70835841262658,21.1066593633416,0 73.70854781688777,21.10664049969261,0 73.70869784828096,21.10657299148491,0 73.70890001779296,21.10646875075819,0 73.70905004889785,21.10640124193364,0 73.70920646215477,21.10629104566722,0 73.70940863109411,21.10618680364827,0 73.70965017254441,21.10613120527798,0 73.70980658547404,21.10602100657959,0 73.70996299826422,21.10591080749937,0 73.71016516595375,21.10580656348588,0 73.71031519668219,21.10573905240181,0 73.71051736389639,21.1056348086787,0 73.71075890437324,21.10557920736749,0 73.71090893427233,21.10551169515504,0 73.71111110151439,21.10540744878802,0 73.71126751369553,21.1052972468947,0 73.71149628908923,21.10532702167305,0 73.71164631894553,21.10525950817719,0 73.71187509427443,21.1052892821011,0 73.71211663409507,21.10523367729031,0 73.71244330180809,21.10523267001259,0 73.71264546850071,21.10512842139808,0 73.71284125285011,21.10506686026415,0 73.71303065525349,21.10504798803102,0 73.71327219483842,21.10499238021285,0 73.71350735227287,21.10497946114249,0 73.71365099964834,21.10495463367826,0 73.7138404020767,21.10493575985538,0 73.71406917769218,21.10496552888165,0 73.7142979533951,21.10499529737035,0 73.71449373789281,21.10493373283003,0 73.71467675859859,21.1049575468945,0 73.71486616124355,21.10493867109491,0 73.71506194585299,21.10487710535147,0 73.71521835717481,21.10476689626683,0 73.71540775996417,21.10474801934524,0 73.71563653619874,21.10477778481526,0 73.71586531258598,21.10480754975064,0 73.71613984446586,21.10484326696913,0 73.71636862128835,21.1048730307412,0 73.71656440643702,21.10481146186386,0 73.71676657328848,21.10470720385981,0 73.71687722952905,21.10459103911781,0 73.71699426758462,21.10443218395784,0 73.71710492385816,21.10431601840953,0 73.7173070910705,21.10421175712387,0 73.71745712103237,21.10414423331098,0 73.71764014306592,21.10416804203454,0 73.71781040170301,21.10427723102374,0 73.71802003447092,21.10443506176736,0 73.71813815610375,21.10458098800883,0 73.71820414066721,21.10476365203508,0 73.71832226259426,21.10490957743545,0 73.71824459845034,21.10511707369475,0 73.71826482748631,21.10529378446831,0 73.71833081244337,21.10547644661167,0 73.71840317892584,21.10561641875572,0 73.7185670573673,21.10576829402954,0 73.71853514937121,21.10598173963157,0 73.71860113483339,21.10616439998867,0 73.71866712017061,21.10634705985464,0 73.71878524355544,21.10649298189363,0 73.718753335686,21.10670642671245,0 73.71863629742538,21.1068652776429,0 73.71851925900793,21.10702412925626,0 73.71845435850375,21.10714624353198,0 73.718559718791,21.10737754142043,0 73.71849481804614,21.10749965511627,0 73.71837139854637,21.10770119230259,0 73.71848314064127,21.10788980054523,0 73.71862040896733,21.10790765558119,0 73.71873215171858,21.10809626324206,0 73.71888965078105,21.10829082196268,0 73.71902053786975,21.10835136452787,0 73.71913866303994,21.10849728305584,0 73.71910675615592,21.10871072155412,0 73.7193163936298,21.10886854215828,0 73.71934300631753,21.10900255698752,0 73.71950688808793,21.10915442554209,0 73.71963139510689,21.1092576547894,0 73.71965162680985,21.1094343566968,0 73.71953458837055,21.10959320319937,0 73.71946330671921,21.10975800183389,0 73.71947715672145,21.10997739009858,0 73.71940587510272,21.11014218798487,0 73.71932821186915,21.1103496714171,0 73.7192963055156,21.11056310698945,0 73.71914627288309,21.11063062674313,0 73.71891748945922,21.11060086913232,0 73.71874084459272,21.11053437577095,0 73.71857696243072,21.1103825080361,0 73.71840031783813,21.11031601407873,0 73.71813216054578,21.1102376161356,0 73.71790337866544,21.1102078565892,0 73.71762884097397,21.11017214457132,0 73.71734792187438,21.11017911887964,0 73.71711914084528,21.11014935779841,0 73.71693611624553,21.11012554861622,0 73.71681799273161,21.10997963055922,0 73.71664773150886,21.10987044802512,0 73.71643809629047,21.10971262432392,0 73.71631997344647,21.10956670526368,0 73.71623484326216,21.10951211289606,0 73.71599968200373,21.10952503672195,0 73.71592839934701,21.10968983242781,0 73.71599438454881,21.10987248478258,0 73.71587734585155,21.11003132712424,0 73.71581244469898,21.11015343499476,0 73.71587842981886,21.1103360877751,0 73.71589227740424,21.11055547419548,0 73.71596464444013,21.11069543962797,0 73.71593911788692,21.11086618483815,0 73.71576994105584,21.11106175920034,0 73.71571142159932,21.11114117933488,0 73.71584868990128,21.11115903763536,0 73.71596681339039,21.11130495506357,0 73.71593490512723,21.11151838623959,0 73.71595513461956,21.11169508405796,0 73.71611263320884,21.11188963900695,0 73.71613286306371,21.11206633629609,0 73.71606158019993,21.11223112744434,0 73.71621907928039,21.1124256821017,0 73.71629144749332,21.11256564526372,0 73.71626592120319,21.1127363884419,0 73.71633828933656,21.11287635123949,0 73.71626700664945,21.11304114208784,0 73.71624148038296,21.11321188464356,0 73.7160786840119,21.1133647696937,0 73.71590950623037,21.11356033939154,0 73.71575309138076,21.1136705379961,0 73.71572756471154,21.11384128021316,0 73.71569565645048,21.11405470709933,0 73.71567012975753,21.11422544886656,0 73.71550095128543,21.11442101674475,0 73.71547542446116,21.11459175805901,0 73.71559354978537,21.11473767183182,0 73.71560739828716,21.11495705091415,0 73.71567976705833,21.11509701214996,0 73.71579789294792,21.11524292540603,0 73.71572022766496,21.11545039837399,0 73.7156883194764,21.11566382325762,0 73.71585858475879,21.11577300447383,0 73.71603523164606,21.11583950036168,0 73.71600970529632,21.11601024054612,0 73.71583414396041,21.11624849174718,0 73.71576286045152,21.11641327850465,0 73.71563943759745,21.11661479713307,0 73.71552239623648,21.11677363060857,0 73.71539897327537,21.11697514870467,0 73.71546496105012,21.1171577936314,0 73.7154851917937,21.11733448528857,0 73.71569483428065,21.11749230346924,0 73.71575444136013,21.11771763247765,0 73.71585980611326,21.11794891408692,0 73.71596517123261,21.11818019551675,0 73.71612267615728,21.11837474483209,0 73.71613014489061,21.11863680521312,0 73.71615675831652,21.11877081155817,0 73.71621636654963,21.11899613994466,0 73.71628235679374,21.11917878351496,0 73.71634834695473,21.119361427143,0 73.7163100581338,21.11961753426721,0 73.71624515539121,21.11973963514461,0 73.7161802528373,21.11986173599769,0 73.71605682853559,21.12006325292722,0 73.71597916241912,21.12027072243242,0 73.7159536361749,21.12044146031252,0 73.71588235165861,21.12060624535112,0 73.71585044373144,21.12081966756721,0 73.71596857453571,21.12096557946073,0 73.71612608281305,21.12116012861024,0 73.71620483702166,21.12125740311878,0 73.71631658751176,21.12144599939554,0 73.71641557524687,21.12171996460658,0 73.71649433034197,21.1218172391352,0 73.71663907795681,21.12209715714623,0 73.71667207409931,21.12218847890836,0 73.71664654865101,21.12235921706575,0 73.71666040108258,21.12257859253674,0 73.71683067541281,21.12268777253674,0 73.7169424281701,21.12287636890222,0 73.71709994109484,21.12307091817989,0 73.71721169474553,21.12325951462889,0 73.71728407051421,21.12339947394172,0 73.71740220598193,21.12354538590877,0 73.7174618194823,21.12377071462292,0 73.71762571586746,21.12392257921351,0 73.71763957032609,21.12414195558672,0 73.71775132670919,21.12433055258682,0 73.7178822259101,21.12439109525927,0 73.71805250436775,21.12450027532706,0 73.71822916465584,21.12456677047372,0 73.71845796622492,21.12459653302116,0 73.71868676762669,21.12462629526856,0 73.71887619030834,21.12460741997312,0 73.71915075316267,21.12464313416562,0 73.71933379571874,21.12466694348913,0 73.71949131614208,21.12486149267989,0 73.71975312038457,21.12498257660899,0 73.72002768565105,21.12501828992856,0 73.72037463325628,21.12519396265737,0 73.72055129751733,21.12526045641831,0 73.72077372381219,21.12533290222642,0 73.72091100830582,21.12535075848949,0 73.72112705509005,21.12546588906849,0 73.72138248467643,21.12562965738122,0 73.72168367766905,21.1257993774099,0 73.72186034571133,21.12586587077232,0 73.72193910991115,21.12596314542625,0 73.7220242549502,21.12601773496275,0 73.72227968887168,21.12618150302912,0 73.7223126913098,21.12627282619884,0 73.72243084075794,21.12641873888592,0 73.72249684733231,21.12660138569706,0 73.72261499660887,21.12674729856983,0 73.72272676699953,21.1269358974673,0 73.72283853796314,21.12712449662015,0 73.72285878397885,21.1273011924692,0 73.72297055584876,21.12748979213483,0 73.72304294397586,21.12762975425008,0 73.72301104808061,21.12784318421615,0 73.72293976877621,21.12800797687552,0 73.72286848843788,21.12817276888946,0 73.72275144428578,21.12833160940899,0 73.72271954818412,21.12854504008616,0 73.72260250479245,21.12870388089797,0 73.72257698774665,21.12887462623585,0 73.72254509154948,21.12908805757002,0 73.72242166846334,21.12928958514604,0 73.72234400816325,21.12949706456256,0 73.72222696399655,21.12965590589134,0 73.72215568273454,21.12982069907436,0 73.72203863824882,21.12997954056617,0 73.72192159263319,21.13013838138974,0 73.7217587836865,21.13029127036139,0 73.72165449760777,21.13036473856593,0 73.7215310719554,21.13056626626635,0 73.72146617025948,21.13068837402653,0 73.72144065210061,21.13085912139122,0 73.72140875448952,21.13107255533778,0 73.72142899968149,21.13124925598568,0 73.72144924616404,21.13142595647912,0 73.72146311322584,21.13164534505944,0 73.72143121586298,21.13185878056189,0 73.72140569789615,21.1320295297466,0 73.72133441518267,21.13219432557359,0 73.72126313224852,21.13235912221174,0 73.72114608530708,21.13251796609373,0 73.72098327321241,21.13267085696916,0 73.72078745550299,21.1327324183477,0 73.72063102271302,21.13284262161282,0 73.72043520472454,21.13290418399996,0 73.72016061811588,21.13286846468114,0 73.71993179679653,21.13283869851291,0 73.71970297540632,21.13280893217147,0 73.71951991840338,21.13278511899447,0 73.71933686219884,21.13276130581638,0 73.71910804193418,21.13273153919503,0 73.71892498581343,21.13270772579172,0 73.71875469153639,21.13259853774358,0 73.71857801668574,21.13253203698393,0 73.71839496207963,21.13250822351172,0 73.71822466869797,21.1323990355228,0 73.71804161472917,21.13237522195226,0 73.71785217957623,21.13239409536579,0 73.71765636404356,21.13245565587964,0 73.71747331002084,21.13243184193836,0 73.7172774944715,21.1324934022275,0 73.71709444073433,21.13246958808485,0 73.71690500643886,21.13248846103359,0 73.716728334409,21.13242195963419,0 73.71645375532491,21.13238623810658,0 73.71627070249741,21.13236242361004,0 73.71604188698811,21.13233265541011,0 73.7157736907231,21.13225424648201,0 73.71559702100924,21.13218774485939,0 73.71542035109232,21.13212124314348,0 73.7151979188976,21.13204878769815,0 73.71497548739758,21.13197633221828,0 73.7148052004964,21.13186714484777,0 73.71458276986165,21.13179468928486,0 73.71435395703395,21.13176492026317,0 73.71422943433012,21.13166168553221,0 73.71400062202541,21.13163191632522,0 73.71387609991281,21.13152868161749,0 73.71364728810622,21.13149891221801,0 73.71337271412349,21.1314631887365,0 73.71318966502456,21.13143937297408,0 73.71291509156769,21.1314036491497,0 73.71268628058363,21.13137387913747,0 73.71245746960872,21.13134410895506,0 73.71226803777688,21.13136297913419,0 73.7120786058649,21.13138184920615,0 73.71184979508116,21.13135207859778,0 73.71162098440165,21.13132230783283,0 73.71134002808549,21.13132926910771,0 73.71110483381081,21.13134218439045,0 73.7109217853142,21.13131836736251,0 73.71069297476963,21.13128859593549,0 73.71046416423954,21.13125882434147,0 73.71028749991535,21.13119232058495,0 73.71005868958916,21.13116254871126,0 73.709882025491,21.13109604475257,0 73.70966598395621,21.1309809000034,0 73.70944994265847,21.13086575517116,0 73.70935841874305,21.13085384620367,0 73.70912960901639,21.13082407367217,0 73.7088944145444,21.13083698717705,0 73.70871136660833,21.13081316887411,0 73.70843679453613,21.13077744119148,0 73.70811646059177,21.13073575860026,0 73.70792702752324,21.13075462603545,0 73.70769821723792,21.13072485237836,0 73.70750239860385,21.13078640580866,0 73.70726720293321,21.13079931811536,0 73.70707776868754,21.13081818504118,0 73.70684895796377,21.13078841075346,0 73.70667229472602,21.1307219048968,0 73.70649563156148,21.13065539894075,0 73.70632535390948,21.13054620662687,0 73.7062593728284,21.13036355200061,0 73.70637643913817,21.13020471804526,0 73.70649350558715,21.13004588378612,0 73.70656480939505,21.12988109476606,0 73.70654458965952,21.129704396748,0 73.70633493733749,21.12954656426023,0 73.70619765213399,21.12952869924915,0 73.70598800024915,21.12937086656491,0 73.70577834860914,21.1292130343977,0 73.70562084518089,21.12901847100985,0 73.7053845898121,21.12872662656219,0 73.70522708723186,21.12853206333942,0 73.70516110757758,21.12834941064211,0 73.70519303676127,21.1281359837974,0 73.70521858001379,21.12796524207409,0 73.70528988460309,21.12780045645857,0 73.70522390500027,21.12761780457812,0 73.70525583349374,21.12740437878864,0 73.70518985399801,21.12722172727059,0 73.70516963582857,21.12704503184985,0 73.70514941721581,21.12686833591931,0 73.70517495976694,21.12669759553219,0 73.70529202375292,21.1265387666049,0 73.70532395138744,21.12632534157148,0 73.70534310777195,21.12619728727056,0 73.70546017084055,21.126038458215,0 73.70557723346759,21.12587962928566,0 73.70569429504594,21.1257208010097,0 73.70589649233295,21.12561656765503,0 73.70601355356585,21.12545773900189,0 73.70609123887593,21.12525027106044,0 73.7060188736574,21.12511030671584,0 73.70595289364657,21.12492765740284,0 73.70588691421311,21.12474500851586,0 73.70586669409781,21.1245683149103,0 73.70580071480964,21.12438566614773,0 73.70573473509506,21.12420301735706,0 73.70558362082726,21.12396577320355,0 73.7055634014481,21.1237890799264,0 73.70549103704448,21.12364911542298,0 73.70547720273905,21.12342973773829,0 73.7054569828454,21.12325304455668,0 73.70544314844463,21.12303366703482,0 73.70556020727722,21.12287484060406,0 73.70553360229184,21.12274083175107,0 73.70546762354273,21.12255818333792,0 73.70536227015398,21.12232689486189,0 73.7052899061599,21.12218693070662,0 73.70518455304433,21.12195564207434,0 73.70516433314999,21.12177894894572,0 73.70509835427802,21.12159630027103,0 73.70503237599198,21.12141365161079,0 73.70496639726953,21.121231002673,0 73.7050047064151,21.12097489682754,0 73.70503024567479,21.12080415966592,0 73.70505578481593,21.12063342243874,0 73.70508132382804,21.1204626852164,0 73.70506110415455,21.12028599217979,0 73.70508664296234,21.12011525496301,0 73.70511856629233,21.11990183343325,0 73.70509196127406,21.11976782455529,0 73.70511749975228,21.11959708730658,0 73.70500576264924,21.11940848216633,0 73.70493978394484,21.11922583283751,0 73.70482166240907,21.119079911661,0 73.70475568382493,21.11889726207959,0 73.70463756244236,21.11875134054098,0 73.70451944112847,21.1186054187962,0 73.70454497963991,21.11843468119856,0 73.70438110026519,21.11828280292213,0 73.70436726471654,21.11806342431839,0 73.70429490178573,21.11792345819225,0 73.70422892400615,21.11774080758659,0 73.70420231921148,21.11760679756841,0 73.70398629699355,21.117491646226,0 73.70371174716291,21.11745590695643,0 73.70348295565981,21.11742612384704,0 73.70335845000251,21.11732288459694,0 73.70318818556528,21.11721368831006,0 73.70331375624416,21.11762167667984,0 
					</coordinates>
				</LinearRing>
			</outerBoundaryIs>
		</Polygon>
		<atom:link rel="app" href="https://www.google.com/earth/about/versions/#earth-pro" title="Google Earth Pro 7.3.7.1094"></atom:link>
	</Placemark>
</Document>
</kml>
