<?xml version="1.0" encoding="UTF-8"?>
<kml xmlns="http://www.opengis.net/kml/2.2" xmlns:gx="http://www.google.com/kml/ext/2.2" xmlns:kml="http://www.opengis.net/kml/2.2" xmlns:atom="http://www.w3.org/2005/Atom">
<Document>
	<name>उकाळपाणी_५५_६२_६७0.kml</name>
	<StyleMap id="m_ylw-pushpin">
		<Pair>
			<key>normal</key>
			<styleUrl>#s_ylw-pushpin</styleUrl>
		</Pair>
		<Pair>
			<key>highlight</key>
			<styleUrl>#s_ylw-pushpin_hl</styleUrl>
		</Pair>
	</StyleMap>
	<Style id="s_ylw-pushpin">
		<IconStyle>
			<scale>1.1</scale>
			<Icon>
				<href>http://maps.google.com/mapfiles/kml/pushpin/ylw-pushpin.png</href>
			</Icon>
			<hotSpot x="20" y="2" xunits="pixels" yunits="pixels"/>
		</IconStyle>
		<LineStyle>
			<color>d600ffff</color>
			<width>2.8</width>
		</LineStyle>
		<PolyStyle>
			<color>8affffaa</color>
		</PolyStyle>
	</Style>
	<Style id="s_ylw-pushpin_hl">
		<IconStyle>
			<scale>1.3</scale>
			<Icon>
				<href>http://maps.google.com/mapfiles/kml/pushpin/ylw-pushpin.png</href>
			</Icon>
			<hotSpot x="20" y="2" xunits="pixels" yunits="pixels"/>
		</IconStyle>
		<LineStyle>
			<color>d600ffff</color>
			<width>2.8</width>
		</LineStyle>
		<PolyStyle>
			<color>8affffaa</color>
		</PolyStyle>
	</Style>
	<Placemark>
		<name>उकाळपाणी_५५_६२_६७0</name>
		<styleUrl>#m_ylw-pushpin</styleUrl>
		<Polygon>
			<tessellate>1</tessellate>
			<outerBoundaryIs>
				<LinearRing>
					<coordinates>
						73.8089898512919,21.08162852521279,0 73.80899064434301,21.08132883107968,0 73.8089912388497,21.08110406130569,0 73.80915281999357,21.08072978195118,0 73.80923410482352,21.08035533928303,0 73.80923489524186,21.08005565068706,0 73.80931598049433,21.07975613126381,0 73.80939706287984,21.07945661319933,0 73.80947834307639,21.07908217758515,0 73.80947913089528,21.07878249426673,0 73.8094797214831,21.07855773252438,0 73.80948050856502,21.07825805118517,0 73.80948188494526,21.07773361150733,0 73.8094828672791,21.07735901588686,0 73.80948384896078,21.07698441982856,0 73.80948443765413,21.07675966298359,0 73.80932444326604,21.0765345687435,0 73.80932581629095,21.07601014148296,0 73.80932640433572,21.0757853869858,0 73.80932757971108,21.07533587966302,0 73.80932797129127,21.07518604437749,0 73.80916856341423,21.0747362007487,0 73.81013282309371,21.07443856955548,0 73.81021389204999,21.07413907259546,0 73.81021467073627,21.07383940706027,0 73.81029593251451,21.07346499618333,0 73.81037699871466,21.0731655047071,0 73.81037777559374,21.0728658422366,0 73.81029826386371,21.07256601058627,0 73.81021875212546,21.07226617957054,0 73.81013924037224,21.0719663502281,0 73.81005973043472,21.07166652044011,0 73.81006070009178,21.07129194823052,0 73.80998099424453,21.07106703427226,0 73.8099815756736,21.07084229126417,0 73.80998273783315,21.07039280757738,0 73.80998351209269,21.07009315200931,0 73.80998428593725,21.06979349821896,0 73.8101458229302,21.0694192728442,0 73.81030735968777,21.0690450499833,0 73.81038860924848,21.06867065627234,0 73.81038957266925,21.06829609351265,0 73.8104704333027,21.06807152710716,0 73.8106317718302,21.0677722202603,0 73.81087358287445,21.06739817472949,0 73.81103472408192,21.06717378174349,0 73.81119624734372,21.06679956687909,0 73.81111673238553,21.06649974879057,0 73.81111749833514,21.06620010387084,0 73.81111826389358,21.06590045843654,0 73.81111902905815,21.06560081352719,0 73.81111998495743,21.06522625916082,0 73.81112055820324,21.06500152628027,0 73.81112170402785,21.06455206238082,0 73.81112246742066,21.0642524196579,0 73.81112361176912,21.06380295746057,0 73.8111245647173,21.06342840601151,0 73.81112551705057,21.0630538551995,0 73.81112646876912,21.06267930499677,0 73.81112741987293,21.06230475537557,0 73.81112837036214,21.06193020630813,0 73.8112092182337,21.06170564989914,0 73.8112099776969,21.06140601146391,0 73.81113064902955,21.06103129042882,0 73.81113159742956,21.06065674303657,0 73.81121263273229,21.06035727903916,0 73.81121320104346,21.06013255128898,0 73.81129442615341,21.05975817864885,0 73.81137565012395,21.059383806565,0 73.81137640618989,21.05908417009032,0 73.81145743771954,21.05878470768758,0 73.81153847026056,21.05848524588395,0 73.8116195019887,21.05818578439695,0 73.8116202559719,21.05788614891052,0 73.81170128633188,21.05758668795827,0 73.81170222757139,21.05721214427131,0 73.8116227037561,21.05691233509891,0 73.81154317982588,21.05661252581227,0 73.81130272876212,21.05646218475334,0 73.81122320489234,21.0561623749523,0 73.81098331818839,21.05578730644522,0 73.81082351971129,21.05548732094113,0 73.81058325671538,21.0552620685983,0 73.81042327006345,21.05503699099395,0 73.81018319318954,21.05473682829845,0 73.80986246672487,21.05458630707481,0 73.80954173774687,21.05443578482971,0 73.80930109677507,21.05436034717962,0 73.8088194359744,21.05435928925839,0 73.807936760727,21.05420752667331,0 73.80761602652784,21.05405699904323,0 73.80729567190457,21.05375665052532,0 73.80705540466963,21.05353138812897,0 73.8068153245873,21.05323121468922,0 73.80665533595558,21.05300612850157,0 73.80641525719221,21.05270595323776,0 73.80633573487918,21.05240613359875,0 73.80609565566074,21.05210595669029,0 73.80585538688439,21.05188068906618,0 73.80569539730763,21.05165559944854,0 73.80553540572268,21.05143050924675,0 73.80513457815759,21.05120488076784,0 73.80473374732522,21.05097925004394,0 73.80449347613219,21.05075397717634,0 73.80417292562375,21.05052852318975,0 73.80385218104369,21.05037797933652,0 73.80361171852358,21.05022761460091,0 73.80329135497172,21.04992724505008,0 73.80297080089815,21.04970178571098,0 73.80265024216411,21.04947632428924,0 73.80240977684579,21.04932595582054,0 73.80216950063956,21.04910067350139,0 73.80184913268606,21.04880029589136,0 73.80160904480211,21.04850009865204,0 73.80128848164331,21.04827463040124,0 73.80104820264418,21.04804934284299,0 73.80072764116427,21.04782387156772,0 73.80056764272595,21.047598765298,0 73.8003273617838,21.04737347423342,0 73.80000679767537,21.0471479987165,0 73.7997667048282,21.04684779147969,0 73.79952642159164,21.04662249639219,0 73.79928632725388,21.04632228616294,0 73.79904623212128,21.04602207430843,0 73.7988061361773,21.04572186027951,0 73.7986461336826,21.04549674604996,0 73.79840622569567,21.04512161391515,0 73.79816574875927,21.04497122597901,0 73.79776469832677,21.04482046588754,0 73.79744412374173,21.0445949733281,0 73.79720364357759,21.04444458168056,0 73.79696316258735,21.04429418905037,0 73.7967228702225,21.04406888008582,0 73.79664333826626,21.04376902684072,0 73.79664409522715,21.04346936025342,0 73.79664504055211,21.04309477731484,0 73.79648541382504,21.04271981666298,0 73.79640606824677,21.0423450434389,0 73.79656720859455,21.04212066769581,0 73.79672853610181,21.04182137544717,0 73.79696995862398,21.04159718764317,0 73.79721156716154,21.04129808215865,0 73.79737288970797,21.04099878929342,0 73.79753420712061,21.04069949506973,0 73.7976955267205,21.04040020159469,0 73.79793712760288,21.04010109502691,0 73.79809844397441,21.03980179985119,0 73.79833985427578,21.03957761171223,0 73.79850116400218,21.03927831591925,0 73.79866247596944,21.03897901973387,0 73.79890406747781,21.03867991249223,0 73.79906537632803,21.03838061547926,0 73.7992266837892,21.03808131906475,0 73.79946826979358,21.0377822094564,0 73.79970966848072,21.03755801812274,0 73.79987096776587,21.03725872041255,0 73.80019246081827,21.03710963542495,0 73.80043403921741,21.03681052403548,0 73.8007555244311,21.03666143808917,0 73.80099691446183,21.03643724477729,0 73.80131857992467,21.03621324089555,0 73.80164006258677,21.03606415334609,0 73.80196153950912,21.03591506516559,0 73.80228301802697,21.03576597636231,0 73.80260449084328,21.03561688691034,0 73.80284587023739,21.03539269083505,0 73.8031673393068,21.03524360024978,0 73.80348899318196,21.03501958989926,0 73.80373036748776,21.03479539435793,0 73.8038916460976,21.0344960902755,0 73.80405274452497,21.03427170503333,0 73.80429429744285,21.03397258620658,0 73.80445557608299,21.03367328009128,0 73.80469694364301,21.03344907967693,0 73.8050185816127,21.03322506707125,0 73.80526012969813,21.0329259451868,0 73.80550149255536,21.03270174277298,0 73.80582312662797,21.03247772570861,0 73.80606430499518,21.03232844244581,0 73.80630566356743,21.03210423813952,0 73.80654720194036,21.03180511452675,0 73.80670846735192,21.03150580221169,0 73.8068695508515,21.03128141017448,0 73.80703081613231,21.03098209623184,0 73.80727216862441,21.03075788842125,0 73.8075936096632,21.03060878681963,0 73.80783513976886,21.03030965794811,0 73.80807648816132,21.03008544781988,0 73.80823774596368,21.0297861298012,0 73.80839882467262,21.02956173312752,0 73.80864034963834,21.02926259823295,0 73.80864106862566,21.0289629094866,0 73.80880232288823,21.0286635875199,0 73.80896357620021,21.02836426445519,0 73.80912483040007,21.02806494027891,0 73.80920581373763,21.02776543002591,0 73.80936706628223,21.02746610570458,0 73.80960858378678,21.02716696297741,0 73.80984992111999,21.02694274362294,0 73.81017063068687,21.0270933309126,0 73.81041089340457,21.02731865643263,0 73.81065115542421,21.02754398021173,0 73.81097186218,21.0276945602695,0 73.81129256601673,21.02784514070825,0 73.81145238255398,21.02814519932327,0 73.8116123758158,21.02837033347987,0 73.81169192554587,21.02867020603427,0 73.81177147492483,21.02897007710607,0 73.81209199698552,21.02919556991393,0 73.81233225435699,21.02942088066954,0 73.81257251113878,21.02964618979125,0 73.81273232461925,21.02994623653712,0 73.81297258039523,21.03017154239353,0 73.81321283561859,21.03039684665351,0 73.81353353445974,21.03054740807647,0 73.81377378848569,21.03077270920936,0 73.8140944857752,21.0309232696018,0 73.81433473866127,21.03114856765089,0 73.81465561199495,21.03122420597825,0 73.81489568444475,21.03152441994882,0 73.81513593578997,21.03174971344121,0 73.81537618851824,21.03197500543355,0 73.81561643899003,21.03220029382202,0 73.81585668903682,21.03242558283814,0 73.81617737942136,21.03257613120767,0 73.8164980708997,21.03272667807143,0 73.81673831953684,21.03295196275277,0 73.81697856780819,21.0331772459995,0 73.81721881572656,21.03340252782369,0 73.8173788026462,21.03362762910027,0 73.81745834562508,21.03392747056787,0 73.81753789023399,21.03422731085412,0 73.81769769720017,21.03452732662707,0 73.81769697887185,21.03482698793092,0 73.81785678368442,21.03512699904903,0 73.81793650725774,21.03535191990342,0 73.81801604918294,21.03565175460823,0 73.81801533010216,21.03595141216165,0 73.81801461073923,21.03625106881912,0 73.81777310413143,21.03655019437438,0 73.81761167934572,21.03692441093575,0 73.81745061215204,21.0371487993333,0 73.81720910217861,21.03744792433887,0 73.81696777140048,21.03767213414099,0 73.8167264395512,21.03789634435746,0 73.81648510662035,21.03812055394647,0 73.81624377259762,21.03834476186618,0 73.81608270227252,21.03856914707,0 73.81584118514688,21.0388682677075,0 73.81567993007383,21.03916756344266,0 73.81567920489198,21.03946721338608,0 73.81575874481744,21.039767038301,0 73.81591854813483,21.04006703992662,0 73.81615879804247,21.04029230492079,0 73.81647931285559,21.04051774378108,0 73.81679982718823,21.040743182056,0 73.81712052232865,21.04089370748125,0 73.81728032503705,21.04119370305049,0 73.81744012765112,21.04149369644167,0 73.81751948583879,21.04186842535747,0 73.81767929009764,21.04216841653925,0 73.81783927384313,21.04239349740669,0 73.81799889475678,21.04276839676156,0 73.81807825246236,21.04314312131049,0 73.818077344882,21.04351766936443,0 73.81823732856482,21.0437427469995,0 73.8183168673749,21.04404255930937,0 73.81847685104809,21.04426763454801,0 73.81887781132815,21.04441832230178,0 73.81903761346847,21.04471830601999,0 73.81919741745132,21.04501828777134,0 73.81935721962361,21.04531826967317,0 73.81943675860249,21.04561807758628,0 73.81951629569193,21.04591788383744,0 73.81967609975419,21.04621786292914,0 73.8196751917112,21.0465924038983,0 73.81983499399497,21.04689238204415,0 73.81983426727281,21.04719201377797,0 73.82015478225121,21.04741742704001,0 73.82031458477122,21.0477174024462,0 73.82047456991569,21.04794246995842,0 73.820634373548,21.04824244400388,0 73.82087462345878,21.04846768164242,0 73.82103442736984,21.04876765423948,0 73.82111396582498,21.0490674551738,0 73.82127376996304,21.04936742656983,0 73.82127286203259,21.04974196186417,0 73.8214326663842,21.05004193217842,0 73.82143175815774,21.05041646667999,0 73.82159156274894,21.05071643599096,0 73.82159065424058,21.05109096979121,0 73.82167037445137,21.05131586084778,0 73.82174991295909,21.05161565817129,0 73.82182945241118,21.05191545546337,0 73.82190899098411,21.05221525220837,0 73.82190808181552,21.05258978480558,0 73.82198762125472,21.05288958121843,0 73.82198689360256,21.05318920705743,0 73.82198616572984,21.0534888328178,0 73.82198525557892,21.05386336483059,0 73.82190425952248,21.05416282025041,0 73.82182326380006,21.05446227563683,0 73.82174226657853,21.05476173110804,0 73.82182180531272,21.05506152693931,0 73.82182107573406,21.05536115259872,0 73.82182016344665,21.05573568468427,0 73.82181925081005,21.0561102168686,0 73.82181852044934,21.05640984270848,0 73.82181778986511,21.05670946862249,0 73.82181705905764,21.05700909449311,0 73.8218161452336,21.05738362710898,0 73.82189568269042,21.05768342314865,0 73.82197522114662,21.05798321892504,0 73.82205475877676,21.05828301471281,0 73.82221456654607,21.0585829801605,0 73.82221383523185,21.05888260665406,0 73.82221292078296,21.05925714017349,0 73.8222120059942,21.05963167401967,0 73.82221109086558,21.06000620822034,0 73.82221017539698,21.06038074280326,0 73.82236998347278,21.06068070859979,0 73.82252997587726,21.06090576773578,0 73.82277005604314,21.06120590211974,0 73.8229300491498,21.06143096045207,0 73.82317013032139,21.06173109441961,0 73.82341039480154,21.06195632139734,0 73.82357020639277,21.06225628666827,0 73.82381047180593,21.06248151270939,0 73.82397028434768,21.06278147792718,0 73.82421055073735,21.0630067041392,0 73.82437036427139,21.0633066693652,0 73.82412918500539,21.06345598114423,0 73.82372782635805,21.06345514155997,0 73.82340673843851,21.0634544693649,0 73.8230860171081,21.06330398117489,0 73.82268465659227,21.0633031395705,0 73.82244420700017,21.06315281863748,0 73.82204284542335,21.06315197573276,0 73.82188303553033,21.06285200760151,0 73.82164277032123,21.06262677836873,0 73.82140250548797,21.06240154831395,0 73.82116224101514,21.06217631847887,0 73.82076087926913,21.06217547232972,0 73.82044015771221,21.06202497928411,0 73.82011906773239,21.06202430121415,0 73.81979797610033,21.06202362265103,0 73.81947669864577,21.06209785154688,0 73.81915560712905,21.06209717206515,0 73.8188341420404,21.06224630829733,0 73.81851286102825,21.06232053615552,0 73.81819139287204,21.06246967145584,0 73.81787011102421,21.06254389873224,0 73.81754882609613,21.06261812567521,0 73.81722753990059,21.06269235229237,0 73.8169060656251,21.06284148674962,0 73.81666467873302,21.06306570112768,0 73.81634320286081,21.06321483558481,0 73.81610181088395,21.06343905033997,0 73.81594069624383,21.06366343565463,0 73.81593975793665,21.06403798086924,0 73.81593900693187,21.06433761837339,0 73.81577770187531,21.06463691518925,0 73.81561639362286,21.06493621159194,0 73.81553555255184,21.06516077040244,0 73.81537424204021,21.06546006901967,0 73.81521312059154,21.06568445712299,0 73.81505161865495,21.06605866730002,0 73.81537254516196,21.06613425933768,0 73.81569365953987,21.06613494059013,0 73.81585478032679,21.06591055063531,0 73.8160963664625,21.06561142141307,0 73.81625767441894,21.06531212368963,0 73.81641897918136,21.06501282558057,0 73.81666037242995,21.06478860784216,0 73.81698185383847,21.06463947099616,0 73.81722286975686,21.06456507214667,0 73.81754434819364,21.06441593407508,0 73.81794572611214,21.06441678386485,0 73.81826682859715,21.06441746318868,0 73.81850709581005,21.06464269926544,0 73.81850616438179,21.06501724359984,0 73.8185054189258,21.06531688045187,0 73.81842439652928,21.06561634729526,0 73.81826309823794,21.06591564636442,0 73.8181017986244,21.06621494610689,0 73.8181010510103,21.06651458429624,0 73.81802002534569,21.06681405476397,0 73.81785872266785,21.06711335553754,0 73.81769760421645,21.06733774772824,0 73.81745620790213,21.06756197100812,0 73.81729490117287,21.06786127370011,0 73.81697341039704,21.06801041776497,0 73.81665172946708,21.06823447287977,0 73.81633061371642,21.06823379488225,0 73.8160094952196,21.06823311648744,0 73.81568837579051,21.06823243769915,0 73.81528716579182,21.06815667733977,0 73.8149660444279,21.06815599759062,0 73.81464492208219,21.0681553174467,0 73.81432360883375,21.06822954846135,0 73.81400229594325,21.06830377928269,0 73.81376087924362,21.06852800282332,0 73.81400115461243,21.06875324910738,0 73.81408086406974,21.06897815514966,0 73.81370323784115,21.0697729147992,0 73.81364345914295,21.07004161884256,0 73.81364117733034,21.07031050333808,0 73.81375483671142,21.07047210812424,0 73.81409947715667,21.07052663729984,0 73.81438617501998,21.07063484070083,0 73.81449989637065,21.07079648555577,0 73.81449770558513,21.07106552968804,0 73.81455348568099,21.0712809294239,0 73.81455173703274,21.0714962425215,0 73.81443490149248,21.07171134659961,0 73.81420384123616,21.07181854395949,0 73.81397320903335,21.07187189978257,0 73.8137421114552,21.07197911066747,0 73.8135114532589,21.07203247346339,0 73.81328125076779,21.0720319812015,0 73.81305104643597,21.07203148872058,0 73.81287697223743,21.07219269786626,0 73.81281751692238,21.07240804431191,0 73.81281561641717,21.07262355144136,0 73.8127561451018,21.07283897149431,0 73.81269666457753,21.0730544291469,0 73.81263717222265,21.07326992365291,0 73.81252008526594,21.0734853312325,0 73.81251815725498,21.07370102254726,0 73.81240103787651,21.0739165039634,0 73.81239909884002,21.07413226907151,0 73.81233955512837,21.07434794812162,0 73.81227999956238,21.07456366337031,0 73.81227804895855,21.07477953926322,0 73.81216085675725,21.07499520557732,0 73.81215889509777,21.07521115543409,0 73.81221456346712,21.07542726432375,0 73.81221260574415,21.07564328811182,0 73.81232592850262,21.07585959437817,0 73.812381623878,21.07607581405535,0 73.81243733000851,21.07629207146023,0 73.812550699653,21.07650848767288,0 73.81260642966876,21.07672481901689,0 73.81277749836808,21.07694143235114,0 73.81283278061987,21.07721191341286,0 73.81294622523717,21.07742848743261,0 73.813059689272,21.07764509767391,0 73.81311501690415,21.07791573006035,0 73.81311219140838,21.07824041807746,0 73.81311030710276,21.07845692377424,0 73.81293578295595,21.07861896091393,0 73.81270400781165,21.07872675292173,0 73.81252943725822,21.07888882355896,0 73.81235533127787,21.07899676112123,0 73.81223794471114,21.07921315320128,0 73.8120628139845,21.07942946046772,0 73.81188765221904,21.07964580517039,0 73.8118279253482,21.0798624316868,0 73.81171045047455,21.08007897193503,0 73.81165069723221,21.08029567330087,0 73.81153318577952,21.08051229000657,0 73.81135840839872,21.08067459400295,0 73.8111263690036,21.08078256420549,0 73.81089430738727,21.08089054378782,0 73.81071946131271,21.08105289561955,0 73.81054406360934,21.08126952178726,0 73.81036969904424,21.08137766583489,0 73.81007977385572,21.08148557508374,0 73.80990483034522,21.0816480061189,0 73.80973040970846,21.08175618315272,0 73.8094976402549,21.08191852744508,0 73.80926539739276,21.08202660597092,0 73.80909036017633,21.08218910624708,0 73.80897421781594,21.08224315613941,0 73.8089898512919,21.08162852521279,0 
					</coordinates>
				</LinearRing>
			</outerBoundaryIs>
		</Polygon>
		<atom:link rel="app" href="https://www.google.com/earth/about/versions/#earth-pro" title="Google Earth Pro 7.3.7.1094"></atom:link>
	</Placemark>
</Document>
</kml>
