<?xml version="1.0" encoding="UTF-8"?>
<kml xmlns="http://www.opengis.net/kml/2.2" xmlns:gx="http://www.google.com/kml/ext/2.2" xmlns:kml="http://www.opengis.net/kml/2.2" xmlns:atom="http://www.w3.org/2005/Atom">
<Document>
	<name>Valheri</name>
	<atom:link rel="app" href="https://www.google.com/earth/about/versions/#earth-pro" title="Google Earth Pro 7.3.7.1094"></atom:link>
	<StyleMap id="m_ylw-pushpin">
		<Pair>
			<key>normal</key>
			<styleUrl>#s_ylw-pushpin</styleUrl>
		</Pair>
		<Pair>
			<key>highlight</key>
			<styleUrl>#s_ylw-pushpin_hl</styleUrl>
		</Pair>
	</StyleMap>
	<Style id="s_ylw-pushpin">
		<IconStyle>
			<scale>1.1</scale>
			<Icon>
				<href>http://maps.google.com/mapfiles/kml/pushpin/ylw-pushpin.png</href>
			</Icon>
			<hotSpot x="20" y="2" xunits="pixels" yunits="pixels"/>
		</IconStyle>
		<LineStyle>
			<color>ff0000aa</color>
			<width>5</width>
		</LineStyle>
		<PolyStyle>
			<fill>0</fill>
		</PolyStyle>
	</Style>
	<Style id="s_ylw-pushpin_hl">
		<IconStyle>
			<scale>1.3</scale>
			<Icon>
				<href>http://maps.google.com/mapfiles/kml/pushpin/ylw-pushpin.png</href>
			</Icon>
			<hotSpot x="20" y="2" xunits="pixels" yunits="pixels"/>
		</IconStyle>
		<LineStyle>
			<color>ff0000aa</color>
			<width>5</width>
		</LineStyle>
		<PolyStyle>
			<fill>0</fill>
		</PolyStyle>
	</Style>
	<Placemark id="0B6EB493B81F81F47B69">
		<styleUrl>#m_ylw-pushpin</styleUrl>
		<Polygon>
			<outerBoundaryIs>
				<LinearRing>
					<coordinates>
						74.1269949,21.6319218,185.6 74.1270403,21.6320035,185.8 74.1270762,21.6320381,185.5 74.12711400000001,21.6321051,185.3 74.12713410000001,21.6321464,185.3 74.1271763,21.6322208,185.2 74.1272742,21.6323329,185.2 74.1273444,21.632394,185.3 74.1273386,21.632427,185.4 74.1273405,21.6324519,185.7 74.1273434,21.6324782,185.7 74.1273513,21.6324981,186.1 74.12735379999999,21.6325175,187.1 74.1273707,21.6325388,188.2 74.12739759999999,21.6325513,189.2 74.12741200000001,21.6325688,190.4 74.12742419999999,21.6325856,191.1 74.12744309999999,21.6326059,191.8 74.1274636,21.6326248,192.6 74.12747659999999,21.6326422,193.4 74.1274861,21.6326616,194.1 74.1275074,21.6326887,193.7 74.127533,21.6327164,193.9 74.12754630000001,21.632746,193.6 74.12757139999999,21.6327715,194 74.12759819999999,21.6327852,194.2 74.1276225,21.6327981,194.1 74.1276428,21.6328107,193.4 74.1276731,21.6328403,192.6 74.12768680000001,21.6328615,192.6 74.12770449999999,21.6328895,193.2 74.12772990000001,21.6329097,193.5 74.1277497,21.632924,193.8 74.1277688,21.6329431,193.5 74.1277872,21.632963,193.6 74.1278063,21.632986,193.6 74.1278267,21.6330147,193.9 74.12784449999999,21.6330484,194 74.12786490000001,21.6330769,194.3 74.12788689999999,21.6331035,194.3 74.1279079,21.633121,194.5 74.1279387,21.6331428,194.6 74.1279581,21.633162,195.3 74.1279837,21.6331802,196.1 74.1280082,21.633197,196.2 74.1280501,21.6332078,196.2 74.12808080000001,21.6332179,196.2 74.1281096,21.6332365,196.3 74.128137,21.6332585,196 74.12815740000001,21.633278,196.7 74.1281738,21.6332978,197.6 74.12819709999999,21.6333053,198 74.1282248,21.6333203,198.2 74.1282485,21.6333314,198.2 74.128269,21.6333496,198.4 74.1282887,21.6333805,198.4 74.1283136,21.6334128,198.7 74.1283449,21.6334149,199.4 74.12837260000001,21.6334073,199.9 74.12839750000001,21.6334087,199.9 74.1284196,21.6334345,200.3 74.1284307,21.633471,199.9 74.1284332,21.6334962,198.3 74.1284289,21.633523,197.3 74.1284405,21.6335657,196.4999999999999 74.1284524,21.6335912,196.1 74.12846260000001,21.6336187,196.4999999999999 74.12847050000001,21.6336398,197.2 74.128502,21.6336513,197.4 74.1285194,21.6336752,197.4999999999999 74.12853699999999,21.6337084,198.4 74.1285525,21.6337256,199.3 74.1285697,21.6337394,199.8 74.12859570000001,21.6337459,200.3 74.12862370000001,21.6337547,200.6 74.12863969999999,21.6337657,201 74.1286599,21.6337671,201.8 74.12869379999999,21.6337736,204.4999999999999 74.1287327,21.6337679,206.4 74.12876129999999,21.6337564,207.3 74.1288069,21.6337641,207.6 74.12884149999999,21.6337792,207.9 74.128862,21.6337884,208.4 74.1288835,21.6337958,208.7 74.1289113,21.633802,208.8 74.12894439999999,21.6338102,208.8 74.1289791,21.6338211,209.1 74.1290056,21.6338321,208.9 74.12903180000001,21.6338458,208.9 74.1290697,21.6338566,208.1 74.12910530000001,21.6338706,207 74.1291236,21.6338779,206.7 74.1291566,21.6339128,206 74.12918089999999,21.6339448,206.1 74.1292088,21.6339789,205.9 74.12923170000001,21.6340023,204.9 74.129248,21.6340136,205 74.1292682,21.6340251,205.6 74.1292964,21.6340409,206.4999999999999 74.12931570000001,21.634054,207.2 74.1293354,21.6340689,207.3 74.12934610000001,21.6340921,207.8 74.12936089999999,21.6341203,207.8 74.1293806,21.6341497,207.2 74.12940500000001,21.6341712,207.2 74.12942200000001,21.6341866,207.3 74.12943730000001,21.6342076,207.2 74.12945809999999,21.6342286,206.8 74.129479,21.6342621,206.2 74.12949039999999,21.6342821,206 74.12949999999999,21.6342998,205.7 74.1295164,21.6343232,205.4999999999999 74.12952629999999,21.6343467,205.3 74.1295277,21.6343717,204.7 74.1295223,21.6343951,203.8 74.1295248,21.6344211,203.1 74.12952249999999,21.634446,202.1 74.1295341,21.6344606,201.4999999999999 74.129549,21.6344781,200.8 74.12957400000001,21.6344953,200.1 74.1295992,21.6345118,199.4 74.1296273,21.6345306,198.8 74.1296388,21.6345477,198.1 74.1296493,21.6345658,197.8 74.1296534,21.6345869,197.1 74.12966969999999,21.6346072,196.4 74.1296876,21.6346379,195.7 74.1296962,21.6346649,194.4 74.1296942,21.6346916,193.5 74.129698,21.6347152,193 74.1297012,21.6347395,193 74.12970129999999,21.6347688,192.7 74.12970780000001,21.6347969,192.4 74.12971810000001,21.6348207,192 74.1297309,21.6348444,191.3 74.1297375,21.6348615,190.1 74.12974680000001,21.6348862,189.2 74.1297534,21.6349136,188.5 74.1297687,21.6349423,187.8 74.1297817,21.6349695,187.6 74.1297983,21.6349885,187.3 74.12981720000001,21.6350204,187.6 74.12982700000001,21.6350577,187.7 74.12983180000001,21.6350753,187.8 74.1298546,21.6351181,188.2 74.1298663,21.6351395,188.3 74.12986739999999,21.6351634,188.7 74.12985759999999,21.6351905,188.9 74.1298512,21.6352201,189.1 74.1298487,21.6352493,189.5 74.12985689999999,21.6352699,190 74.1298792,21.6352954,190.4 74.12989810000001,21.6353187,191.4 74.12991390000001,21.6353435,192.2 74.12992250000001,21.6353719,192.7 74.12993109999999,21.6354066,192.8 74.1299344,21.6354354,193.4 74.1299257,21.6354611,194.2 74.1299229,21.6354862,194.1 74.1299223,21.6355059,194.4 74.12992199999999,21.6355261,194.8 74.1299315,21.6355555,195.4 74.1299353,21.6355852,196.2 74.1299319,21.6356059,197 74.129941,21.6356288,197.9 74.12996680000001,21.6356722,198.2 74.1299625,21.6356922,198 74.1299641,21.6357299,198 74.1299643,21.6357691,198 74.1299715,21.6358137,198.1 74.1299739,21.6358518,198.1 74.1299497,21.6358655,198.1 74.1299492,21.6358873,198.1 74.1299648,21.6359238,198.2 74.129974,21.6359678,198.4 74.12998260000001,21.6360017,197.9 74.12998279999999,21.6360237,197.4999999999999 74.1299965,21.636055,197.4 74.130009,21.6360816,197.4999999999999 74.1300217,21.6360992,197.4999999999999 74.1300324,21.6361244,197.4999999999999 74.1300483,21.6361742,197.7 74.1300636,21.6362067,197.6 74.1300749,21.6362306,197.9 74.1300835,21.6362508,198 74.1300986,21.6362837,198 74.1301158,21.6363024,197.6 74.1301263,21.6363268,197.1 74.13015129999999,21.6363542,196.4 74.1301735,21.6363616,196.3 74.13020419999999,21.6363701,195.6 74.13023509999999,21.636379,194.8 74.1302685,21.6363814,194 74.1302889,21.636398,193.4 74.1303166,21.636424,193.3 74.1303419,21.6364438,193.3 74.1303575,21.6364692,193.3 74.13036320000001,21.6364934,193.5 74.1303728,21.6365139,193.6 74.130364,21.6365386,194.3 74.1303435,21.6365636,194.5 74.13033470000001,21.6365872,194.6 74.1303267,21.6366072,195.3 74.13036080000001,21.6366307,197.4 74.1303836,21.6366447,197.8 74.13039980000001,21.6366588,199.1 74.13042040000001,21.6366765,200.4 74.130444,21.6366992,201.1 74.1304598,21.6367155,201 74.130483,21.6367239,202.1 74.1305031,21.6367232,202.3 74.13052570000001,21.6367246,202.4 74.1305605,21.6367238,202.4999999999999 74.13059819999999,21.6367248,202.6 74.1306271,21.636728,202.8 74.1306489,21.6367387,203.3 74.130669,21.6367568,203.9 74.13068269999999,21.6367763,204.4999999999999 74.13070089999999,21.6367846,204.4999999999999 74.1307197,21.6367981,204.6 74.13073319999999,21.6368125,204.9 74.1307584,21.6368293,205.4 74.1307752,21.6368489,205.7 74.1307777,21.6368686,205.4999999999999 74.1307922,21.6368929,205.3 74.130815,21.6369148,205.2 74.1308288,21.6369307,205.3 74.1308525,21.6369534,205.6 74.1308734,21.6369666,205.8 74.1308937,21.636984,206.1 74.13091350000001,21.6370054,206.4999999999999 74.130928,21.6370218,207.2 74.1309491,21.6370324,207.4999999999999 74.1309705,21.6370443,207.7 74.1309905,21.6370637,208 74.1310153,21.6370828,208.4999999999999 74.1310593,21.6370967,209.1 74.13108440000001,21.6371072,209.6 74.1311042,21.6371139,209.9 74.13113269999999,21.6371219,210.4999999999999 74.13117,21.6371204,210.7 74.13119210000001,21.6371128,211 74.1312109,21.6371069,211.1 74.1312399,21.6371045,211.4 74.1312605,21.6371046,211.4999999999999 74.13128210000001,21.6371089,212.3 74.1313273,21.637096,212.8 74.1313746,21.6370958,213.1 74.13140129999999,21.6370986,213.5 74.1314228,21.6371176,214.6 74.13145040000001,21.63712,215.3 74.13147720000001,21.6371406,215.9 74.13150899999999,21.6371515,215.9 74.1315378,21.6371685,215.6 74.1315647,21.6371845,215.1 74.1315816,21.6371995,214.2 74.1316003,21.63722,213.5 74.13161460000001,21.6372377,212.7 74.13162730000001,21.6372546,212.4 74.13164159999999,21.6372846,212.6 74.1316516,21.6373023,212.9 74.1316703,21.6373122,213.5 74.1316921,21.6373237,214.1 74.1317138,21.6373348,214.4 74.1317396,21.6373536,214.9 74.131764,21.6373662,214.8 74.13178689999999,21.6373793,215 74.1318084,21.6373994,214.9 74.1318131,21.637419,214.7 74.13181899999999,21.6374416,214.8 74.13183359999999,21.6374639,214.6 74.1318435,21.6374863,214.8 74.1318631,21.6375095,215.8 74.131865,21.6375287,217.5 74.1318866,21.6375576,218.3 74.13187689999999,21.6375816,219.9 74.1318972,21.6375941,222.8 74.1318919,21.6376209,223.1 74.13191190000001,21.6376244,223.6 74.13192309999999,21.6376416,224 74.13195039999999,21.6376545,225 74.1319665,21.6376648,225.3 74.1319977,21.6376814,226 74.132013,21.6377033,226.6 74.1320255,21.6377312,225.7 74.1320437,21.6377428,225.7 74.1320628,21.6377584,225.7 74.13207850000001,21.637771,226 74.1320929,21.6377831,226.1 74.132121,21.6378041,227 74.13213380000001,21.6378192,227.1 74.13215340000001,21.6378456,227 74.1321794,21.637868,227.4 74.13220130000001,21.6378758,227.6 74.1322333,21.6378856,229.2 74.132266,21.6378979,230.7 74.13228220000001,21.6379131,231.6 74.1323062,21.6379306,232.6 74.1323196,21.6379449,234 74.13233580000001,21.6379602,234.7 74.1323565,21.6379614,235.7 74.132396,21.6379635,237 74.1324228,21.6379734,237.8 74.1324505,21.6379773,238.6 74.13247079999999,21.6379788,238.6 74.13248969999999,21.6379861,238.5 74.1325185,21.638001,238.1 74.1325374,21.6380163,237.9 74.13255359999999,21.6380273,237.3 74.132578,21.6380364,237.2 74.1326097,21.6380472,237.6 74.13263310000001,21.638055,238.1 74.13266609999999,21.6380786,239.3 74.1326823,21.6380898,239.3 74.13270009999999,21.6380992,239.4 74.1327306,21.6381077,239.3 74.1327529,21.6381278,238.9999999999999 74.13277410000001,21.6381485,238.6 74.1327972,21.638168,238.8 74.1328158,21.6381792,239.1 74.132848,21.6381932,239.9999999999999 74.1328675,21.6382074,240.5 74.1328931,21.6382262,240.3 74.1329198,21.6382468,239.7 74.13294089999999,21.6382542,239.2 74.1329606,21.6382599,239.2 74.1329854,21.6382682,239.1 74.1330138,21.6382825,239.2 74.13303500000001,21.6382881,238.4 74.1330797,21.6382981,238 74.1331103,21.638306,237.9 74.1331289,21.6383154,238 74.1331558,21.6383454,238.7 74.1331684,21.6383597,238.9 74.133184,21.6383747,239.2 74.1332199,21.638392,239.3 74.13325,21.6383911,238.8 74.1332709,21.6383921,238.8 74.1332883,21.6384091,238.3 74.1333003,21.6384258,238.7 74.1333168,21.6384366,239.1 74.1333315,21.6384511,238.8 74.1333556,21.6384667,237.8 74.13339139999999,21.6384927,237.3 74.13341560000001,21.6385035,237.1 74.1334391,21.6385089,236.7 74.13346780000001,21.6385144,237.1 74.13348879999999,21.638522,237 74.1335097,21.6385329,237.2 74.1335328,21.6385414,237.2 74.1335569,21.6385493,236.7 74.1335797,21.6385588,236.3 74.13360369999999,21.638565,236.7 74.133624,21.6385633,237.5 74.1336498,21.6385551,238 74.13368130000001,21.6385524,238.3 74.1337099,21.6385606,238.4 74.1337274,21.638572,238.4 74.1337453,21.6385796,238 74.13376529999999,21.6385843,238.2 74.1337875,21.6385815,238.2 74.1338245,21.6385731,238.1 74.13385030000001,21.6385737,238.4 74.133866,21.6385876,239.9 74.1338836,21.6385989,240.8 74.1339048,21.6386111,241.5 74.1339342,21.6386195,242.6 74.1339626,21.638633,243.8 74.1339978,21.6386474,244.7 74.13402170000001,21.6386548,245.2 74.134033,21.6386732,245.9999999999999 74.134046,21.6386887,246.9999999999999 74.1340738,21.6387169,248.8 74.13409230000001,21.6387249,249.6 74.1341157,21.6387277,250.4 74.13413610000001,21.6387262,251.4 74.1341585,21.6387232,251.8 74.1341802,21.6387222,252.3 74.13420379999999,21.6387363,253.2 74.13422679999999,21.6387623,253.9 74.1342506,21.6387753,254.2 74.1342763,21.6387898,254.3 74.134292,21.6388014,254.5 74.13429259999999,21.6388204,255.4 74.1342898,21.6388512,256.3 74.13431249999999,21.6388648,256.3 74.134317,21.6388897,257.2 74.13433430000001,21.6389187,257.7 74.1343511,21.6389324,258 74.1343689,21.6389476,258.4 74.13438619999999,21.6389616,259.1 74.1344051,21.6389674,259.5 74.1344234,21.6389828,260.4 74.1344357,21.6390037,261.8 74.13443650000001,21.6390263,262.7 74.1344323,21.6390514,263.1 74.1344314,21.639072,263.5 74.1344388,21.6390964,264.1 74.1344533,21.6391163,264.9 74.1344567,21.6391365,265.4 74.1344544,21.6391545,265.5 74.1344789,21.6391865,266.5 74.1344904,21.6392014,267.1 74.1345091,21.6392178,267.5 74.13452839999999,21.6392379,268.5 74.1345446,21.639264,268.4 74.13455860000001,21.6392785,268.1 74.13457870000001,21.6392931,268.3 74.1345926,21.6393101,268.6 74.1346073,21.6393307,268.6 74.13462149999999,21.6393598,268.9 74.1346283,21.6393785,269 74.134631,21.639399,269.3 74.1346363,21.639421,269.3 74.134655,21.6394598,269.9 74.1346669,21.6394815,270.3 74.1346741,21.6395001,270.8 74.1346887,21.6395222,271.1 74.1347043,21.6395342,271.6 74.13472040000001,21.6395475,271.9 74.13474100000001,21.639562,271.8 74.1347592,21.6395812,271.9 74.1347808,21.6395989,272 74.1348048,21.639622,272.4 74.1348265,21.6396495,272.4 74.1348366,21.6396675,272.2 74.13485439999999,21.6396851,273 74.1348697,21.6396978,273.6 74.1348902,21.6397048,274.2 74.13490969999999,21.6397126,275.5 74.1349293,21.639722,276.2 74.1349495,21.6397267,277.2 74.13497030000001,21.6397449,277.8 74.1349883,21.6397529,278.2 74.1350261,21.6397551,279.6 74.135054,21.6397552,279.8 74.13507679999999,21.6397597,279.8 74.1351075,21.6397614,279.8 74.13514429999999,21.6397636,281.6 74.1351696,21.6397623,281.7 74.13520440000001,21.6397619,282.6 74.13523910000001,21.6397654,282.8 74.13526040000001,21.639767,282.9 74.1352845,21.639765,283.3 74.1353127,21.6397685,283.8 74.1353362,21.6397685,284.5 74.13536070000001,21.6397719,284.9 74.13537359999999,21.6397872,285.7 74.13539350000001,21.6398078,285.9 74.13541600000001,21.6398242,286.4 74.13544090000001,21.6398391,286.5 74.13546100000001,21.6398528,287.3 74.13547699999999,21.6398638,287.7 74.1354887,21.6398839,288.4 74.13550960000001,21.6399077,287.4 74.13552780000001,21.63992,287.2 74.1355542,21.639925,287.2 74.13557640000001,21.6399234,287.4 74.1356031,21.6399537,287 74.1356306,21.639965,287.5 74.1356696,21.6399646,288.2 74.13569769999999,21.6399837,289.5 74.1357271,21.639986,297.6 74.13574730000001,21.6399947,297.8 74.1357622,21.6400066,298.1 74.1357816,21.6400061,296.9 74.1358006,21.6400124,297.3 74.1358185,21.6400356,297.4 74.1358309,21.6400521,298.2 74.1358376,21.6400722,298.8 74.13584950000001,21.6400913,299.4 74.1358661,21.640102,300.2 74.1358915,21.6401188,300.8 74.1359075,21.6401344,301 74.135924,21.640149,301.1 74.13593969999999,21.6401648,301.4 74.1359716,21.6401744,302.7 74.1360047,21.640194,303.6 74.13602899999999,21.6402056,304.4 74.1360648,21.6402175,304.9 74.1360894,21.6402282,306.5 74.1361177,21.6402278,308.2 74.1361374,21.640228,308.6 74.1361631,21.6402332,309.5 74.13615849999999,21.6402608,310.7 74.1361771,21.640269,311.4 74.1362041,21.6402635,311.9 74.1362336,21.6402586,312.8 74.136256,21.6402451,313.5 74.13628660000001,21.640248,313.4 74.1363016,21.6402647,313.8 74.1363176,21.6402795,313.9 74.1363415,21.6402874,314.2 74.1363678,21.6402904,314.6 74.13640100000001,21.6402972,315.2 74.1364397,21.6402958,315.7 74.1364622,21.6402962,316 74.1364825,21.640292,316.6 74.13651299999999,21.6402798,318 74.1365461,21.6402691,319.4 74.13656760000001,21.6402618,320.7 74.136599,21.6402509,322.8 74.1366197,21.640236,324.9 74.1366519,21.6402413,326.3 74.1366711,21.6402388,326.9 74.13669109999999,21.6402386,327.1 74.1367205,21.6402369,327.9 74.136745,21.640241,328.7 74.13677370000001,21.6402448,328.9 74.1368013,21.6402514,328.9 74.1368365,21.6402596,330.4 74.136871,21.6402655,331.6 74.13689359999999,21.640271,332 74.13691900000001,21.6402766,333.4 74.13694529999999,21.640276,334.9 74.1369662,21.6402741,335.7 74.1369866,21.6402664,336.5 74.1370096,21.640269,337.3 74.13703390000001,21.6402671,338.3 74.13706209999999,21.6402651,339.2 74.1370922,21.6402579,340 74.13711910000001,21.6402597,340.6999999999999 74.1371473,21.6402511,341.8 74.13716719999999,21.6402536,342.1 74.1371872,21.6402588,342.5 74.13721219999999,21.6402691,343.2 74.1372381,21.640255,344.6 74.1372573,21.640248,345.5 74.13729429999999,21.6402395,346.1 74.1373246,21.6402377,346.6 74.1373608,21.6402508,346.9 74.137379,21.6402576,346.9 74.1374161,21.6402586,348.1 74.1374417,21.640253,349 74.1374793,21.6402493,349.8 74.1375085,21.6402373,350.3 74.1375304,21.6402435,350.7 74.1375513,21.6402501,351.5 74.13757529999999,21.6402602,352.8 74.1375949,21.6402646,352.7 74.1376267,21.6402719,353.6 74.13766080000001,21.6402785,354.6 74.1376818,21.640291,355 74.13771300000001,21.6403017,355.4 74.1377387,21.6403051,355.6 74.1377602,21.6403074,356 74.13778019999999,21.6403065,356.1 74.1378205,21.6403178,356.4 74.13784080000001,21.6403232,356.7 74.1378598,21.6403343,356.8 74.1378832,21.640345,356.9 74.1379101,21.6403469,357.4 74.13793029999999,21.6403514,357.4 74.13795930000001,21.6403592,357.7 74.1379791,21.6403681,357.4 74.138004,21.6403799,357.3 74.1380243,21.6403821,357.6 74.1380439,21.6403878,357.8 74.13806959999999,21.6403985,358 74.13809190000001,21.6404028,357.9 74.1381179,21.6404047,358.2 74.13814259999999,21.6404115,358.3 74.13816420000001,21.6404166,358.3 74.1381911,21.6404122,358.4 74.1382108,21.6404154,358.5 74.13823290000001,21.6404105,358.8 74.1382535,21.6404119,359.6 74.1382929,21.6404013,360.2 74.1383134,21.6403968,360.1 74.1383374,21.6403941,360.7 74.13836449999999,21.6403864,361.2 74.13838490000001,21.640385,362.1 74.1384059,21.6403827,362.5 74.13843129999999,21.6403765,362.8 74.13847199999999,21.6403497,362.8 74.1384917,21.6403399,362.6 74.13851699999999,21.6403279,362.5 74.1385319,21.6403114,363.7 74.1385411,21.6402897,365.4 74.13856269999999,21.640265,366.1 74.13856749999999,21.6402447,366.5 74.1385703,21.6402234,367.5 74.138593,21.6401938,367.9 74.1386146,21.6401701,369.1 74.1386127,21.6401495,369.7 74.1386176,21.6401306,369.5 74.138643,21.6401209,370.2 74.1386717,21.6401232,372.1 74.1387053,21.6401189,372.2 74.13873,21.6401114,372.9 74.1387596,21.6401058,373.6 74.1387793,21.6401009,374.6 74.1387982,21.6400965,375 74.13881929999999,21.6400967,374.9 74.1388457,21.6400922,374.9 74.1388748,21.6400904,375 74.1389108,21.6400901,375.9 74.1389357,21.6400952,376.6 74.1389648,21.64009,378 74.1390018,21.6400864,379.4 74.13902469999999,21.6400831,379.2 74.1390574,21.6400824,379.3 74.1390803,21.6400876,380.3 74.1391102,21.6400878,381.1 74.13913959999999,21.640101,382.3 74.13915969999999,21.6401114,383.3 74.13917240000001,21.6401339,384.6 74.1392075,21.6401315,385.5 74.13923389999999,21.6401325,384.8 74.1392549,21.6401299,384.8 74.1392881,21.6401233,384.6 74.1392938,21.6401038,385.3 74.1393109,21.6400741,386.5 74.13930879999999,21.6400458,387.3 74.1393027,21.6400126,387.8 74.1393039,21.6399901,388.4 74.1393139,21.6399722,388.5 74.1393238,21.6399546,388.6 74.1393274,21.6399264,388.7 74.13933179999999,21.6399034,390.3 74.13935739999999,21.6399111,391.4999999999999 74.1393839,21.6399052,392.4000000000001 74.13938810000001,21.6398861,393 74.1393838,21.6398659,394.0000000000001 74.1394042,21.6398517,395.4999999999999 74.1394365,21.6398582,396.1 74.1394514,21.6398745,396.9 74.139473,21.6398773,398.1 74.1394993,21.6398738,398.8 74.1395101,21.6398554,398.7 74.1395077,21.6398369,399.1 74.13952980000001,21.6398239,400.0000000000001 74.139555,21.6398095,401.8 74.1395739,21.6397975,403.3999999999999 74.1395807,21.6397737,404.5 74.139591,21.6397558,405.7 74.1396182,21.63975,406.4 74.13962890000001,21.6397651,407.3999999999999 74.139651,21.6397371,409.7 74.13967940000001,21.639741,410 74.13971530000001,21.639755,409.3 74.1397381,21.6397728,409.8 74.13976220000001,21.6397788,410.3 74.139791,21.6397768,410.4 74.1398116,21.6397774,410.4 74.1398296,21.6397695,410.4 74.1398576,21.6397721,411.7 74.1398556,21.6397496,416.7 74.1398798,21.6397486,411.3 74.13988000000001,21.6397209,410.6 74.13988860000001,21.6396979,413.6 74.1398988,21.6396771,414.5 74.1398871,21.6396566,416.2 74.1398707,21.6396351,418.5 74.1398544,21.6396178,421.9 74.1398401,21.6395961,425 74.13982540000001,21.6395794,425.4999999999999 74.13983570000001,21.6395551,429.4 74.1398516,21.6395411,430.1 74.1398667,21.6395254,430.8 74.1398906,21.639524,431 74.13991780000001,21.6395244,432 74.1399339,21.6394932,433.7 74.1399423,21.6394668,434.6 74.1399502,21.6394334,434.8999999999999 74.13995439999999,21.6394098,435.8000000000001 74.13997500000001,21.6394246,437.4 74.1399854,21.6394092,438.8 74.1399816,21.6393857,440.4 74.1399869,21.639363,442 74.13999889999999,21.6393311,442.3 74.1399988,21.6393128,442.5 74.14001709999999,21.6392611,442.8999999999999 74.14002139999999,21.6392385,442.8 74.1400139,21.6392204,442.8999999999999 74.1400289,21.6392044,442.8 74.14002910000001,21.6391736,443.1999999999999 74.14001620000001,21.6391499,443.7 74.14001020000001,21.6391083,444.3 74.14000489999999,21.6390906,444.6 74.1399923,21.639051,445.7 74.1399818,21.6390331,446.3 74.1399741,21.639013,446.6 74.1399761,21.6389924,447.3 74.13996950000001,21.6389677,447.7 74.1399722,21.6389334,448.9999999999999 74.1399771,21.638915,449.7 74.1399722,21.6388962,449.8 74.13999370000001,21.6388657,449.8 74.14000950000001,21.638849,450.1 74.1400187,21.6388253,450.5 74.1400196,21.6388071,450.7 74.1400251,21.6387866,450.8000000000001 74.1400342,21.6387692,450.6 74.14004389999999,21.6387506,450.8000000000001 74.140056,21.638735,450.8999999999999 74.14006120000001,21.6386999,451.4 74.14007410000001,21.6386789,452.4 74.14009900000001,21.6386746,452.8999999999999 74.1401061,21.6386484,453.1 74.14010829999999,21.6386274,452.9999999999999 74.1401189,21.6386083,452.8000000000001 74.140146,21.6385899,452.8000000000001 74.14015689999999,21.6385746,452.8000000000001 74.1401621,21.6385569,453.1 74.1401762,21.6385424,453.1999999999999 74.1401876,21.6385096,454.4 74.1401953,21.6384928,454.8999999999999 74.1402013,21.6384729,455.1 74.1402088,21.6384526,454.5 74.14021990000001,21.6384284,455.1999999999999 74.1402126,21.6383914,457.3000000000001 74.1402147,21.6383623,457.7 74.1402277,21.6383396,458.1 74.14023280000001,21.6383147,458.5 74.14023899999999,21.6382944,458.5 74.1402496,21.6382559,458.6 74.1402618,21.6382271,458.4 74.14027230000001,21.6382038,458.6 74.1402768,21.6381833,458.3000000000001 74.1402701,21.638154,456.6 74.1402739,21.6381353,455.8 74.1402951,21.6381126,454.8000000000001 74.1403155,21.6380996,454 74.1403347,21.6380893,453.3000000000001 74.1403566,21.6380688,452.7 74.1403801,21.6380596,452.4 74.1403952,21.6380382,451.9 74.1404009,21.6380208,451.7 74.1404057,21.6380021,452 74.1404204,21.6379737,453.7 74.1404288,21.6379559,455.4 74.1404434,21.6379216,456.2 74.1404417,21.6378997,455.6 74.1404488,21.6378597,455.5000000000001 74.14045470000001,21.637841,456.3000000000001 74.1404659,21.63782,456.8999999999999 74.1404835,21.6378031,456.8999999999999 74.14050810000001,21.6377829,456.9999999999999 74.1405274,21.6377799,456.9999999999999 74.1405553,21.6377693,456.8000000000001 74.1405792,21.6377633,457.5000000000001 74.1405974,21.6377479,459.5000000000001 74.1406042,21.6377164,461.1 74.1406191,21.6376952,462 74.14063849999999,21.6376811,464.5 74.1406683,21.637666,465.1999999999999 74.1406836,21.6376516,465.4 74.1407024,21.6376323,465.9 74.14071939999999,21.637616,466.2 74.14073670000001,21.6376063,466.2 74.140756,21.6375805,466.6999999999999 74.1407727,21.6375684,466.9999999999999 74.14079750000001,21.6375514,466.8999999999999 74.1408204,21.6375478,466.8999999999999 74.1408325,21.6375321,466.4 74.14088599999999,21.6375311,464.5 74.14092359999999,21.637533,463.5 74.1409589,21.6375414,462.9999999999999 74.1409991,21.637551,462.6999999999999 74.1410379,21.6375549,462.6 74.1410585,21.6375583,461.9 74.14109740000001,21.6375638,461.3000000000001 74.1411191,21.6375682,460.8999999999999 74.1411377,21.6375755,461.7 74.1411727,21.6375757,463.7 74.14119169999999,21.6375705,464.3000000000001 74.1412198,21.6375649,465.1999999999999 74.1412534,21.6375509,466 74.1412811,21.6375539,466.5 74.1413033,21.6375556,466.4 74.1413234,21.6375615,465.9 74.1413476,21.6375599,463.8 74.14135709999999,21.6375432,461.5000000000001 74.1413852,21.6375464,459.9 74.1414077,21.6375483,458.2 74.1414293,21.6375479,458.2 74.1414231,21.6375268,457.6 74.1414272,21.6375066,457.6 74.1414427,21.6375186,456.8000000000001 74.1414448,21.6374967,455.3000000000001 74.14144760000001,21.6374687,452.7 74.1414429,21.6374402,450.8000000000001 74.1414353,21.6374226,449.3 74.1414262,21.6374059,448.4 74.14142390000001,21.63738,447.6 74.1414374,21.6373507,446.8999999999999 74.14144779999999,21.6373349,446.3 74.14147319999999,21.6373244,444.5 74.14150170000001,21.6373219,443.6 74.1415389,21.6373358,442.2000000000001 74.14156319999999,21.6373377,441.7 74.14158399999999,21.6373411,440.9999999999999 74.14161350000001,21.6373433,439.4 74.1416315,21.6373545,439.1 74.1416559,21.6373562,437.8000000000001 74.14169,21.6373463,436.3 74.14171020000001,21.6373474,435.3 74.14172859999999,21.6373658,434.3 74.1417584,21.6373689,433.1 74.1417816,21.6373702,432.3 74.1418053,21.6373749,431.4 74.1418331,21.637369,429.9 74.1418554,21.6373726,427.8000000000001 74.1418747,21.6373785,426.5 74.1418948,21.6373901,425.7 74.14192629999999,21.6374032,424.4 74.14194929999999,21.637405,423.8 74.1420019,21.6374141,423 74.14204220000001,21.6374195,422.8 74.1420741,21.6374244,422.6 74.1421038,21.63744,422.2 74.1421258,21.637448,421.9 74.142154,21.6374486,421.4999999999999 74.14219,21.6374465,421 74.1422377,21.6374336,420.4 74.1422661,21.6374283,419.7 74.1422855,21.6374253,418.6 74.142309,21.6374182,417.4999999999999 74.1423319,21.637407,415.1999999999999 74.1423447,21.637393,414.5 74.1423585,21.6373659,413.8 74.1423803,21.6373394,412.7 74.1424011,21.6373257,411.8 74.1424253,21.63731,409.9 74.1424437,21.6373014,408.8 74.1424706,21.6372854,407.4999999999999 74.1424873,21.6372689,406.6 74.14251179999999,21.6372543,406.2 74.14254440000001,21.6372385,405.3999999999999 74.1425699,21.6372275,404.3 74.1425642,21.6372072,402.7 74.1425835,21.6371961,402.5 74.1426125,21.6371873,401.6999999999999 74.1426494,21.6371807,400.6 74.14265810000001,21.6371613,397.6999999999999 74.1426436,21.6371422,396.1 74.14264729999999,21.6371133,394.9 74.1426735,21.6371009,394.3 74.1426945,21.6370983,393.6999999999999 74.1427178,21.6370901,392.5 74.1427473,21.6370463,390.9 74.1427722,21.6370233,390.5 74.1428016,21.6370069,390.0000000000001 74.14282420000001,21.6370005,388.9 74.14283949999999,21.6369894,387.9 74.1428471,21.6369697,387.3 74.14285580000001,21.6369505,386.5 74.14288329999999,21.636924,384.5 74.1429,21.6368958,383.4999999999999 74.1429322,21.6368791,382.9 74.1429505,21.6368644,382.3 74.1429488,21.6368437,381.3 74.1429692,21.6368262,380.9 74.1429831,21.6368091,379.9 74.1429888,21.6367907,379.4999999999999 74.142995,21.6367708,379 74.14300230000001,21.6367419,378.3 74.1429991,21.6367053,377.7 74.1429866,21.6366766,376.9 74.14297999999999,21.6366384,375.8 74.14298479999999,21.6366046,374.3 74.1430124,21.6365901,373.4 74.14303099999999,21.6365753,372.6 74.1430398,21.6365592,371.5 74.1430527,21.6365371,369.7 74.1430556,21.6365014,366.3 74.14306860000001,21.636482,362.8 74.1430628,21.6364551,362 74.1430636,21.6364261,361 74.143078,21.6363978,359.6 74.1430957,21.636365,358.5 74.1431044,21.6363459,357.9 74.1431233,21.6363324,357.6 74.1431352,21.6363109,357.1 74.1431424,21.6362849,357.5 74.143153,21.6362674,357.6 74.14317320000001,21.6362498,358.3 74.1431972,21.63623,358.9 74.14320739999999,21.6362126,359.3 74.1432102,21.6361905,359.3 74.1432209,21.6361601,359.6 74.1432295,21.6361435,359.7 74.1432496,21.6361125,359.8 74.14324689999999,21.6360679,359.6 74.14324259999999,21.6360351,359.3 74.1432535,21.6360149,359.3999999999999 74.1432653,21.635998,359.3999999999999 74.14328070000001,21.6359582,358.8 74.1433001,21.6359389,358.5 74.1433152,21.6359144,357.8 74.1433303,21.6358967,356.9 74.14335149999999,21.6358946,356.6 74.1433648,21.635874,355.8 74.143377,21.6358542,355 74.1433995,21.6358344,353.2 74.14341039999999,21.6358154,350.5 74.14342739999999,21.6358051,349.4 74.1434184,21.6357883,348.5 74.1433993,21.6357839,347.2 74.1434295,21.6357956,345.8 74.14345280000001,21.6357952,345.8 74.1434574,21.6357695,346.2 74.14342670000001,21.635768,346.2 74.1434354,21.6357495,347.1 74.14346500000001,21.6357439,348 74.14348680000001,21.635745,348.3 74.14350829999999,21.6357355,347.5 74.1435438,21.6357276,347.2 74.1435645,21.6357209,346.4 74.1435846,21.635719,345.8 74.14360360000001,21.6357103,343.5 74.14362300000001,21.6357037,342.1 74.1436435,21.63569,341.5 74.1436631,21.6356783,339.6999999999999 74.1436818,21.6356666,338.4 74.1437245,21.6356338,338.1 74.1437329,21.6356097,338.1 74.14371389999999,21.6355994,337.2 74.1437408,21.6355932,337 74.14376609999999,21.6355959,336.9 74.1437713,21.6355744,336.4 74.1437632,21.6355554,335.6 74.14376040000001,21.6355375,334.9 74.1437516,21.6355138,334.6 74.1437349,21.6354937,333.6 74.1437402,21.6354755,332.2 74.14375769999999,21.6354594,329.1 74.14378259999999,21.6354371,327.9 74.1437598,21.6354044,326.4 74.1437348,21.6353811,325.4 74.1437226,21.6353582,324.8 74.1437167,21.6353407,324.7 74.14371269999999,21.6353218,323.7 74.1437325,21.6352929,322.2 74.14374479999999,21.6352627,321 74.1437822,21.6352476,320.3 74.1437981,21.6352293,319.4 74.1437851,21.635215,319.1 74.1437701,21.6351863,318.7 74.14377090000001,21.6351677,318.4 74.1437993,21.6351674,317.8 74.1438244,21.6351725,316.7 74.1438653,21.6351712,315.5 74.14388529999999,21.6351504,315.1 74.14389389999999,21.635114,314.1 74.1439108,21.6350743,313.3 74.1439409,21.6350673,312.3 74.14398,21.6350917,311.2 74.1440173,21.6351048,309.9 74.1440253,21.6350838,308.6 74.1440071,21.6350364,307.1 74.14399830000001,21.6350109,306.1 74.1439961,21.6349915,305.1 74.1440358,21.6349991,302.2 74.1440606,21.6350025,300.8 74.14405619999999,21.6350231,300.1 74.14409259999999,21.6350448,299 74.14411920000001,21.6350127,298.6 74.1441434,21.6350001,298.7 74.1441367,21.6349757,297.6 74.14411870000001,21.6349546,296.5 74.1441109,21.6349297,296.2 74.144148,21.6349105,294.7 74.1441725,21.6349071,294.1 74.1442017,21.6348967,293.5 74.14422930000001,21.6348905,293.1 74.144255,21.634895,292.2 74.14428409999999,21.6349031,291.6 74.14432290000001,21.6349117,290.5 74.14434799999999,21.6348929,289.1 74.14434869999999,21.6348594,288.3 74.1443428,21.6348248,286.8 74.1443325,21.6347975,285.2 74.144305,21.6347901,283.8 74.1442861,21.6347846,282.7 74.1442703,21.6347684,282.1 74.1442716,21.6347384,280.1 74.1442833,21.6347152,279.5 74.1442928,21.6346936,278.8 74.1443045,21.6346768,277.9 74.1443051,21.6346443,276 74.144306,21.6346175,275.4 74.14431759999999,21.6345973,275.3 74.14431980000001,21.6345681,275.3 74.14433200000001,21.6345398,274.9 74.1443345,21.6345129,274.1 74.1443381,21.6344673,273.6 74.1443213,21.6344337,272.7 74.14430900000001,21.6344094,272.5 74.1442967,21.6343832,271.9 74.1442828,21.6343633,271.2 74.1442723,21.6343394,269.5 74.14426349999999,21.6343206,269.1 74.14425850000001,21.6342936,268.5 74.14424699999999,21.6342615,268.1 74.1442313,21.6342212,267.5 74.1442248,21.6341954,266.7 74.1442368,21.6341598,265.7 74.14425079999999,21.6341238,264.8 74.14426419999999,21.6340889,264.3 74.1442674,21.634062,263.8 74.1442551,21.634027,262.9 74.1442392,21.6340064,262.7 74.1442361,21.6339809,262.2 74.14423360000001,21.6339624,262.1 74.14422930000001,21.6339252,260.2 74.1442328,21.6338953,259.9 74.1442357,21.6338677,259.3 74.144246,21.6338487,258.9 74.14424150000001,21.63382,258 74.14423770000001,21.6337892,257.4 74.1442251,21.6337697,257.3 74.1442168,21.6337475,257.3 74.1442095,21.6337263,257 74.14419460000001,21.6337134,256.8 74.14418360000001,21.6336983,256.4 74.144158,21.6336685,255.8 74.144144,21.6336393,255.2 74.14413930000001,21.6336135,254.5 74.1441331,21.6335881,254.3 74.14412230000001,21.6335619,253.9 74.1441351,21.6335364,252.9 74.1441197,21.6335111,252.4 74.1441186,21.6334889,252.1 74.14410770000001,21.633463,251.6 74.1440858,21.6334658,250.9999999999999 74.14409740000001,21.6334257,250.9999999999999 74.1441064,21.6333996,250.6 74.14412489999999,21.6333795,249.9 74.1441485,21.6333607,249.4 74.14416660000001,21.6333499,248.9999999999999 74.1441852,21.6333289,248.4 74.14420010000001,21.6333082,247.6 74.1442199,21.6332888,246.9999999999999 74.1442346,21.6332589,246.4 74.1442631,21.6332282,245.9999999999999 74.1442826,21.6332153,245.3 74.1443091,21.6332036,245.6 74.1443232,21.6331891,244.9 74.1443311,21.6331514,244.8 74.14433099999999,21.633129,244.3 74.1443215,21.6331117,243.9 74.1443184,21.6330865,243.4 74.1443139,21.6330526,242.7 74.1443014,21.6330249,242.3 74.1442876,21.6330051,241.7 74.14426899999999,21.6329905,241.2 74.14425,21.6329971,240.9 74.1442316,21.6329717,239.5 74.1442321,21.6329532,238.2 74.1442352,21.6329306,234.8 74.14426760000001,21.6329528,233.2 74.14426,21.632945,226.3 74.14427860000001,21.6329709,226.5 74.1442455,21.632967,226.7 74.1442321,21.6329672,227 74.1442246,21.6329698,227 74.14420560000001,21.6329626,227.4 74.1441863,21.6329617,227.9 74.1441863,21.6329617,227.9 74.1441655,21.6329532,228.1 74.1441451,21.6329358,228.6 74.14413709999999,21.6329302,229.2 74.14412780000001,21.6329193,229.9 74.144111,21.6328974,231.3 74.144088,21.6328743,232.5 74.144088,21.6328743,232.5 74.14407869999999,21.6328539,234 74.1440588,21.6328366,235.5 74.144049,21.6328273,235.7 74.1440372,21.6328086,236 74.1440206,21.6327853,236.5 74.1440206,21.6327853,236.5 74.14400759999999,21.6327619,238 74.14399640000001,21.6327463,238.5 74.14398319999999,21.6327354,238.8 74.1439567,21.6327047,239.7 74.1439288,21.6326729,240.2 74.1439288,21.6326729,240.2 74.1439249,21.6326472,240.8 74.1439022,21.6326398,241.8 74.1438955,21.6326372,241.9999999999999 74.14388820000001,21.6326122,243.1 74.14388820000001,21.6326122,243.1 74.14387139999999,21.6325807,243.9999999999999 74.14386210000001,21.6325664,244.2 74.1438545,21.6325539,244.5 74.1438405,21.6325225,245.1 74.1438405,21.6325225,245.1 74.1438251,21.6325046,245.2 74.1438084,21.6324927,245.6 74.1437981,21.6324863,245.8 74.143788,21.6324761,245.7 74.1437786,21.6324569,246.2 74.1437786,21.6324569,246.2 74.1437574,21.632447,246.1 74.1437291,21.6324311,245.7 74.14371800000001,21.632428,245.3 74.1436904,21.6324169,244.3 74.14365549999999,21.6324101,243.6 74.14365549999999,21.6324101,243.6 74.1436041,21.6323941,242.9999999999999 74.1435652,21.6323864,242.2 74.14355569999999,21.6323837,241.7 74.1435354,21.632376,240.9 74.1435188,21.6323792,240.3 74.1435053,21.6323793,239.9 74.1434859,21.6323663,238.8 74.14348459999999,21.6323547,238.5 74.1434726,21.6323314,237.7 74.1434601,21.6323094,237.5 74.1434601,21.6323094,237.5 74.1434612,21.6322815,237.4 74.1434529,21.6322612,238.2 74.1434517,21.6322506,238.6 74.1434288,21.6322401,238.5 74.1434095,21.632232,238.9 74.1434095,21.632232,238.9 74.14339440000001,21.6322176,239.4 74.1433743,21.6321975,240.1 74.1433693,21.6321888,240.2 74.1433413,21.6321628,237 74.1433413,21.6321628,237 74.1433294,21.6321471,233.5 74.1433206,21.6321301,231.5 74.14331230000001,21.6321243,231.1 74.1433012,21.6321171,230.8 74.14328500000001,21.6321017,230.2 74.1432724,21.6320928,229.8 74.1432478,21.6320778,230 74.1432269,21.6320593,229.6 74.143218,21.6320561,229.5 74.1431966,21.6320494,229 74.1431814,21.6320502,228.6 74.143159,21.6320563,228.3 74.14314160000001,21.6320705,227.9 74.1431321,21.6320752,227.9 74.143111,21.6320506,228.1 74.1431013,21.6320285,229.7 74.1431013,21.6320285,229.7 74.143102,21.6320042,231.3 74.1430905,21.631984,233.2 74.1430824,21.6319781,234.2 74.14306759999999,21.6319568,237.3 74.1430577,21.6319404,238.6 74.1430577,21.6319404,238.6 74.1430337,21.6319101,240.8 74.1430289,21.6319007,241.5 74.1430233,21.6318923,241.9 74.1430069,21.63188,242.6 74.14298410000001,21.6318676,243.7 74.14298410000001,21.6318676,243.7 74.1429636,21.6318583,244.7 74.14294270000001,21.6318556,244.9999999999999 74.14293170000001,21.6318557,244.9 74.1429189,21.6318544,244.7 74.1428952,21.6318526,244.2 74.1428734,21.6318393,243.4 74.1428734,21.6318393,243.4 74.1428638,21.6318142,243.1 74.1428473,21.631799,242.5 74.1428356,21.6317957,242.4 74.1428212,21.6317929,242.2 74.1427923,21.6317819,241.9999999999999 74.14276750000001,21.6317606,241.6 74.14276750000001,21.6317606,241.6 74.1427527,21.6317423,241.3 74.1427343,21.6317244,240.9999999999999 74.1427212,21.6317192,240.7 74.1427089,21.6317143,240.7 74.1426941,21.6316987,240.1 74.1426859,21.6316819,239.3 74.1426859,21.6316819,239.3 74.1426732,21.6316666,239.1 74.1426562,21.6316463,239.6 74.1426452,21.6316359,239.8 74.1426385,21.6316258,239.7 74.1426474,21.6315915,239.9 74.1426608,21.6315687,239.7 74.1426608,21.6315687,239.7 74.1426726,21.631541,239.8 74.1426779,21.6315331,239.7 74.1426843,21.6315225,239.6 74.14268819999999,21.631501,239.4 74.14269040000001,21.6314802,239.4 74.14269040000001,21.6314802,239.4 74.14269520000001,21.6314492,239.6 74.14269729999999,21.6314415,239.5 74.14270329999999,21.6314308,239.5 74.14271669999999,21.6314067,239.2 74.1427238,21.631387,238.9 74.1427238,21.631387,238.9 74.1427126,21.6313554,238.2 74.1427079,21.6313469,238.1 74.1426989,21.6313412,237.8 74.1426809,21.6313273,237.4 74.14266979999999,21.6313122,237.1 74.14266979999999,21.6313122,237.1 74.1426668,21.6312884,236.3 74.142664,21.6312796,236.1 74.142661,21.6312654,235.9 74.14265159999999,21.6312274,234.5 74.1426414,21.6312059,233.1 74.1426414,21.6312059,233.1 74.1426173,21.6311672,231.4 74.14260969999999,21.6311329,229.9 74.1426166,21.6311224,229.2 74.1426259,21.6311189,228.6 74.1426498,21.631122,227.2 74.14267220000001,21.6311139,225.5 74.14267220000001,21.6311139,225.5 74.14269539999999,21.6310912,222.8 74.14269400000001,21.6310827,222.1 74.1426955,21.6310718,221.5 74.1427092,21.6310563,220.3 74.1427273,21.6310403,218.8 74.1427273,21.6310403,218.8 74.14273540000001,21.6310118,216.1 74.1427384,21.6309981,215.4 74.1427365,21.6309844,214.6 74.1427358,21.6309606,212.9 74.1427358,21.6309606,212.9 74.1427516,21.6309442,212.6 74.14275379999999,21.6309365,212.2 74.1427592,21.6309175,212.1 74.1427699,21.6309092,211.9 74.1427879,21.6308993,211.4 74.1428083,21.6308844,210.7 74.1428186,21.6308758,210.4999999999999 74.1428288,21.6308671,210.3 74.1428512,21.6308486,210.2 74.1428722,21.6308307,210.1 74.1428722,21.6308307,210.1 74.1428748,21.6308094,209.4999999999999 74.1428745,21.6307887,208.8 74.1428746,21.6307767,208.7 74.1428769,21.6307662,208.4 74.14289359999999,21.6307456,208.2 74.14291679999999,21.63072,207.7 74.14291679999999,21.63072,207.7 74.1429385,21.6306998,207.1 74.14294750000001,21.630683,206.8 74.1429469,21.6306728,206.8 74.14294289999999,21.6306604,206.7 74.1429512,21.6306362,206.6 74.14295319999999,21.6305988,206.3 74.14295319999999,21.6305988,206.3 74.14295,21.6305643,206.3 74.1429656,21.6305518,206.3 74.1429759,21.6305481,206.3 74.1429854,21.630547,206.3 74.1429966,21.6305023,206 74.1429966,21.6305023,206 74.1429973,21.6304667,205.9 74.1430115,21.6304396,205.8 74.14301810000001,21.6304289,205.4999999999999 74.14302189999999,21.6304201,205.4999999999999 74.1430357,21.630407,205.1 74.143034,21.6303857,205 74.143034,21.6303857,205 74.1430281,21.6303643,204.6 74.1430275,21.6303365,204.3 74.14302840000001,21.6303174,204.1 74.143033,21.6302987,204.1 74.1430373,21.6302677,204 74.143044,21.6302504,203.6 74.143044,21.6302504,203.6 74.1430531,21.6302092,203.7 74.1430551,21.6301935,203.7 74.1430579,21.6301794,203.8 74.14305450000001,21.6301522,204 74.1430434,21.6301329,204.2 74.1430434,21.6301329,204.2 74.1430258,21.6301213,204.1 74.1430197,21.6301236,204.1 74.1430065,21.630127,204.4 74.14299699999999,21.6301005,204.9 74.14299509999999,21.630082,205.1 74.1429918,21.6300733,205.2 74.1429881,21.6300623,205.2 74.1429789,21.6300361,205.2 74.14296520000001,21.6300077,204.6 74.14296520000001,21.6300077,204.6 74.1429553,21.6299762,204.4 74.14294750000001,21.6299419,204.2 74.1429521,21.6299275,204.3 74.1429612,21.6299136,204.3 74.1429639,21.6298847,204.9 74.142965,21.629856,205.3 74.142965,21.629856,205.3 74.1429694,21.6298368,205.4 74.142973,21.6298151,205 74.14296710000001,21.6298033,204.9 74.1429586,21.6297777,204.6 74.1429527,21.6297452,203.3 74.1429527,21.6297452,203.3 74.1429595,21.6297142,203.2 74.1429665,21.6296949,202.7 74.14297120000001,21.6296837,202.7 74.14297500000001,21.6296733,202.7 74.1429704,21.6296538,202.1 74.1429629,21.6296325,201.3 74.1429629,21.6296325,201.3 74.14294529999999,21.6296067,200.6 74.1429193,21.6295869,200 74.14290699999999,21.6295818,199.6 74.1428959,21.6295784,199.6 74.1428744,21.6295739,200.1 74.14286439999999,21.6295654,200.6 74.1428518,21.6295486,200.3 74.1428319,21.6295293,200.1 74.1428216,21.6295185,199.7 74.1428126,21.629513,199.7 74.1427971,21.6295022,199.8 74.14277370000001,21.6294828,199.8 74.14277370000001,21.6294828,199.8 74.14276220000001,21.6294579,199.7 74.1427613,21.6294328,198.8 74.14276289999999,21.6294234,198.8 74.1427747,21.6293912,198.4 74.14278179999999,21.6293659,198.2 74.14278179999999,21.6293659,198.2 74.1427592,21.6293397,198.7 74.1427552,21.6293315,199.1 74.1427544,21.6293212,199.7 74.142759,21.6293083,200.2 74.1427638,21.6292794,201.1 74.1427688,21.629246,201.2 74.1427764,21.6292321,201.2 74.14278109999999,21.6292197,201.1 74.1427808,21.6292001,200.7 74.1427789,21.6291849,200.1 74.1427844,21.6291748,199.4999999999999 74.14279310000001,21.6291477,198.4 74.1427995,21.6291326,198 74.1428027,21.6291127,197.7 74.14280909999999,21.629076,197.4 74.142808,21.6290551,197.3 74.142808,21.6290551,197.3 74.1428135,21.6290319,197.3 74.1428226,21.6289984,196.7 74.1428267,21.6289841,196.8 74.1428279,21.6289682,196.7 74.1428279,21.6289459,196.1 74.1428212,21.6289269,195.2 74.1428212,21.6289269,195.2 74.14281680000001,21.6289049,193.7 74.1428193,21.6288962,193.5 74.1428253,21.6288877,193.2 74.1428324,21.6288668,192.9 74.1428324,21.6288668,192.9 74.1428185,21.6288379,192.8 74.1428215,21.628826,192.8 74.1428276,21.6288129,192.8 74.1428171,21.628787,192.6 74.14280909999999,21.628773,192.3 74.14281389999999,21.628756,192.4 74.14281510000001,21.6287377,191.8 74.1428196,21.6287235,191.5 74.1428236,21.6287063,191 74.1428265,21.628672,191.2 74.1428293,21.6286479,191.3 74.1428293,21.6286479,191.3 74.1428398,21.6286281,191.8 74.1428372,21.6286149,192 74.1428377,21.6286048,192.3 74.1428423,21.6285665,193 74.1428423,21.6285665,193 74.1428567,21.6285397,193.4 74.1428611,21.6285217,193.7 74.1428562,21.6285096,193.9 74.1428502,21.6284954,194 74.14284309999999,21.6284636,194.2 74.1428398,21.6284355,194.1 74.1428398,21.6284355,194.1 74.14283570000001,21.628407,194.2 74.14283759999999,21.6283993,194.2 74.14283810000001,21.628369,194.3 74.1428324,21.6283493,193.9 74.1428324,21.6283493,193.9 74.1428291,21.6283302,193.2 74.1428274,21.6283246,193.2 74.1428136,21.6283087,193.1 74.1428008,21.6282864,193 74.1428008,21.6282864,193 74.14279689999999,21.6282441,193.3 74.142786,21.6282213,193.3 74.142786,21.6282213,193.3 74.1427738,21.6281873,193.5 74.1427657,21.6281729,193.7 74.14275689999999,21.6281602,193.8 74.1427441,21.6281379,193.7 74.1427441,21.6281379,193.7 74.14273009999999,21.6281165,193.6 74.14272440000001,21.6280789,193.6 74.1427224,21.6280647,193.5 74.1427212,21.6280583,193.3 74.14271340000001,21.628038,192.9 74.14271340000001,21.628038,192.9 74.1427048,21.6280148,192.7 74.1427225,21.6280001,192.4 74.14273230000001,21.6279927,192.2 74.142737,21.6279838,192 74.1427398,21.6279742,191.4 74.14273470000001,21.6279482,191.1 74.1427477,21.6279251,191 74.1427489,21.6279179,190.9 74.1427449,21.6278938,190.9 74.14275069999999,21.6278665,191.1 74.14275069999999,21.6278665,191.1 74.14276340000001,21.6278364,190.9 74.14276839999999,21.6278195,190.7 74.1427721,21.6278013,190.5 74.14277300000001,21.6277713,189.5 74.142776,21.627759,188.7 74.14277920000001,21.6277369,188.6 74.1427801,21.627718,189 74.1427795,21.6277085,189.2 74.142779,21.6276979,189.1 74.1427808,21.6276714,188.5 74.1427805,21.6276374,187.7 74.1427805,21.6276374,187.7 74.1427783,21.6276146,186.6 74.142769,21.6275934,185.3 74.1427664,21.6275811,184.7 74.1427719,21.6275475,184.5 74.1427827,21.6275249,184.5 74.1427827,21.6275249,184.5 74.1428006,21.6274865,184.1 74.1428047,21.6274682,184.1 74.14280909999999,21.6274485,184.2 74.142819,21.6274177,184.5 74.142821,21.6274026,184.5 74.14281750000001,21.6273925,184.1 74.1428093,21.6273682,183.9 74.14280669999999,21.62735,183.9 74.1428063,21.627328,184 74.1428058,21.6272933,184.1 74.1428099,21.6272762,184.3 74.1427994,21.6272573,184.1 74.1427849,21.6272294,184 74.14277679999999,21.6272134,184.1 74.1427652,21.6272008,184.4 74.14274380000001,21.6271798,184.7 74.1427351,21.6271767,184.7 74.1427529,21.6271586,185 74.1427647,21.6271462,184.9 74.1427786,21.6271333,184.7 74.1428073,21.6271111,184.5 74.14283500000001,21.6270906,184.6 74.14283500000001,21.6270906,184.6 74.1428497,21.6270725,185.2 74.14285,21.6270534,185.4 74.1428482,21.6270443,185.6 74.1428537,21.6270287,185.7 74.1428696,21.6269972,185.5 74.14287590000001,21.6269673,185 74.14287590000001,21.6269673,185 74.1428811,21.6269468,184.1 74.1428837,21.6269213,182.9 74.14288620000001,21.6269049,183.2 74.1429035,21.6268714,183.4 74.14291489999999,21.6268468,183.4 74.14291489999999,21.6268468,183.4 74.1429327,21.6268266,182.6 74.1429387,21.6268167,182.3 74.14294630000001,21.6268056,182.1 74.1429631,21.6267786,182.3 74.1429845,21.6267515,182.6 74.1429845,21.6267515,182.6 74.1429942,21.6267326,182.5 74.1429923,21.6267104,182.6 74.1429924,21.6267,182.6 74.1429909,21.6266686,182.7 74.1429928,21.6266393,182.7 74.1429928,21.6266393,182.7 74.1430197,21.6266026,183.1 74.1430352,21.6265891,183.3 74.1430507,21.6265778,183.7 74.14306240000001,21.6265595,183.9 74.1430611,21.6265435,184.3 74.14306500000001,21.6265202,184.7 74.14307479999999,21.6265012,185.3 74.14307599999999,21.6264924,185.5 74.1430802,21.6264809,185.5 74.1430963,21.6264503,185.9 74.14311720000001,21.6264278,186.3 74.14311720000001,21.6264278,186.3 74.1431382,21.6264009,187.3 74.14314709999999,21.626392,187.1 74.14315360000001,21.6263861,187 74.1431673,21.6263713,186.7 74.1431673,21.6263713,186.7 74.14316700000001,21.6263462,186.5 74.14317250000001,21.6263253,186.6 74.14317629999999,21.6263247,186.7 74.1269949,21.6319218,185.6 
					</coordinates>
				</LinearRing>
			</outerBoundaryIs>
		</Polygon>
	</Placemark>
</Document>
</kml>
