<?xml version="1.0" encoding="UTF-8"?>
<kml xmlns="http://www.opengis.net/kml/2.2" xmlns:gx="http://www.google.com/kml/ext/2.2" xmlns:kml="http://www.opengis.net/kml/2.2" xmlns:atom="http://www.w3.org/2005/Atom">
<Document>
	<name>वांझळे_१५४, १५६, १५७ आणि १५८_779.kml</name>
	<StyleMap id="m_ylw-pushpin">
		<Pair>
			<key>normal</key>
			<styleUrl>#s_ylw-pushpin</styleUrl>
		</Pair>
		<Pair>
			<key>highlight</key>
			<styleUrl>#s_ylw-pushpin_hl</styleUrl>
		</Pair>
	</StyleMap>
	<Style id="s_ylw-pushpin">
		<IconStyle>
			<scale>1.1</scale>
			<Icon>
				<href>http://maps.google.com/mapfiles/kml/pushpin/ylw-pushpin.png</href>
			</Icon>
			<hotSpot x="20" y="2" xunits="pixels" yunits="pixels"/>
		</IconStyle>
		<LineStyle>
			<color>d600ffff</color>
			<width>2.8</width>
		</LineStyle>
		<PolyStyle>
			<color>8affffaa</color>
		</PolyStyle>
	</Style>
	<Style id="s_ylw-pushpin_hl">
		<IconStyle>
			<scale>1.3</scale>
			<Icon>
				<href>http://maps.google.com/mapfiles/kml/pushpin/ylw-pushpin.png</href>
			</Icon>
			<hotSpot x="20" y="2" xunits="pixels" yunits="pixels"/>
		</IconStyle>
		<LineStyle>
			<color>d600ffff</color>
			<width>2.8</width>
		</LineStyle>
		<PolyStyle>
			<color>8affffaa</color>
		</PolyStyle>
	</Style>
	<Placemark>
		<name>वांझळे_१५४, १५६, १५७ आणि १५८_779</name>
		<styleUrl>#m_ylw-pushpin</styleUrl>
		<Polygon>
			<tessellate>1</tessellate>
			<outerBoundaryIs>
				<LinearRing>
					<coordinates>
						74.13286955940926,21.24978575235145,0 74.1327586898482,21.24946152207269,0 74.13264918694223,21.24902975028725,0 74.13265460875408,21.24859952903144,0 74.1326600305357,21.24816934837037,0 74.13266545228737,21.24773920826875,0 74.13255597485774,21.24730760272728,0 74.13256140217213,21.246877543831,0 74.13233705661465,21.24644450814613,0 74.13211137013644,21.24611900406236,0 74.13177355662349,21.24557705159927,0 74.13154928388056,21.24514414220123,0 74.1315547614884,21.24471428692258,0 74.131560239037,21.24428447192098,0 74.13179542206552,21.24385771249687,0 74.13202921795778,21.243538422465,0 74.13237784423245,21.24322066464621,0 74.13283722215083,21.24322669328548,0 74.13329660424689,21.24323272152112,0 74.133758673488,21.24302390532571,0 74.13410989619899,21.2424913587448,0 74.13445840914598,21.24217366752409,0 74.13480822812944,21.24174860655329,0 74.13526886362061,21.24164724124794,0 74.13561730442653,21.24132960648114,0 74.1357374040759,21.24090161389646,0 74.1357426804386,21.24047215273494,0 74.13574795685911,21.24004273150274,0 74.13563843224686,21.23961184547299,0 74.13564371434859,21.23918250420149,0 74.13565031701668,21.23864588663038,0 74.13565559924362,21.23821663491455,0 74.13566088152669,21.23778742294467,0 74.13601047731494,21.2373627613654,0 74.13624527391369,21.23693663769334,0 74.13670826404314,21.23662082549146,0 74.13671349665564,21.23619176037977,0 74.13683348148068,21.23576423734238,0 74.1368413223678,21.23512077437657,0 74.13684524289609,21.23479907547005,0 74.13685177720376,21.23426296146226,0 74.13662755301756,21.23383111031629,0 74.13651807022526,21.23340080065932,0 74.13640859864947,21.23297053224374,0 74.13641384854706,21.23254180309437,0 74.13642041101112,21.23200594840691,0 74.13619626814985,21.23157430637656,0 74.13608947055599,21.23092992042036,0 74.13574804741066,21.23071114333672,0 74.13528665339709,21.23091941654894,0 74.13493726916357,21.23134349206256,0 74.13459052197875,21.23155329280389,0 74.13413308086133,21.23144013428727,0 74.13367834613277,21.23111268597072,0 74.13322094129106,21.2309995370102,0 74.1328795905725,21.23078075400977,0 74.13253825722666,21.2305619809616,0 74.13208362715605,21.23023459085625,0 74.13162766122043,21.23001434240247,0 74.13128913886592,21.22958138101104,0 74.13106393463936,21.22925706145232,0 74.13072546978815,21.22882417103019,0 74.13050030745308,21.22849990350853,0 74.13027516056768,21.22817565822437,0 74.12993538607319,21.22784993511905,0 74.12959703184542,21.22741717180062,0 74.12937474156438,21.22687890225804,0 74.12938033183733,21.22645073170066,0 74.12915667963465,21.22601959760857,0 74.12904906724665,21.22548298832311,0 74.12882405195515,21.22515894966395,0 74.12860046027116,21.22472793459387,0 74.12837830030332,21.22418996931555,0 74.12815334426233,21.22386601875096,0 74.12770206149509,21.22332515087754,0 74.12747999207139,21.22278734490536,0 74.1272536818005,21.22257043829304,0 74.12691423464447,21.22224509730191,0 74.12669081195918,21.22181434482934,0 74.12646740982306,21.22138363040692,0 74.12635858532687,21.22095445625454,0 74.12636575446967,21.22041991833758,0 74.12625838105268,21.21988393993263,0 74.12614958586566,21.21945490061106,0 74.12581318073168,21.21891602998251,0 74.12547392766669,21.21859093645493,0 74.1250201782095,21.2182643632831,0 74.1246824328087,21.21783246775125,0 74.1241127805616,21.21761128241382,0 74.12377217478053,21.21739310690375,0 74.12377949729863,21.21685896709714,0 74.1237868194121,21.21632488671809,0 74.12379414112166,21.21579086570019,0 74.12380292663798,21.21515011896724,0 74.12369284186762,21.21482827728358,0 74.12335382142879,21.21450345672019,0 74.12278441304761,21.21428242041005,0 74.12232950002564,21.21406289327935,0 74.12175716850041,21.21405538883515,0 74.12141675498681,21.2138373703848,0 74.12096039972474,21.21372461158395,0 74.12050555888874,21.21350510513131,0 74.12016670268129,21.2131803679153,0 74.11971190852005,21.21296088413456,0 74.11937310185515,21.21263618189878,0 74.11903431949864,21.21231150056554,0 74.11892596153918,21.2118831319937,0 74.11847278917084,21.21155699787595,0 74.11790368594896,21.21133608042243,0 74.11733153085547,21.21132856590046,0 74.11675782909992,21.21142775030257,0 74.11618411460026,21.21152693508152,0 74.11572482213522,21.21162762427581,0 74.11515264881366,21.21162010248504,0 74.11458047633982,21.21161257889094,0 74.11412589385073,21.21139315116217,0 74.11378734332533,21.21106854194161,0 74.11413535893067,21.21075298499754,0 74.11459934180087,21.21033227360806,0 74.11483288626791,21.21001525905623,0 74.11518395482642,21.20948644573677,0 74.11530461719128,21.20906133076899,0 74.11542526807651,21.20863625304702,0 74.11566029982436,21.20821271587652,0 74.11566653675918,21.20778620874747,0 74.1156727732191,21.20735973912478,0 74.11567900921281,21.2069333064124,0 74.11568680353824,21.20640031818415,0 74.11580895983477,21.20586889101668,0 74.1158151888549,21.2054425888169,0 74.1158214174085,21.20501632375101,0 74.11560051194674,21.20448053910056,0 74.11537807029005,21.20405135183854,0 74.11526998384477,21.20362370485031,0 74.11527780014774,21.20309107650042,0 74.11539837543457,21.20266651808568,0 74.11551893934279,21.20224199631129,0 74.11552518030803,21.20181600821472,0 74.1153012445675,21.20149353758726,0 74.11473284337481,21.20127305876117,0 74.11439307381841,21.20105559420284,0 74.11393586351748,21.20104958177182,0 74.11347865346055,21.20104356794833,0 74.1129071411856,21.20103604871019,0 74.11233722615869,21.20092205273346,0 74.11176572089775,21.2009145292336,0 74.11131173449138,21.20069556771974,0 74.11085938313538,21.2003701506979,0 74.11040382481507,21.2002576674024,0 74.11006419193724,21.20004023620192,0 74.1099563987496,21.19961293049099,0 74.1098502409764,21.19907922633466,0 74.10985674217554,21.19865350856453,0 74.10963470674402,21.19822481595846,0 74.10918090055593,21.19800596455527,0 74.10861449180341,21.19767920814607,0 74.10815744588052,21.19767317967437,0 74.1077036994871,21.19745434625665,0 74.10748179099765,21.19702575281559,0 74.10725824810481,21.19670357649424,0 74.10703637778178,21.19627504500851,0 74.10669862723937,21.19595140931689,0 74.10636090014884,21.1956277919685,0 74.10602486441772,21.19519784182129,0 74.10580308576378,21.19476943790656,0 74.10592399075617,21.19434559544579,0 74.10615910013742,21.19392329918605,0 74.1066209474598,21.19361036995509,0 74.10707945062607,21.19351008533121,0 74.10741712500294,21.19383356432323,0 74.10798984230978,21.19373477949575,0 74.10845161523589,21.19342185690876,0 74.10880242371053,21.19289483972032,0 74.10914829545281,21.19268675842379,0 74.10926901854519,21.19226309241564,0 74.10893297317692,21.19183344078887,0 74.10859532019121,21.19151009463291,0 74.10814350853454,21.1911852615817,0 74.10792337486946,21.19065094920018,0 74.10770161799984,21.19022293574344,0 74.1077082106016,21.18979797334316,0 74.10771645043985,21.18926681897647,0 74.1077246892082,21.18873572215677,0 74.10773127948848,21.18831088382041,0 74.10773786910012,21.18788608128368,0 74.10751618585917,21.18745830274691,0 74.10740700287178,21.18713824444721,0 74.10707122489517,21.18670902108154,0 74.10684959932824,21.18628133852059,0 74.1063980981059,21.18595683106227,0 74.10605907584187,21.18574000043408,0 74.10572340774733,21.18531088998932,0 74.10550187563143,21.18488332135233,0 74.10516458667321,21.18456040505936,0 74.10494309698871,21.18413290080026,0 74.10437429936188,21.18401923812382,0 74.10380720493679,21.18379946263437,0 74.10312264833266,21.18379040075507,0 74.1025521832166,21.18378284612328,0 74.10198171726752,21.18377528870884,0 74.10129715681479,21.18376621613552,0 74.1008407826309,21.18376016552873,0 74.10038613747007,21.18364800317705,0 74.10073359233809,21.18333422600352,0 74.10119510712194,21.1830219802403,0 74.10188475033281,21.18271277635036,0 74.10245856370338,21.18250816042974,0 74.10291657457303,21.18240812098842,0 74.10371510704282,21.18241869372181,0 74.10417141076684,21.18242473279576,0 74.10474010995836,21.18253836273534,0 74.10530714771689,21.18275808025398,0 74.10576346556056,21.18276411311249,0 74.10644794173929,21.1827731590228,0 74.10736057570975,21.18278521393409,0 74.10815912989625,21.1827957560774,0 74.10895768343892,21.18280629270839,0 74.1095280786228,21.18281381550101,0 74.11009523456727,21.18303351938103,0 74.11043424786607,21.18325022295789,0 74.11100144992069,21.18346994063063,0 74.11134210461599,21.18358055318185,0 74.11179685645322,21.18369266927933,0 74.11225321398983,21.18369867708608,0 74.11270798145152,21.18381079206098,0 74.11304549459817,21.18413363577928,0 74.11349871068471,21.18435187414162,0 74.11383627010416,21.18467474951723,0 74.11405817268646,21.18510227990905,0 74.11450674853479,21.18563899270452,0 74.11461772378205,21.18585279176797,0 74.1149538106834,21.18628191917606,0 74.11540405420642,21.18671258108643,0 74.11551038640773,21.18724495956958,0 74.11573398270762,21.18756651326141,0 74.11572620088357,21.18809748208586,0 74.11571997489324,21.18852229858726,0 74.1159420551616,21.18895014952454,0 74.11627676441111,21.18948576157762,0 74.1163847279788,21.18991219411217,0 74.11649115395848,21.19044490917661,0 74.11659913905595,21.19087142278278,0 74.11670713354508,21.19129797097159,0 74.11681513869226,21.19172455678462,0 74.11715153968484,21.19215417509938,0 74.11748797118243,21.19258383070115,0 74.11771176457222,21.19290572130091,0 74.11793251084345,21.19344025133258,0 74.11815634049407,21.19376219613376,0 74.1184928778985,21.19419198684887,0 74.11894062909191,21.19483599003695,0 74.11905333566091,21.19494383134958,0 74.1190442215368,21.19558193821666,0 74.11903966414906,21.19590102306858,0 74.11949207914007,21.19622612036764,0 74.12005877358298,21.19655273330876,0 74.12097275381957,21.19656470975542,0 74.12177397711639,21.19646880602218,0 74.1224594586067,21.19647778036247,0 74.12337490570023,21.19638336600623,0 74.12394759863187,21.19628446384181,0 74.12463452605607,21.19618705492786,0 74.12486591922458,21.19597730408161,0 74.12510019989546,21.1955548418989,0 74.12545013736376,21.19502756174333,0 74.12579859552383,21.19460667117677,0 74.12592002124924,21.19407650588619,0 74.12615420910967,21.19365420274692,0 74.12615995912263,21.19322895386311,0 74.12639411418948,21.19280672181284,0 74.12662681756514,21.19249081621351,0 74.12697655701028,21.1919638549048,0 74.12731913633257,21.19196832504499,0 74.12742763843455,21.19239495702345,0 74.12742194625177,21.19282013674251,0 74.12753046248488,21.193246842804,0 74.12797880056023,21.1938906939636,0 74.12820440618434,21.19410632295954,0 74.12865846986094,21.19432494033405,0 74.12899551932317,21.1947547519768,0 74.12910413420174,21.19518162266058,0 74.12944123682048,21.19561150739429,0 74.12966412606747,21.19603994076733,0 74.12988843233907,21.19636203455172,0 74.13011136279306,21.19679053064682,0 74.13022144476015,21.1971111832863,0 74.13044302177798,21.19764614528686,0 74.1306687813785,21.19786193398663,0 74.13100605906601,21.19829204958951,0 74.13099915195454,21.1988241605095,0 74.13099224475538,21.19935632862609,0 74.13144526186504,21.19968161490053,0 74.13178401884174,21.20000543226083,0 74.13235276353556,21.20022578955673,0 74.13315149483991,21.20034266953676,0 74.13360734519726,21.20045508449609,0 74.13394890349595,21.20056601219738,0 74.13440209269515,21.20089137137909,0 74.13462535046544,21.20132025636025,0 74.1348486298365,21.2017491785663,0 74.13484194709392,21.20228166446503,0 74.13483526442222,21.20281420798172,0 74.13505859462293,21.20324326068873,0 74.13562497304396,21.20367681496439,0 74.1359666799129,21.20378781316845,0 74.1359600637789,21.20432052082243,0 74.13618348651431,21.20474970508444,0 74.13606384124628,21.20517446190297,0 74.13582981988523,21.20559776710439,0 74.1357074969107,21.20623577012983,0 74.13570219377264,21.20666214444068,0 74.13558250402926,21.20708706684458,0 74.13511963136982,21.20750755588882,0 74.13477378706948,21.20771632320289,0 74.13454098493372,21.2080332159032,0 74.13430682549303,21.20845676499881,0 74.13418570746664,21.20898848940688,0 74.13395150863657,21.20941212072195,0 74.13360286922074,21.20983429626598,0 74.13336997307627,21.21015132442609,0 74.13302128030234,21.21057356258773,0 74.13255948586357,21.21088765166852,0 74.13221346105048,21.21109655702638,0 74.13175298414897,21.2113039766862,0 74.13140555123016,21.2116196033874,0 74.13117116012201,21.21204345898542,0 74.13127872185574,21.21257856183088,0 74.13127321560162,21.21300549099892,0 74.13149663471805,21.21343544789852,0 74.13172007564721,21.21386544299401,0 74.13171321951774,21.21439925280128,0 74.13170636332075,21.21493312172447,0 74.13181536491317,21.21536175488572,0 74.13203887081028,21.21579192188342,0 74.13237689645089,21.21622362326585,0 74.13271631573294,21.21654854614088,0 74.13259773077615,21.21686750787746,0 74.13202519846166,21.21686002846761,0 74.13145266845821,21.21685254744797,0 74.13088014070527,21.21684506481775,0 74.13042212086528,21.21683907756367,0 74.12995992642064,21.21715356562328,0 74.12961360973301,21.21736273513535,0 74.12926587783873,21.21767875330734,0 74.12925887924348,21.21821298565301,0 74.12936640847538,21.21874877589937,0 74.12970441810093,21.21918074751731,0 74.13015977695092,21.2194004929076,0 74.13049923411725,21.21972563562337,0 74.13095464268146,21.21994540471476,0 74.1314086989134,21.22027208145039,0 74.13174823617561,21.22059728138146,0 74.13197187412619,21.22102792000366,0 74.13219553412961,21.22145859748559,0 74.13230464519309,21.22188781662255,0 74.13229782877576,21.22242252152121,0 74.13217779376299,21.22284883011499,0 74.13216960578227,21.22349061299942,0 74.13216278241727,21.22402549746085,0 74.13227192595298,21.22445494880579,0 74.13238108178621,21.22488443761613,0 74.13272083221815,21.22520995433556,0 74.1330592555944,21.22564251184692,0 74.13316846529091,21.22607210854842,0 74.13316170316749,21.22660728675469,0 74.13315764588714,21.22692842278093,0 74.13315088376137,21.22746369653611,0 74.13326012222956,21.2278934606858,0 74.13336937176977,21.22832326257526,0 74.13359328919918,21.22875460566465,0 74.13381857318262,21.22907888917643,0 74.13427454926692,21.22929909025846,0 74.13461988264518,21.22919648923412,0 74.13508253184663,21.22888119935289,0 74.13542916637748,21.22867151604994,0 74.13589176239633,21.22835625780558,0 74.1363530106287,21.22814809532467,0 74.13692889291308,21.22794144115585,0 74.13738879951883,21.22784036371227,0 74.13796075450942,21.22795492665896,0 74.13841807418638,21.22806799337783,0 74.13887283897999,21.22839522212129,0 74.13909831147251,21.22871947876493,0 74.13909318707481,21.22914786053539,0 74.13908678181056,21.22968339110531,0 74.13896697648261,21.23011036187096,0 74.13895800014839,21.23086027584329,0 74.1392956798533,21.23140049996265,0 74.13940527107707,21.23183062615324,0 74.13962958040686,21.2322622916693,0 74.13985391508609,21.23269399570668,0 74.14007826987444,21.23312574125469,0 74.14030391557107,21.23345032527895,0 74.14075777313175,21.23388514141398,0 74.14098346479619,21.23420977998624,0 74.14132391141945,21.23453594005099,0 74.14166313545269,21.23496935737435,0 74.14188764190536,21.23540131469041,0 74.141997416023,21.23583181008515,0 74.14198994929906,21.23647537876447,0 74.1417554313274,21.23690147124849,0 74.14152213920723,21.23722031201133,0 74.14106053095918,21.23742888138148,0 74.14059764439007,21.23774475586515,0 74.14024950896177,21.23806215326959,0 74.13990008064502,21.23848688537504,0 74.13966541304274,21.23891315873331,0 74.13965905378177,21.239449810684,0 74.1396539665312,21.23987917948218,0 74.13976242266907,21.2404174505271,0 74.13975734136496,21.24084690933199,0 74.1398658176474,21.24138529045899,0 74.1399743056209,21.24192373761948,0 74.14008534250506,21.24224743816407,0 74.14030870260514,21.242787491532,0 74.14041850220232,21.2432186769786,0 74.14041219395742,21.2437558309161,0 74.14017868544704,21.24407514374313,0 74.13983029385604,21.24439297237019,0 74.13948314841875,21.24460336375566,0 74.13890880893135,21.24459583236321,0 74.13833189905216,21.2448032188972,0 74.13764138375119,21.24490164165163,0 74.13706573077769,21.24500157239638,0 74.13648875755467,21.24520897424464,0 74.13602663338231,21.24541789188381,0 74.13556184794967,21.24584178172806,0 74.13521455575115,21.24605223467414,0 74.13497948013311,21.24647920108105,0 74.13520395959769,21.24691224029782,0 74.13531356305377,21.24734381226858,0 74.13577052985946,21.2475648933987,0 74.13634374211298,21.24767996036334,0 74.13680336735824,21.2476859939572,0 74.13749280736913,21.24769504370303,0 74.13829716028299,21.24770560080081,0 74.13921642616188,21.24771766478013,0 74.13990588146265,21.24772671189957,0 74.14071025268224,21.24773726593927,0 74.14128480598896,21.24774480389787,0 74.14174445261114,21.24775083391304,0 74.14231901460232,21.24775837097584,0 74.14277743188484,21.24787193373795,0 74.14323586529862,21.24798549923327,0 74.14392293075643,21.24820962372925,0 74.14426405159719,21.24853678663249,0 74.14460640824252,21.24875641598604,0 74.14483144160711,21.24918967615618,0 74.14482661739086,21.24961996193744,0 74.14436322487927,21.24993666701823,0 74.14378851191832,21.24992912550204,0 74.14332874258498,21.24992309195349,0 74.14275280212964,21.25002313390832,0 74.14229303486545,21.250017099517,0 74.14183202458285,21.25011865116127,0 74.14137100520801,21.2502202045894,0 74.14090872284555,21.2504293533143,0 74.140333995389,21.2504218076884,0 74.139872947641,21.25052336638666,0 74.13941316284865,21.2505173290588,0 74.13872349074154,21.25050827257922,0 74.13826371355159,21.25050223461184,0 74.13768899085818,21.2504946867209,0 74.13711557418314,21.25037954426354,0 74.13665711275117,21.25026591411428,0 74.13619997617973,21.25004470055186,0 74.13562529472712,21.25003715222191,0 74.135050613403,21.25002960341636,0 74.13447593738346,21.25002205420322,0 74.13390126137003,21.2500145045129,0 74.13344152555035,21.25000846448258,0 74.13286955940926,21.24978575235145,0 
					</coordinates>
				</LinearRing>
			</outerBoundaryIs>
		</Polygon>
		<atom:link rel="app" href="https://www.google.com/earth/about/versions/#earth-pro" title="Google Earth Pro 7.3.7.1094"></atom:link>
	</Placemark>
</Document>
</kml>
