<?xml version="1.0" encoding="UTF-8"?>
<kml xmlns="http://www.opengis.net/kml/2.2" xmlns:gx="http://www.google.com/kml/ext/2.2" xmlns:kml="http://www.opengis.net/kml/2.2" xmlns:atom="http://www.w3.org/2005/Atom">
<Document>
	<name>आंबाफळी_९३_३34.kml</name>
	<StyleMap id="m_ylw-pushpin">
		<Pair>
			<key>normal</key>
			<styleUrl>#s_ylw-pushpin</styleUrl>
		</Pair>
		<Pair>
			<key>highlight</key>
			<styleUrl>#s_ylw-pushpin_hl</styleUrl>
		</Pair>
	</StyleMap>
	<Style id="s_ylw-pushpin">
		<IconStyle>
			<scale>1.1</scale>
			<Icon>
				<href>http://maps.google.com/mapfiles/kml/pushpin/ylw-pushpin.png</href>
			</Icon>
			<hotSpot x="20" y="2" xunits="pixels" yunits="pixels"/>
		</IconStyle>
		<LineStyle>
			<color>d600ffff</color>
			<width>2.8</width>
		</LineStyle>
		<PolyStyle>
			<color>8affffaa</color>
		</PolyStyle>
	</Style>
	<Style id="s_ylw-pushpin_hl">
		<IconStyle>
			<scale>1.3</scale>
			<Icon>
				<href>http://maps.google.com/mapfiles/kml/pushpin/ylw-pushpin.png</href>
			</Icon>
			<hotSpot x="20" y="2" xunits="pixels" yunits="pixels"/>
		</IconStyle>
		<LineStyle>
			<color>d600ffff</color>
			<width>2.8</width>
		</LineStyle>
		<PolyStyle>
			<color>8affffaa</color>
		</PolyStyle>
	</Style>
	<Placemark>
		<name>आंबाफळी_९३_३34</name>
		<styleUrl>#m_ylw-pushpin</styleUrl>
		<Polygon>
			<tessellate>1</tessellate>
			<outerBoundaryIs>
				<LinearRing>
					<coordinates>
						73.8464320191286,21.10732297380475,0 73.84643220888466,21.10723947195896,0 73.84643315703003,21.1068219627907,0 73.84625486829206,21.10648760105303,0 73.84598686214115,21.10623656296807,0 73.84571885535007,21.10598552371512,0 73.84571961298246,21.10565151496078,0 73.84598875475005,21.10540154226374,0 73.84634703909968,21.10531875160981,0 73.84670532507825,21.10523596048665,0 73.84706379286547,21.10506966726555,0 73.84751140654315,21.10507055403334,0 73.84786968067607,21.1049877612826,0 73.84831747619427,21.10490514477848,0 73.84867574509231,21.10482235086868,0 73.84912334720579,21.10482323374425,0 73.84957094639225,21.10482411537954,0 73.84992902121135,21.10482481979003,0 73.85037661522242,21.10482569919308,0 73.85073468594918,21.10482640181792,0 73.8510931288899,21.104660103651,0 73.85145119771703,21.10466080496595,0 73.85189896525927,21.1045781807793,0 73.85225740049009,21.10441188126292,0 73.8526156481383,21.10432908077097,0 73.8528843781888,21.1042461051589,0 73.85324298918864,21.10399630547774,0 73.85351190035058,21.10382983003502,0 73.85378062780894,21.1037468540487,0 73.85396038994462,21.10341320588863,0 73.8539613090641,21.10299571035484,0 73.85405155713339,21.10266188784296,0 73.85432082806304,21.1023284147061,0 73.8544110715299,21.10199459225076,0 73.85468015554227,21.10174461851517,0 73.85494923757322,21.10149464411046,0 73.85530709913577,21.10157884058622,0 73.85566459469179,21.10183003388529,0 73.85602227181994,21.10199772609654,0 73.85638013020056,21.10208191886139,0 73.85682767745946,21.10208278514559,0 73.85718571483935,21.10208347722888,0 73.85763325800221,21.10208434114706,0 73.85799147349741,21.10200153317095,0 73.8583498683094,21.10183522704907,0 73.85861911466026,21.1015017515281,0 73.85879885115745,21.10116810422774,0 73.85897858819943,21.10083445683007,0 73.85906881475141,21.10050063702267,0 73.85906971582351,21.10008314634404,0 73.85907061618725,21.0996656550916,0 73.85889232499473,21.09933131631166,0 73.85880335827105,21.09908064756286,0 73.85862506683929,21.09874630703851,0 73.85907277417144,21.09866367330327,0 73.85951976305422,21.09891503272764,0 73.85987742270065,21.09908271858883,0 73.86023562147803,21.09899990944615,0 73.86059363954989,21.09900059720708,0 73.86095147742687,21.09908478157427,0 73.86130949110859,21.09908546744473,0 73.86166786277687,21.09891915719057,0 73.86202587573139,21.09891984146421,0 73.86238388749474,21.09892052484134,0 73.86283139902338,21.09892137779922,0 73.86327891079659,21.09892222936037,0 73.86354741619881,21.09892273962324,0 73.86399492313838,21.09892358893971,0 73.86435292868886,21.09892426738691,0 73.8647112874782,21.09875795050014,0 73.86506928854651,21.09875862731263,0 73.86542746741961,21.0986758061302,0 73.86578546832331,21.0986764812263,0 73.86614329176335,21.0987606523675,0 73.86668028903486,21.09876166185904,0 73.86703846277599,21.09867883696996,0 73.86748578097509,21.09876317230432,0 73.8679330991707,21.09884750603367,0 73.86829109283052,21.09884817469059,0 73.86855923794283,21.09901566839861,0 73.86900672817529,21.0990165019546,0 73.86936454558034,21.09910066342534,0 73.86981203475166,21.09910149439158,0 73.87025952270507,21.09910232396309,0 73.87070700947748,21.09910315213997,0 73.87106499745821,21.09910381367626,0 73.87151265629306,21.09902114406114,0 73.87187064355135,21.09902180364411,0 73.87231812515395,21.09902262686303,0 73.87267611092982,21.09902328443488,0 73.87294407897707,21.09927426336058,0 73.87330171751523,21.09944191028585,0 73.8735700325327,21.09952589640291,0 73.87383782807562,21.09986036797992,0 73.87410579717269,21.10011134380588,0 73.87410493174816,21.1005288189952,0 73.87410406603,21.10094629364608,0 73.87410320001813,21.10136376779302,0 73.87419200360375,21.10169790967054,0 73.87428063509763,21.10211554585706,0 73.87454878004351,21.10228302332919,0 73.87490642192485,21.1024506626493,0 73.87508472468454,21.10278496535398,0 73.87535269765451,21.10303593520863,0 73.87544150433332,21.10337007435819,0 73.87535131469772,21.10370388913208,0 73.87552961881076,21.10403819009226,0 73.87552875438777,21.1044556607835,0 73.87561756045741,21.10478979889343,0 73.87570654062721,21.10504044289835,0 73.87570567607519,21.10545791289507,0 73.87570498425323,21.10579188894295,0 73.87570429227119,21.10612586492433,0 73.87552460160911,21.10645951757315,0 73.87525558415561,21.10670951437657,0 73.87507589120706,21.10704316682585,0 73.87471737171423,21.10729300127964,0 73.87462717597255,21.10762681558064,0 73.87480548160953,21.10796111577421,0 73.87507346146332,21.10821208332462,0 73.87525176823321,21.10854638278447,0 73.87560924946339,21.1087975108608,0 73.8758770589067,21.10913197086715,0 73.8762345416924,21.10938309723105,0 73.87650287070626,21.10946707397614,0 73.87668118092168,21.10980137177535,0 73.87703883885708,21.10996900227957,0 73.87730682367241,21.11021996575521,0 73.87757480968264,21.11047092850763,0 73.87775312228328,21.11080522520297,0 73.87802093706495,21.11113968150579,0 73.87819925169212,21.11147397765142,0 73.87855657019313,21.11180859345496,0 73.87882473158977,21.11197606052155,0 73.8790030487105,21.11231035618682,0 73.87909186378104,21.11264449254043,0 73.87891234442617,21.11289465713739,0 73.87864332154574,21.11314466172534,0 73.87846362772358,21.11347832049457,0 73.87828393329042,21.11381198013094,0 73.87828324424794,21.11414595877217,0 73.87819305134954,21.11447977818761,0 73.877924022855,21.11472978360402,0 73.87792333254141,21.11506376342371,0 73.87765430139032,21.11531376982751,0 73.87747460116368,21.11564743089834,0 73.87729489923578,21.11598109238759,0 73.87684737415879,21.11598029254571,0 73.87648952739143,21.11589615643648,0 73.87613168067489,21.11581202028163,0 73.87577383399152,21.11572788290193,0 73.875326307516,21.11572707976159,0 73.87496811174033,21.11580993223719,0 73.87460991394366,21.11589278363274,0 73.87416238480586,21.11589197816041,0 73.87380418601788,21.11597482896653,0 73.87344580940037,21.11614117525073,0 73.87308778420125,21.11614052914739,0 73.87272940487523,21.1163068740561,0 73.87237102490882,21.11647321927983,0 73.87201281904531,21.11655606790321,0 73.87165461303228,21.1166389160771,0 73.87129622748303,21.11680525971959,0 73.87084868775251,21.11680444810338,0 73.87049047786651,21.11688729482022,0 73.8701328001537,21.11671965094189,0 73.86968525771638,21.116718836891,0 73.86923771507215,21.11671802193188,0 73.86887967882514,21.11671736930705,0 73.86843213286015,21.11671655270774,0 73.86807391618768,21.1167993958251,0 73.8677158769341,21.11679874137497,0 73.86735765672063,21.11688158356466,0 73.86691010648259,21.11688076404995,0 73.8665520640221,21.11688010778365,0 73.86619402061092,21.1168794509375,0 73.86583579712392,21.11696229108079,0 73.8653880579577,21.11704496627381,0 73.86511915982337,21.1172114680076,0 73.86476111142422,21.11721080916253,0 73.86431355098263,21.11720998480157,0 73.8639551351007,21.11737631976494,0 73.86359689989587,21.11745915749724,0 73.8633281771672,21.11754216015471,0 73.86288060999739,21.11754133336115,0 73.86252255375176,21.11754067128448,0 73.86225419511881,21.11745667571498,0 73.86225511376284,21.1170391842014,0 73.862345362507,21.11670535655529,0 73.86270378126466,21.11653902404294,0 73.86297268841385,21.11637252514381,0 73.86333128579417,21.11612269466386,0 73.86368970005663,21.1159563614777,0 73.86386945191556,21.11562270268271,0 73.86404920420182,21.11528904453347,0 73.86431828262207,21.11503904918085,0 73.86449784802402,21.11478888921427,0 73.86485643382819,21.11453906043366,0 73.86494666891191,21.11420523881761,0 73.8652157403932,21.11395524468674,0 73.86521664418326,21.11353776197143,0 73.86521754743286,21.11312027979304,0 73.86512876036544,21.11278612885773,0 73.86504015387014,21.11236848164591,0 73.86486167938686,21.11211766132785,0 73.86468320512375,21.11186684016578,0 73.86432571298833,21.11161568670635,0 73.86423692694999,21.11128153511482,0 73.86423764968916,21.11094755041294,0 73.86414886351993,21.11061339925401,0 73.86423909407934,21.11027958131825,0 73.86432932377416,21.10994576397049,0 73.86441955261078,21.10961194660475,0 73.86442027310952,21.10927796292592,0 73.86433148591044,21.10894381222788,0 73.86424269870447,21.10860966156678,0 73.86415391148726,21.10827551063024,0 73.8640651262927,21.10794135955011,0 73.86388683219187,21.10760704078278,0 73.86388755175518,21.10727305693836,0 73.86370908003944,21.10702223353222,0 73.86344110176012,21.10677124167876,0 73.86308307636429,21.10677056920013,0 73.86272504983374,21.10676989596336,0 73.86227751657549,21.10676905335406,0 73.8618299814777,21.10676820956003,0 73.86147231289348,21.10660054052012,0 73.86111428142247,21.1065998636804,0 73.86075643010631,21.10651568934718,0 73.86021937999611,21.10651467137196,0 73.85986134430576,21.1065139917669,0 73.85950330934963,21.10651331140278,0 73.85887692433242,21.10642862162057,0 73.85869790324205,21.10642828042801,0 73.85833986411266,21.10642759747724,0 73.85789249312131,21.10634324510735,0 73.85753481517455,21.10617556489422,0 73.85717677206775,21.10617487912364,0 73.85681909231074,21.106007196765,0 73.85637153402807,21.10600633721996,0 73.85601348450413,21.10600564871284,0 73.85556591996556,21.10600478699197,0 73.85529738091132,21.10600426938179,0 73.85484944555664,21.10617040284499,0 73.85449120434426,21.10625321004776,0 73.8539539323077,21.10633567033482,0 73.85350635546037,21.10633480369446,0 73.8531481090221,21.10641760870278,0 73.85287956110849,21.10641708766713,0 73.85252130913074,21.10649989168607,0 73.85216305502539,21.10658269516552,0 73.85180479877215,21.10666549818353,0 73.85144654239049,21.10674830071201,0 73.85108809485209,21.1069146026558,0 73.85064049920288,21.10691372955624,0 73.85028242107624,21.10691303022601,0 73.84992434317736,21.10691233014294,0 73.84956588776318,21.10707863034879,0 73.8492074254559,21.10724493035848,0 73.84875981678135,21.10724405302156,0 73.84840173016214,21.10724335031179,0 73.84795411613855,21.10724247086219,0 73.84750650317088,21.10724159024676,0 73.84705850422073,21.107407711599,0 73.84670040794713,21.10740700562976,0 73.8464320191286,21.10732297380475,0 
					</coordinates>
				</LinearRing>
			</outerBoundaryIs>
		</Polygon>
		<atom:link rel="app" href="https://www.google.com/earth/about/versions/#earth-pro" title="Google Earth Pro 7.3.7.1094"></atom:link>
	</Placemark>
</Document>
</kml>
