<?xml version="1.0" encoding="UTF-8"?>
<kml xmlns="http://www.opengis.net/kml/2.2" xmlns:gx="http://www.google.com/kml/ext/2.2" xmlns:kml="http://www.opengis.net/kml/2.2" xmlns:atom="http://www.w3.org/2005/Atom">
<Document>
	<name>कारेघाठ ४१, ४२ आणि ४३_ 933.kml</name>
	<StyleMap id="m_ylw-pushpin">
		<Pair>
			<key>normal</key>
			<styleUrl>#s_ylw-pushpin</styleUrl>
		</Pair>
		<Pair>
			<key>highlight</key>
			<styleUrl>#s_ylw-pushpin_hl</styleUrl>
		</Pair>
	</StyleMap>
	<Style id="s_ylw-pushpin">
		<IconStyle>
			<scale>1.1</scale>
			<Icon>
				<href>http://maps.google.com/mapfiles/kml/pushpin/ylw-pushpin.png</href>
			</Icon>
			<hotSpot x="20" y="2" xunits="pixels" yunits="pixels"/>
		</IconStyle>
		<LineStyle>
			<color>d600ffff</color>
			<width>2.8</width>
		</LineStyle>
		<PolyStyle>
			<color>8affffaa</color>
		</PolyStyle>
	</Style>
	<Style id="s_ylw-pushpin_hl">
		<IconStyle>
			<scale>1.3</scale>
			<Icon>
				<href>http://maps.google.com/mapfiles/kml/pushpin/ylw-pushpin.png</href>
			</Icon>
			<hotSpot x="20" y="2" xunits="pixels" yunits="pixels"/>
		</IconStyle>
		<LineStyle>
			<color>d600ffff</color>
			<width>2.8</width>
		</LineStyle>
		<PolyStyle>
			<color>8affffaa</color>
		</PolyStyle>
	</Style>
	<Placemark>
		<name>कारेघाठ ४१, ४२ आणि ४३_ 933</name>
		<styleUrl>#m_ylw-pushpin</styleUrl>
		<Polygon>
			<tessellate>1</tessellate>
			<outerBoundaryIs>
				<LinearRing>
					<coordinates>
						73.61733203670815,21.14051546253609,0 73.61683242798972,21.14028044574187,0 73.61641623986331,21.14004570116328,0 73.61608346592558,21.13981123063632,0 73.6158338107842,21.13965482403176,0 73.61550103896795,21.13942035046537,0 73.61516795824258,21.13926366778839,0 73.61491799666661,21.13918505051804,0 73.61450210506311,21.13887250719115,0 73.61408529448252,21.13879333683312,0 73.61366817645984,21.13879195733498,0 73.61325166546474,21.13863499258853,0 73.61300230772619,21.13840078750849,0 73.61275355950873,21.13801099712873,0 73.6125042006457,21.13777679036313,0 73.61242199709166,21.13746534427826,0 73.61259006634532,21.13715473061135,0 73.61267470721749,21.13684384041848,0 73.61292619497019,21.13653350573928,0 73.6130105288437,21.13630040862495,0 73.61301235150799,21.1358336595333,0 73.61301356575818,21.13552249399019,0 73.61309850734378,21.1351338153606,0 73.6131831404677,21.13482292843758,0 73.61335089361123,21.13459011145428,0 73.61360236744882,21.13427978242273,0 73.61368699624713,21.1339688972034,0 73.61385504654686,21.13365829119763,0 73.61393997440294,21.13326961653368,0 73.61402490441614,21.13288094244789,0 73.6141095277676,21.13257005930586,0 73.61411073241001,21.13225889751767,0 73.61419535374667,21.13194801512907,0 73.61411313968951,21.13163657433192,0 73.61386438746933,21.13124678360677,0 73.61386619072545,21.13078004072248,0 73.61386739205614,21.13046887880401,0 73.61386859271471,21.13015771690422,0 73.6139532092359,21.12984683531704,0 73.61412124453024,21.12953623438561,0 73.61412244265959,21.12922507281847,0 73.61429047509596,21.12891447250194,0 73.61437508678576,21.12860359198121,0 73.61470994524824,21.1282935537894,0 73.61479396065103,21.12813825421912,0 73.61521222746205,21.1278284972026,0 73.61554678207335,21.1275962501279,0 73.61571479857449,21.12728565176465,0 73.61596622918773,21.12697533463561,0 73.61621736004042,21.1267428073529,0 73.61638537452905,21.1264322100775,0 73.61655338728855,21.12612161273044,0 73.61680480864149,21.12581129662147,0 73.6168062900073,21.12542234844625,0 73.61680777039969,21.12503339988462,0 73.61680895401241,21.12472224084641,0 73.61681072826474,21.12425550148241,0 73.61681220573763,21.12386655158195,0 73.61681397742126,21.12339981092124,0 73.61681545275388,21.12301085986775,0 73.61681722186742,21.12254411828359,0 73.6168186950603,21.12215516593216,0 73.61690298687424,21.12192207641757,0 73.61707098403112,21.12161147922194,0 73.61723868559943,21.1213786727061,0 73.61757378767612,21.12099084922396,0 73.61774177926782,21.12068025239975,0 73.61790976547402,21.12036965434324,0 73.61799434793036,21.1200587745855,0 73.61816233134242,21.11974817618656,0 73.61833002436791,21.11951536865095,0 73.61833148712584,21.11912641424552,0 73.61841606167751,21.11881553222783,0 73.61841723049054,21.11850436786138,0 73.61858521171594,21.11819376823108,0 73.61883630381656,21.11796124303082,0 73.61916992682927,21.11796237498483,0 73.61950354430734,21.11796350606252,0 73.61983745140633,21.11788684512976,0 73.62017048667434,21.11804355661792,0 73.62058750108233,21.11804496692699,0 73.62083712786954,21.11820139379243,0 73.62125385127285,21.1182805920853,0 73.62150347615226,21.11843701663999,0 73.62191990524366,21.11859400090428,0 73.62225292845751,21.11875070360634,0 73.62250225982363,21.11898491414795,0 73.62275130163142,21.11929691277185,0 73.62300063177814,21.11953111935421,0 73.6232499613327,21.11976532571705,0 73.62358327291989,21.11984423238968,0 73.62399969117473,21.12000120568098,0 73.62433329050948,21.1200023212478,0 73.62474970536621,21.12015929017499,0 73.62508301133354,21.12023819185732,0 73.62541602583765,21.12039488049121,0 73.62574932950056,21.12047377987501,0 73.62608234000973,21.1206304659026,0 73.62641593141568,21.12063157542749,0 73.62674894173203,21.12078825905769,0 73.62708253066643,21.12078936673549,0 73.62741611635703,21.12079047359111,0 73.62774970262048,21.12079157963725,0 73.62964358150272,21.1214373600495,0 73.63058426656562,21.12103430576769,0 73.63083358225262,21.12126848766917,0 73.63099921511169,21.12158017962855,0 73.63124853042406,21.12181435938325,0 73.63158181608463,21.12189324001801,0 73.63191510087279,21.12197212020205,0 73.6322480948353,21.12212878478999,0 73.63266477118555,21.12220793593722,0 73.63291494828968,21.12220875480229,0 73.63333190817977,21.12221011858563,0 73.63374886835166,21.12221148113812,0 73.63424921694708,21.12221311456341,0 73.63441599868092,21.12221365864065,0 73.63516651632392,21.12221610454892,0 73.63566686064902,21.12221773293481,0 73.63608381045194,21.12221908855581,0 73.6365007588484,21.12222044294054,0 73.63683431771446,21.12222152556198,0 73.63708505797032,21.12206676840986,0 73.63741918686009,21.12191228120753,0 73.6377530285734,21.12183557819693,0 73.63808658359703,21.12183665816655,0 73.63858691273492,21.12183827662002,0 73.63900385345374,21.12183962396473,0 73.63942079299078,21.12184097006401,0 73.63983773137808,21.12184231491796,0 73.64017128166165,21.12184338990579,0 73.64050483029641,21.12184446409369,0 73.64092205026196,21.12176802196919,0 73.64125559724731,21.1217690944151,0 73.64183930411579,21.12177096927919,0 73.64225623629601,21.12177230697138,0 73.64259006546807,21.12169559270191,0 73.64284107437645,21.12146304405641,0 73.64300869591688,21.12123022734261,0 73.64334308909758,21.12099794414781,0 73.64359352857305,21.12092096194737,0 73.64392791944483,21.12068867736663,0 73.64426174221852,21.12061195946429,0 73.64467894963862,21.12053550693604,0 73.64492938641872,21.12045852134957,0 73.64534659205133,21.12038206687836,0 73.64568041265149,21.12030534567951,0 73.6460145137428,21.12015084106594,0 73.64634805082302,21.12015190200986,0 73.64676553434688,21.11999765963073,0 73.64709963321582,21.11984315130652,0 73.64726752688244,21.11953254531576,0 73.64743542030423,21.11922193978053,0 73.64760303161387,21.1189891166124,0 73.64785402518537,21.11875655733581,0 73.64793881467953,21.11836790134039,0 73.6481067049579,21.11805729209739,0 73.64819121227472,21.11774641906147,0 73.6482757192328,21.11743554429635,0 73.64836022535765,21.11712466887842,0 73.64844473159961,21.11681379388862,0 73.64869543981985,21.11665901560336,0 73.64894502502587,21.1168153774415,0 73.64927827283962,21.11689421709942,0 73.64977856499104,21.11689579732919,0 73.65019547504225,21.11689711268108,0 73.65052844232247,21.1170537338303,0 73.65086168997385,21.11713256797657,0 73.65119409767259,21.1174447564214,0 73.65144340404039,21.1176788966976,0 73.65169299044028,21.11783525166084,0 73.65202595938096,21.11799186658172,0 73.65244287013127,21.11799317439198,0 73.65277583960004,21.11814978826724,0 73.65310908881224,21.11822861691344,0 73.65344233820228,21.11830744465732,0 73.65377558778762,21.11838627150302,0 73.65419249882393,21.1183875736693,0 73.65444348199193,21.11815500176945,0 73.6548606712504,21.11807851753798,0 73.65519475678441,21.11792398795096,0 73.65552856337385,21.11784724285578,0 73.65594603010999,21.1176929704846,0 73.6563629400145,21.11769426565334,0 73.65669646804659,21.1176953008173,0 73.65702971824997,21.11777411961466,0 73.65744662888544,21.11777541129106,0 73.6578635395196,21.11777670162031,0 73.6582804506595,21.11777799060397,0 73.65861425683329,21.11770123626171,0 73.65894778642992,21.11770226560219,0 73.65944808030203,21.11770380799231,0 73.65978133305238,21.11778261979774,0 73.66011403265129,21.11801699874343,0 73.6603633503767,21.11825112138647,0 73.66061211613157,21.11864081187092,0 73.66077777584478,21.11895245983611,0 73.66077666985018,21.11926359599155,0 73.66094233106601,21.11957524276967,0 73.66077445816717,21.11988586555837,0 73.66044009449163,21.12011819117565,0 73.66027222125267,21.12042881111875,0 73.66002123998487,21.12066139133444,0 73.65977025880684,21.12089397072289,0 73.6595192772336,21.12112654820135,0 73.65935140186129,21.12143716618895,0 73.65918352656499,21.12174778290637,0 73.65901565038247,21.12205839891687,0 73.65884777425333,21.1223690142425,0 73.65876328167739,21.12267988707535,0 73.65867878890361,21.12299075889194,0 73.65867740360608,21.12337967031511,0 73.65867601841138,21.12376858118804,0 73.65884168055831,21.12408022476156,0 73.65900734293982,21.1243918678952,0 73.65934033040278,21.12454846191946,0 73.65967331872619,21.12470505464904,0 73.66000630792665,21.1248616471877,0 73.66025563640436,21.1250957635935,0 73.66058862743658,21.12525235484874,0 73.66075457108535,21.12548621361294,0 73.66100390167551,21.12572032923222,0 73.66116984714814,21.12595418743549,0 73.66141890382723,21.12626608365141,0 73.66133441455868,21.12657695434291,0 73.66100059193779,21.12665370978642,0 73.66058365899828,21.12665242617185,0 73.6601667260629,21.12665114143739,0 73.65974979357455,21.12664985558439,0 73.65941569494377,21.12680438940392,0 73.65899876278397,21.12680310149064,0 73.65866521740985,21.12680207035764,0 73.65833111820049,21.12695660138565,0 73.65791418674316,21.12695531053806,0 73.65758091906115,21.12687649552256,0 73.65716398803494,21.12687520268879,0 73.65683016572817,21.1269519491329,0 73.65649606533469,21.12710647604369,0 73.65632845900427,21.12733930197131,0 73.65616057418885,21.12764990874316,0 73.65599268877048,21.12796051517023,0 73.65582480273773,21.12827112154518,0 73.65574030302368,21.12858198682655,0 73.65548902879233,21.12889233298426,0 73.65548791538608,21.12920345764946,0 73.65532030555724,21.12943628177503,0 73.6552355258011,21.12982492771017,0 73.65498452715244,21.13005749165401,0 73.65473324907471,21.13036783630152,0 73.65448224882384,21.13060039947296,0 73.65423124777064,21.13083296227677,0 73.65389713683292,21.13098748322228,0 73.65356274573428,21.13121978466064,0 73.65339513062845,21.13145260683669,0 73.65322723541932,21.13176321007374,0 73.65314272834505,21.13207407399214,0 73.65297483179572,21.13238467702337,0 73.65289032374159,21.13269554101638,0 73.65280581528332,21.1330064050886,0 73.6525548070461,21.13323896610228,0 73.65230407787196,21.13339374547014,0 73.65197023862375,21.13347048217274,0 73.65163639888097,21.13354721802369,0 73.65130283928795,21.13354617211916,0 73.65080249961311,21.13354460213045,0 73.65046865848039,21.13362133620392,0 73.6501345354428,21.13377585096188,0 73.64980069295335,21.13385258393815,0 73.64946684985682,21.13392931608658,0 73.64913300613381,21.13400604795822,0 73.64888283458919,21.13400526028078,0 73.64846531674223,21.13415950979306,0 73.64804808002648,21.1342359768123,0 73.64771366796614,21.13446826963348,0 73.64746264582233,21.13470082533488,0 73.64729473066222,21.13501142581917,0 73.64729331522361,21.13540033494339,0 73.64712539890263,21.13571093597871,0 73.64687408866735,21.13602127447363,0 73.64662277737605,21.13633161254694,0 73.64645514123768,21.13656443192499,0 73.64620382681113,21.13687477028943,0 73.64595279537014,21.13710732690456,0 73.64561836951138,21.13733961929475,0 73.64545044431787,21.13765022177235,0 73.64511601428929,21.13788251473227,0 73.64478186836025,21.13803702416039,0 73.64453083012576,21.13826958085355,0 73.64419668053362,21.13842408990025,0 73.64386253050674,21.13857859922374,0 73.64352809230546,21.13881089096577,0 73.64319393921576,21.13896539986418,0 73.64294289288834,21.13919795597194,0 73.64252591426377,21.1391966328747,0 73.6421089337814,21.13919530897448,0 73.64185931911337,21.13903894765778,0 73.64160941667031,21.13896036900504,0 73.64119329683342,21.13872569243253,0 73.6409436828242,21.13856932987269,0 73.64061009779648,21.13856826797391,0 73.64027622328614,21.13864498919153,0 73.6400260331599,21.1386441920723,0 73.63944225496323,21.13864233098802,0 73.63919177398265,21.1387193161884,0 73.63877449783794,21.13879576939269,0 73.63844061842401,21.13887248830688,0 73.63819013551132,21.138949473276,0 73.63785625293718,21.13902619156232,0 73.63743868204702,21.13918042661098,0 73.63710508646017,21.13917935973918,0 73.6367711998038,21.13925607683471,0 73.63643731183649,21.13933279357916,0 73.63601973336213,21.13948702701867,0 73.63568584220543,21.13956374306131,0 73.63543535062001,21.13964072609981,0 73.63501805767002,21.13971717414583,0 73.63460076077385,21.13979362160989,0 73.63418346369848,21.13987006851029,0 73.63384956491934,21.13994678269614,0 73.63351507956347,21.14017906650568,0 73.63318117925887,21.14025578028948,0 73.63276387219564,21.14033222563419,0 73.6324296732809,21.14048672462042,0 73.63209518055864,21.14071900967117,0 73.63176097726276,21.14087350765061,0 73.63142706606818,21.14095022031705,0 73.63109315327881,21.14102693270558,0 73.63075924077746,21.14110364482633,0 73.63042532474603,21.14118035667108,0 73.63009140706737,21.14125706824992,0 73.62967408292134,21.14133351060514,0 73.62942297720858,21.14156606384693,0 73.62908875799482,21.14172056224662,0 73.62883824068626,21.14179754234639,0 73.62858712946856,21.1420300975684,0 73.62825260757204,21.14226238411004,0 73.62833482927171,21.14257380376968,0 73.62858416366321,21.14280797468123,0 73.62874979264222,21.14311966347386,0 73.62891542179872,21.14343135348206,0 73.6289976439576,21.14374277517571,0 73.62916297668373,21.14413225303684,0 73.62932860827753,21.14444394380144,0 73.62932712420957,21.14483288644925,0 73.6294927541983,21.1451445780536,0 73.62957497647047,21.14545600105848,0 73.62965690176513,21.14584521501659,0 73.62973912208159,21.14615663924724,0 73.62982134429498,21.14646806513886,0 73.62998727223798,21.1467019690315,0 73.63015290531644,21.14701366184115,0 73.63031853678035,21.14732535608987,0 73.63040075960799,21.14763678385463,0 73.6303995713774,21.14794794439589,0 73.63048179408231,21.14825937357077,0 73.63048030804246,21.14864832671715,0 73.63056252869912,21.14895975756167,0 73.63056133926904,21.14927092278002,0 73.63055985192734,21.14965987841828,0 73.63022560804912,21.14981439702479,0 73.62989196000065,21.14981333175567,0 73.62964261700853,21.14957915659401,0 73.62939387088439,21.14918940004843,0 73.62922793975952,21.14895549170453,0 73.62914572009997,21.14864405901042,0 73.62881296748307,21.14840961817085,0 73.6285636260374,21.14817544301138,0 73.62831398607528,21.14801905883168,0 73.62798123167757,21.14778461577078,0 73.62773189058005,21.14755044096935,0 73.62748225052049,21.14739405584356,0 73.62723320880508,21.1470820885841,0 73.62706757885239,21.14677039050388,0 73.62673452558211,21.14661373640867,0 73.62648518505965,21.1463795594151,0 73.62623584460988,21.14614538216303,0 73.62598650421478,21.14591120573376,0 73.62582057767841,21.14567729677853,0 73.62557153724005,21.14536532848495,0 73.62532219711473,21.145131151378,0 73.62515656889767,21.14481945201194,0 73.6249906428112,21.14458554285843,0 73.62482501670169,21.14427384477314,0 73.62465908888645,21.14403993557432,0 73.62449346295267,21.14372823760831,0 73.62449466233289,21.14341707882948,0 73.62449616085229,21.14302813234585,0 73.62449735910995,21.14271697498141,0 73.62458196955154,21.142406088647,0 73.6247499893153,21.14209547466831,0 73.62500112028566,21.14186291968636,0 73.62458436311483,21.14178377819658,0 73.62425131407936,21.14162711765204,0 73.62416909850042,21.1413156926921,0 73.62408688277583,21.14100426691283,0 73.62400466879339,21.14069284249259,0 73.62383904078712,21.14038114580288,0 73.62350569497956,21.14030227128826,0 73.62317264552324,21.14014560743657,0 73.62283959527615,21.13998894273036,0 73.62250654611397,21.13983227826042,0 73.62225720735871,21.13959809536395,0 73.62200786838385,21.13936391243195,0 73.62167481374915,21.13920724444636,0 73.62134146194396,21.13912836447551,0 73.62082999306101,21.13962233781904,0 73.62066831500776,21.13962180824442,0 73.62046621853086,21.13962114613939,0 73.62026411962512,21.13962048387048,0 73.62010243933608,21.13961995393926,0 73.61994202232083,21.13954369377337,0 73.61981886601859,21.1396568948187,0 73.61969568705938,21.13977011635108,0 73.6195327008336,21.13984534365175,0 73.61936969260863,21.13992057948067,0 73.61920731946921,21.13995793588179,0 73.61908405380777,21.1400712120402,0 73.6189209875747,21.14014647564359,0 73.6187585701712,21.14018384558295,0 73.61859681458991,21.14018331496824,0 73.61843370273806,21.14025859156866,0 73.61826989041555,21.1403717897209,0 73.61810673494513,21.14044708962374,0 73.61798400916206,21.14052253134421,0 73.6178208139206,21.14059784945853,0 73.61765760027635,21.14067317615245,0 73.61757598492886,21.14071084317955,0 73.61741415759251,21.14071031212374,0 73.61733203670815,21.14051546253609,0 
					</coordinates>
				</LinearRing>
			</outerBoundaryIs>
		</Polygon>
		<atom:link rel="app" href="https://www.google.com/earth/about/versions/#earth-pro" title="Google Earth Pro 7.3.7.1094"></atom:link>
	</Placemark>
</Document>
</kml>
