<?xml version="1.0" encoding="UTF-8"?>
<kml xmlns="http://www.opengis.net/kml/2.2" xmlns:gx="http://www.google.com/kml/ext/2.2" xmlns:kml="http://www.opengis.net/kml/2.2" xmlns:atom="http://www.w3.org/2005/Atom">
<Document>
	<Placemark id="0B6EB493B81F81F47B69">
		<Polygon>
			<outerBoundaryIs>
				<LinearRing>
					<coordinates> 74.3988717,21.87229,649.9 74.3988901,21.872278,648.1 74.3988978,21.8722597,647.9 74.3989105,21.872243,648.0 74.3989172,21.8722632,647.6 74.3989,21.8722717,648.8 74.3988955,21.8722532,651.6 74.398874,21.8722633,652.7 74.398859,21.8722453,651.8 74.3988298,21.8722265,651.5 74.3988112,21.8722008,650.4 74.3987862,21.8721717,650.0 74.3987628,21.872147,651.5 74.3987481,21.8721232,652.0 74.3987304,21.8721024,652.8 74.39872,21.8720826,653.0 74.3987116,21.8720534,653.6 74.3986966,21.8720298,653.8 74.3986869,21.8720122,653.6 74.3986764,21.8719957,653.3 74.3986671,21.8719724,653.5 74.3986544,21.8719542,653.9 74.3986407,21.8719295,653.6 74.3986281,21.8719116,653.6 74.3986246,21.871881,653.3 74.3986053,21.8718525,653.3 74.398586,21.8718315,654.8 74.3985778,21.87181,655.0 74.3985647,21.8717916,656.4 74.3985522,21.8717703,656.9 74.3985403,21.8717506,659.3 74.398525,21.8717245,661.7 74.3985525,21.8717061,661.9 74.3985746,21.8716799,662.2 74.3985937,21.8716629,662.0 74.398617,21.8716465,662.1 74.3986383,21.8716363,661.9 74.3986626,21.8716246,661.7 74.3986799,21.8716108,662.0 74.3986968,21.8715926,662.1 74.3987082,21.8715687,662.0 74.3987173,21.8715436,661.7 74.3987171,21.8715029,661.2 74.3987134,21.8714726,660.6 74.3987148,21.8714427,660.3 74.3987229,21.8714188,658.7 74.3987383,21.8713977,657.8 74.3987616,21.871387,658.1 74.3987724,21.8713631,657.7 74.398763,21.8713365,657.5 74.3987578,21.871313,657.7 74.3987496,21.8712844,657.7 74.398739,21.8712559,657.5 74.3987328,21.8712235,657.6 74.39873,21.8711938,657.6 74.3987185,21.8711643,657.3 74.3987144,21.8711454,657.2 74.3987025,21.8711235,657.0 74.3986919,21.8711041,657.3 74.3986715,21.871088,657.9 74.3986515,21.8710698,658.5 74.3986463,21.8710475,658.8 74.3986419,21.8710289,659.7 74.3986303,21.8710076,661.0 74.3986156,21.8709899,662.7 74.3986062,21.8709662,663.4 74.3985753,21.8709444,664.1 74.398568,21.8709154,662.8 74.3985625,21.870894,663.1 74.3985546,21.870869,663.2 74.3985449,21.8708503,663.5 74.3985318,21.8708285,663.9 74.3985168,21.8708026,665.2 74.3984997,21.8707766,665.4 74.398488,21.8707558,665.6 74.398457,21.8707153,665.9 74.398444,21.8706983,666.4 74.3984355,21.8706768,665.2 74.3984338,21.8706543,665.3 74.3984334,21.8706189,667.2 74.3984313,21.8705955,666.6 74.3984359,21.8705735,666.8 74.3984305,21.8705497,666.2 74.3984262,21.8705188,664.6 74.3984365,21.8704817,664.1 74.3984253,21.8704558,664.2 74.3984145,21.8704388,665.2 74.3983845,21.87042,665.5 74.3983862,21.8703997,665.9 74.3983725,21.8703826,664.9 74.3983691,21.8703559,664.9 74.3983679,21.8703306,665.5 74.3983511,21.8702916,665.5 74.3983456,21.8702681,666.2 74.3983373,21.8702517,666.3 74.3983233,21.870239,667.7 74.3982989,21.8702226,670.2 74.3982824,21.870206,670.6 74.3982724,21.8701835,672.5 74.3982695,21.8701552,673.2 74.3982724,21.8701252,673.3 74.3982757,21.8701052,673.0 74.3982837,21.8700883,673.6 74.3982864,21.8700627,674.3 74.3982758,21.8700289,674.8 74.3982848,21.8700024,674.5 74.3983101,21.8699882,673.5 74.398335,21.8699666,672.6 74.398371,21.8699521,671.6 74.3983992,21.8699238,670.5 74.3984236,21.8699123,671.0 74.3984117,21.869884,669.7 74.3984151,21.86986,669.0 74.3984045,21.8698387,669.0 74.3983874,21.8698191,669.0 74.3984052,21.8698496,669.0 74.398411,21.8698678,669.0 74.3983462,21.8698233,667.5 74.3983278,21.8698009,666.7 74.3983097,21.8697769,668.2 74.3983246,21.8697462,668.4 74.3983034,21.8697275,667.2 74.3982963,21.8697092,665.3 74.3983075,21.8696894,661.7 74.3983268,21.8696769,657.8 74.3983537,21.8696769,655.9 74.3983964,21.8696639,653.7 74.3984356,21.8696554,652.7 74.398464,21.8696628,651.4 74.3984818,21.8696382,651.3 74.3984876,21.8696139,650.4 74.3984442,21.8695828,649.9 74.3984145,21.8695474,650.3 74.3984054,21.8695153,650.7 74.3984091,21.8694864,650.6 74.3983974,21.8694534,649.6 74.3983929,21.8694285,649.3 74.3983919,21.8694095,648.5 74.398379,21.8693896,648.4 74.3983985,21.8693552,648.9 74.3984032,21.8693218,648.8 74.3983861,21.8692943,648.8 74.3983656,21.8692677,648.6 74.3983546,21.8692461,648.7 74.3983629,21.869228,648.6 74.3983924,21.8692402,648.7 74.3984205,21.8692146,648.2 74.3984388,21.8692071,647.7 74.3984414,21.8691534,646.3 74.3984694,21.8691392,645.4 74.3985028,21.8691383,644.2 74.3985186,21.8691068,642.8 74.3985035,21.8690747,643.1 74.398481,21.8690449,642.8 74.3984996,21.8690189,642.9 74.3985296,21.8689778,643.9 74.3985566,21.8689646,644.3 74.3985812,21.8689701,645.6 74.3985389,21.8688722,646.0 74.3985347,21.8688363,646.5 74.3985581,21.8688236,646.1 74.39858,21.8688152,645.8 74.3985697,21.8687823,645.6 74.3985557,21.8687564,645.2 74.3985505,21.8687357,645.0 74.3985507,21.86871,645.1 74.3985542,21.8686911,644.9 74.3985688,21.8686466,653.9 74.3985732,21.868624,658.3 74.3985904,21.8686026,662.6 74.3986034,21.8685866,663.3 74.3986161,21.8685571,663.4 74.3986333,21.8685264,663.7 74.3985973,21.8684533,664.2 74.3988951,21.8654644,568.1 74.3989324,21.8654756,552.8 74.3989823,21.8654962,552.0 74.3990128,21.8655149,553.5 74.39906,21.8655523,553.9 74.3990848,21.8655795,554.5 74.3991171,21.8656008,555.0 74.3991436,21.8656118,551.9 74.3991666,21.8656186,551.0 74.3992033,21.8656176,549.5 74.399233,21.8656152,549.4 74.3992545,21.865616,549.5 74.3992758,21.8656187,549.5 74.3993074,21.8655847,549.1999999999999 74.3993229,21.8655656,549.4 74.3993332,21.8655474,549.4 74.3993531,21.8655162,549.9 74.3993722,21.8655025,549.5 74.3993977,21.8654937,549.6 74.3994171,21.8654836,549.6999999999999 74.3994363,21.8654719,548.6999999999999 74.3994585,21.8654633,548.0 74.3994723,21.8654446,547.1 74.399493,21.8654243,546.0 74.3995203,21.8654198,544.0 74.3995375,21.8654,543.6 74.3995519,21.8653831,542.8 74.3995657,21.8653653,542.6 74.3995809,21.8653497,542.6999999999999 74.3995927,21.865329,542.5 74.3996013,21.8653076,542.1999999999999 74.3996116,21.8652752,541.0 74.3996173,21.8652564,540.3 74.3996303,21.8652368,539.6999999999999 74.3996598,21.8652175,538.6999999999999 74.3996838,21.8651994,538.4 74.3997113,21.8651923,538.0 74.3997277,21.8651825,537.8 74.399766,21.8651714,539.1999999999999 74.3997926,21.8651705,539.8 74.3997834,21.8651315,541.3 74.3997996,21.8651128,541.9 74.3998167,21.8650984,540.8 74.3998261,21.8650798,541.9 74.3998156,21.8650978,542.3 74.3998102,21.8651164,542.0 74.3998094,21.8651414,542.5 74.3997939,21.86516,543.0 74.3997947,21.8651941,543.1999999999999 74.3998233,21.8652111,543.1 74.3998561,21.8652239,542.0 74.3998766,21.8652396,541.5 74.399892,21.8652666,540.6 74.3998904,21.8652909,540.1 74.3998802,21.8653141,540.3 74.3998842,21.8653361,540.0 74.3999019,21.8653563,539.5 74.3999279,21.8653635,538.6 74.399949,21.865359,536.6999999999999 74.3999629,21.865386,533.5 74.3999908,21.8654263,531.6999999999999 74.4000307,21.8654306,530.6 74.4000664,21.8654602,529.8 74.4000991,21.8654803,529.8 74.4001287,21.8654878,530.0 74.4001448,21.8655,529.8 74.400175,21.8655081,530.4 74.400201,21.8655203,530.4 74.4002289,21.8655447,530.9 74.4002437,21.865568,531.0 74.4002718,21.8655881,531.0 74.4002956,21.8656117,530.6999999999999 74.4003123,21.8656299,530.3 74.4003351,21.8656291,530.3 74.4003647,21.8656177,530.4 74.4003888,21.8656265,530.5 74.4004137,21.8656322,530.5 74.4004297,21.8656566,530.6 74.4004263,21.8656804,531.3 74.4004342,21.8657008,531.6999999999999 74.4004576,21.865715,532.1 74.4004841,21.8657297,532.0 74.400512,21.8657448,532.5 74.4005455,21.8657549,532.8 74.4005781,21.8657647,532.9 74.4006043,21.8657744,533.6999999999999 74.4006353,21.8657747,534.5 74.4006617,21.8657692,535.0 74.4006924,21.8657629,535.8 74.4007169,21.8657602,536.3 74.4007349,21.8657702,537.0 74.4007551,21.8657692,537.6999999999999 74.400775,21.8657697,537.9 74.4008021,21.8657745,538.1999999999999 74.4008297,21.865778,538.1999999999999 74.4008592,21.8657741,538.3 74.4008876,21.8657727,537.9 74.4009134,21.865773,537.8 74.400936,21.8657764,537.8 74.4009791,21.8657807,538.6999999999999 74.4009995,21.8657828,539.1 74.4010238,21.8657822,539.6 74.4010523,21.8657865,539.8 74.4010806,21.8657894,540.1999999999999 74.4011118,21.8657927,540.3 74.4011314,21.865795,540.5 74.401155,21.8657875,540.9 74.4011829,21.8657793,541.6 74.4011967,21.8657651,541.5 74.4012128,21.8657426,542.3 74.4012329,21.8657315,542.8 74.4012722,21.8657352,542.4 74.4013025,21.8657338,541.6999999999999 74.4013303,21.8657342,540.3 74.4013523,21.8657243,539.5 74.4013765,21.8657106,539.1 74.4013957,21.865697,538.6 74.4014056,21.8656793,538.3 74.4014032,21.8656574,538.0 74.401395,21.8656167,539.9 74.4013742,21.8655767,539.9 74.4013667,21.8655579,539.9 74.401354,21.865543,540.1 74.4013358,21.8655217,540.3 74.4013258,21.8655043,540.6999999999999 74.4013156,21.8654823,541.6999999999999 74.4013069,21.8654615,542.8 74.4013016,21.8654415,543.5 74.4012904,21.8654127,543.8 74.4012747,21.8653988,544.4 74.4012595,21.8653624,546.1 74.4012418,21.8653415,547.1 74.4012252,21.8653146,548.8 74.401202,21.8652744,549.6999999999999 74.4011994,21.8652537,550.1999999999999 74.4012047,21.8652275,551.3 74.401185,21.8652211,553.1999999999999 74.401161,21.8652135,553.6 74.4011452,21.8651947,552.8 74.4011435,21.865169,551.8 74.4011394,21.8651499,551.6 74.4011323,21.8651264,551.5 74.4011356,21.8651019,551.3 74.4011409,21.8650748,551.1999999999999 74.4011553,21.8650509,551.0 74.4011606,21.8650222,550.3 74.4011683,21.8649984,550.4 74.4011911,21.8649873,549.1 74.4011987,21.864959,547.3 74.4011895,21.8649292,546.1999999999999 74.4011853,21.8649113,545.9 74.4011931,21.8648935,545.4 74.4012176,21.8648774,545.3 74.4012317,21.8648577,544.8 74.4013065,21.864852,544.4 74.4013743,21.8648664,544.3 74.4014009,21.864864,544.3 74.4014163,21.8648525,544.6999999999999 74.4014522,21.8648351,544.6999999999999 74.4014712,21.8648288,544.6 74.4014936,21.8647771,544.0 74.4015042,21.8647464,544.1999999999999 74.4015134,21.8647267,544.1999999999999 74.4015285,21.8647148,544.4 74.4015549,21.8646872,544.4 74.4015663,21.8646699,544.1999999999999 74.4015764,21.8646544,544.3 74.4015883,21.8646213,544.1999999999999 74.401592,21.8645893,543.8 74.4015931,21.8645695,543.1 74.4015864,21.8645462,543.4 74.4015801,21.8645248,544.5 74.4015696,21.8644983,544.9 74.4015638,21.8644786,545.0 74.4015528,21.864451,545.1 74.4015405,21.864431,544.9 74.4015151,21.8644062,545.9 74.4014927,21.8644122,546.5 74.4014666,21.8644073,549.9 74.401455,21.8643913,550.0 74.4014761,21.8643897,551.9 74.4014551,21.8643833,553.3 74.404335,21.8606867,511.9 74.4042888,21.8606562,532.3 74.4043093,21.8606607,537.6 74.4043358,21.8606592,537.4 74.4043516,21.8606384,535.8 74.404362,21.8606146,535.8 74.4043792,21.8605779,535.6 74.4043985,21.8605538,535.6 74.4044318,21.8605255,535.5 74.4044527,21.8605112,536.1999999999999 74.4044566,21.8604873,536.5 74.4044483,21.8604613,536.6999999999999 74.4044262,21.8604395,536.5 74.4044203,21.8604129,536.9 74.4043916,21.8604157,537.1 74.4043796,21.8603778,536.9 74.4043723,21.8603542,535.9 74.4043879,21.8603346,535.5 74.4044044,21.8603204,535.0 74.4044307,21.8603167,535.0 74.4044611,21.8603252,535.0 74.4048631,21.8589689,535.0 74.405283,21.8587738,534.9 74.405262,21.8586821,534.9 74.4052401,21.8586068,534.6 74.4052242,21.8585636,531.3 74.4052316,21.8585384,532.1 74.4052372,21.8585184,532.0 74.4052434,21.858496,532.4 74.4052636,21.8584991,532.3 74.4052879,21.8585036,532.1 74.4053089,21.8585053,531.8 74.4052923,21.8584778,529.6 74.4052835,21.8584604,528.1 74.4052735,21.8584335,524.1999999999999 74.4052773,21.8584069,517.3 74.4052986,21.8584184,505.6 74.405316,21.8584041,500.19999999999993 74.4052947,21.8583615,493.6 74.4052737,21.8583478,487.6 74.4052617,21.8583172,477.0 74.4052542,21.8582907,477.0 74.4052351,21.8582668,477.0 74.4052681,21.8583163,477.0 74.4052844,21.8582938,476.1 74.4052612,21.8582262,472.19999999999993 74.4052626,21.8581716,470.9 74.4052736,21.8581363,469.19999999999993 74.4052928,21.8580983,466.5 74.4053163,21.8580763,463.5 74.4053296,21.858061,461.29999999999995 74.405351,21.8580409,458.4 74.4053682,21.8580312,457.1 74.4053962,21.8580291,455.5 74.4054174,21.8580158,455.1 74.405435,21.8579869,454.6 74.4054435,21.85796,453.9 74.4054503,21.8579342,453.4 74.4054367,21.8579066,453.79999999999995 74.4054337,21.8578702,453.0 74.405438,21.8578506,452.5 74.4054312,21.8578234,450.7 74.4054293,21.8577953,450.59999999999997 74.4054428,21.8577721,451.0 74.4054428,21.8577517,450.7 74.4054452,21.8577325,451.0 74.4054457,21.8576963,451.1 74.4054401,21.8576574,450.9 74.4054323,21.8576263,449.09999999999997 74.4054491,21.8576116,448.5 74.4054577,21.8575871,448.29999999999995 74.4054589,21.8575674,447.9 74.4054718,21.8575387,447.59999999999997 74.4054847,21.8575249,447.2 74.4054755,21.8574993,446.5 74.4054775,21.8574777,446.4 74.4054812,21.8574594,446.4 74.4054674,21.857445,446.2 74.4054414,21.8574324,446.09999999999997 74.4054214,21.8574144,445.59999999999997 74.4054054,21.8573927,444.7 74.4053875,21.8573848,444.2 74.4053919,21.8573599,442.59999999999997 74.4054265,21.8573356,442.59999999999997 74.40544,21.8573211,442.59999999999997 74.4054552,21.8573048,442.59999999999997 74.4054811,21.8573026,442.59999999999997 74.4055244,21.8573831,442.59999999999997 74.4098217,21.8550267,402.7 74.4098871,21.8551709,405.9 74.4098905,21.8550258,405.9 74.4098423,21.8550015,405.9 74.4098492,21.8549643,406.0 74.4098668,21.8549555,406.0 74.4098717,21.8549752,405.59999999999997 74.40999,21.8546617,405.09999999999997 74.4099517,21.854815,405.09999999999997 74.409845,21.8549317,405.09999999999997 74.4098367,21.85495,404.7 74.4098144,21.8550974,381.0 74.4098127,21.8550633,381.2 74.4098243,21.8550802,380.9 74.4106891,21.8527415,390.5 74.410704,21.8527174,394.2 74.4107227,21.8527021,394.79999999999995 74.4107282,21.8526796,394.09999999999997 74.4107462,21.8526573,394.29999999999995 74.4107742,21.8526602,394.09999999999997 74.4108013,21.8526679,394.0 74.4108215,21.8526711,394.59999999999997 74.4108597,21.8526647,394.9 74.4108809,21.8526659,394.59999999999997 74.4109087,21.8526633,394.7 74.4109346,21.8526624,395.59999999999997 74.41096,21.8526683,397.09999999999997 74.4109833,21.8526746,397.9 74.4110058,21.8526791,398.4 74.4110285,21.8526786,398.29999999999995 74.4110604,21.8526719,397.59999999999997 74.4110974,21.8526694,397.7 74.4110939,21.8526889,398.5 74.4110772,21.8526795,399.5 74.4110783,21.8526982,400.0 74.4110807,21.852735,400.4 74.4110901,21.852716,401.7 74.4152444,21.848278,374.59999999999997 74.4152159,21.8482729,371.0 74.4151914,21.8482538,366.2 74.4152,21.8482345,367.29999999999995 74.4151784,21.8482271,367.09999999999997 74.4151374,21.8482218,366.59999999999997 74.4150867,21.8482323,365.7 74.4151111,21.8482368,365.59999999999997 74.3988717,21.87229,649.9 </coordinates>
				</LinearRing>
			</outerBoundaryIs>
		</Polygon>
	</Placemark>
</Document>
</kml>