<?xml version="1.0" encoding="UTF-8"?>
<kml xmlns="http://www.opengis.net/kml/2.2" xmlns:gx="http://www.google.com/kml/ext/2.2" xmlns:kml="http://www.opengis.net/kml/2.2" xmlns:atom="http://www.w3.org/2005/Atom">
<Document>
	<name>करंजाळी_१२_२18.kml</name>
	<StyleMap id="m_ylw-pushpin">
		<Pair>
			<key>normal</key>
			<styleUrl>#s_ylw-pushpin</styleUrl>
		</Pair>
		<Pair>
			<key>highlight</key>
			<styleUrl>#s_ylw-pushpin_hl</styleUrl>
		</Pair>
	</StyleMap>
	<Style id="s_ylw-pushpin">
		<IconStyle>
			<scale>1.1</scale>
			<Icon>
				<href>http://maps.google.com/mapfiles/kml/pushpin/ylw-pushpin.png</href>
			</Icon>
			<hotSpot x="20" y="2" xunits="pixels" yunits="pixels"/>
		</IconStyle>
		<LineStyle>
			<color>d600ffff</color>
			<width>2.8</width>
		</LineStyle>
		<PolyStyle>
			<color>8affffaa</color>
		</PolyStyle>
	</Style>
	<Style id="s_ylw-pushpin_hl">
		<IconStyle>
			<scale>1.3</scale>
			<Icon>
				<href>http://maps.google.com/mapfiles/kml/pushpin/ylw-pushpin.png</href>
			</Icon>
			<hotSpot x="20" y="2" xunits="pixels" yunits="pixels"/>
		</IconStyle>
		<LineStyle>
			<color>d600ffff</color>
			<width>2.8</width>
		</LineStyle>
		<PolyStyle>
			<color>8affffaa</color>
		</PolyStyle>
	</Style>
	<Placemark>
		<name>करंजाळी_१२_२18</name>
		<styleUrl>#m_ylw-pushpin</styleUrl>
		<Polygon>
			<tessellate>1</tessellate>
			<outerBoundaryIs>
				<LinearRing>
					<coordinates>
						73.98455910918938,21.34231628330121,0 73.98455921350222,21.34223977789418,0 73.98460049208697,21.34208681572564,0 73.98472386017201,21.3419722036046,0 73.9848062100267,21.34181929017046,0 73.9849295773609,21.34170467803241,0 73.98501192560063,21.34155176460657,0 73.9850942744561,21.3413988512669,0 73.98513555155664,21.34124588916623,0 73.98521789985266,21.34109297584918,0 73.9852181588646,21.34090171250386,0 73.98521841773884,21.34071044909759,0 73.98521867647548,21.34051918562312,0 73.98521888336565,21.34036617484341,0 73.98517807164217,21.34017486232279,0 73.98513725985848,21.33998354978598,0 73.98505527543692,21.33986869391668,0 73.98501446359521,21.33967738107098,0 73.98497360098185,21.33952432094302,0 73.98497385913693,21.33933305672985,0 73.98497411715135,21.33914179239641,0 73.98497437502513,21.33895052793545,0 73.98497463275825,21.33875926333974,0 73.98501595933172,21.33856804764576,0 73.98501616527018,21.33841503582311,0 73.98505749239087,21.33822381991704,0 73.98513988808412,21.33803265296798,0 73.98530437137191,21.33787983685592,0 73.98534564627863,21.33772687403001,0 73.98538692008214,21.33757391057689,0 73.98542819465344,21.33742094757103,0 73.9855105375639,21.33726803299997,0 73.98559288113447,21.3371151183318,0 73.98559318808121,21.33688559946869,0 73.98567553022367,21.33673268455237,0 73.98567573460305,21.33657967188604,0 73.9857170591449,21.33638845429677,0 73.98567624518373,21.33619713877648,0 73.98567644926879,21.33604412505305,0 73.98567670425589,21.33585285821619,0 73.98567690815131,21.33569984413516,0 73.98571818098918,21.33554687965317,0 73.98584153976213,21.33543226651183,0 73.98592393106135,21.33524109680766,0 73.98604734003335,21.33508823026189,0 73.98612963002547,21.33497356753709,0 73.98625303835675,21.33482070012193,0 73.98641756563441,21.33462962838387,0 73.98654092245778,21.33451501429956,0 73.98662326114471,21.33436209772701,0 73.98674661742334,21.33424748333559,0 73.98687002398606,21.33409461489807,0 73.9869523123036,21.33397995171246,0 73.98707571827728,21.33382708287823,0 73.98719907344417,21.33371246780006,0 73.98728141064834,21.33355955014972,0 73.98744583338072,21.33344498360385,0 73.9875691877222,21.33333036796296,0 73.98773355941475,21.33325405504703,0 73.98789792986166,21.33317774190206,0 73.98806235121526,21.33306317547222,0 73.98822677220559,21.33294860769169,0 73.98835002470622,21.33291049939825,0 73.98855556247324,21.33275772550825,0 73.98876104954029,21.33264320539675,0 73.98892541852965,21.33256689071877,0 73.98908983779469,21.33245232151515,0 73.98921313928057,21.33237595799348,0 73.98937755798342,21.3322613893479,0 73.98945989176208,21.33210846842611,0 73.98958324265729,21.33199384992941,0 73.98978872730102,21.33187932756847,0 73.9899531448518,21.33176475666275,0 73.99015872848642,21.33157372544606,0 73.99024091202403,21.33153556693762,0 73.99044639483134,21.33142104306,0 73.99065187772683,21.33130651872168,0 73.99081629382634,21.33119194609806,0 73.99098065945213,21.33111562786151,0 73.99110400824297,21.33100100686369,0 73.99126837394475,21.3309246880934,0 73.99147380572285,21.33084841771436,0 73.99163797190226,21.33092511647661,0 73.99188451959951,21.33081063805878,0 73.99200776825541,21.3307725254809,0 73.99225416614659,21.33077280954706,0 73.99250056406379,21.33077309304086,0 73.99270584593245,21.33081158363833,0 73.99299350761574,21.33065889386505,0 73.99307563990983,21.33065898786241,0 73.99319888815064,21.33062087389524,0 73.99340431775737,21.33054459864774,0 73.99365076415917,21.33050662462833,0 73.99377401188225,21.33046850994857,0 73.99406157353211,21.33039232673445,0 73.99426695320447,21.33035430462251,0 73.99443121743116,21.33035449060047,0 73.99455441551639,21.33035462991468,0 73.99475974576927,21.33035486178289,0 73.99500614193776,21.33035513949291,0 73.99521147203323,21.33035537047479,0 73.99541680209614,21.33035560105384,0 73.99558091842937,21.33047054994698,0 73.99574518249943,21.33047073385999,0 73.99590939737627,21.33050917238497,0 73.99607356309954,21.33058586546691,0 73.9962377780422,21.33062430342414,0 73.99636087783263,21.3307009501891,0 73.99656620807568,21.33070117852048,0 73.99673037403183,21.33077787040656,0 73.99697672130375,21.3308163982295,0 73.99714093657634,21.33085483468933,0 73.99730515185338,21.33089326980542,0 73.99746931816253,21.33096996039664,0 73.99767464866437,21.33097018660094,0 73.99787997934376,21.33097041241035,0 73.9982906409155,21.33097086284415,0 73.99849602051067,21.33093283278065,0 73.99866033414281,21.33089475748116,0 73.99898886375418,21.33089511553237,0 73.99911206260498,21.33089524954045,0 73.999317393648,21.33089547257,0 73.99948175634715,21.33081914225622,0 73.99964597288903,21.33085757490848,0 73.99981018932181,21.3308960062263,0 73.99997435711954,21.33097269310434,0 74.00013862257175,21.33097287024449,0 74.00030274172384,21.3310878112956,0 74.00046681288099,21.33124100663036,0 74.00058986620398,21.3313559028303,0 74.00071287104392,21.33150905331337,0 74.00079480970625,21.33166215833335,0 74.00091781493796,21.331815308151,0 74.00099975392324,21.33196841365158,0 74.00112271100365,21.33215981710996,0 74.00120469888405,21.33227466774999,0 74.00124557131777,21.33242772741644,0 74.00136857752823,21.3325808757169,0 74.00136833507464,21.33277214614231,0 74.00136818963436,21.33288690822,0 74.00132692907233,21.33303988019877,0 74.00140886908899,21.33319298263016,0 74.00149080880202,21.33334608589269,0 74.00161381594714,21.33349923277926,0 74.00173692056509,21.33357587185865,0 74.00198308101797,21.33376740275192,0 74.00227059889903,21.3337294548654,0 74.00239384908134,21.3336913319537,0 74.00255792465916,21.33384452127563,0 74.00268088531379,21.33403592043167,0 74.00272176015743,21.33418897804685,0 74.00272156745801,21.33434199248279,0 74.00272132665951,21.33453325971142,0 74.00272113408022,21.33468627370676,0 74.00272094155503,21.3348392869742,0 74.00267968132756,21.33499225700032,0 74.00263842157803,21.33514522680596,0 74.00251502675819,21.33529810852523,0 74.00239168004217,21.33541273718218,0 74.00222726557431,21.33552732178145,0 74.00206289975375,21.33560365230826,0 74.00189858170332,21.3356417299377,0 74.0016931483293,21.33571801645769,0 74.00156980160926,21.33583264369753,0 74.00140543594141,21.33590897356716,0 74.00115893508129,21.33598521428864,0 74.00091243480389,21.33606145497412,0 74.00070705007295,21.33609948648121,0 74.00054268457168,21.33617581493505,0 74.00033720313311,21.33629035154528,0 74.00004953865115,21.33644305090276,0 73.99992619164416,21.33655767561472,0 73.99980289307334,21.33663404732832,0 73.99967954571748,21.33674867107525,0 73.99955624706116,21.33682504242159,0 73.99947386977084,21.33701621641345,0 73.99935047385297,21.3371690921469,0 73.99922712639744,21.3372837155354,0 73.99914479737465,21.33743663616951,0 73.99906251710298,21.33755130352669,0 73.99898018791961,21.33770422380487,0 73.99897999348501,21.33785723326521,0 73.99889766440403,21.33801015323171,0 73.99877431639779,21.3381247753146,0 73.99869198688111,21.33827769492562,0 73.99856858999199,21.3384305690201,0 73.99848630893281,21.33854523564649,0 73.99828082564866,21.3386597669604,0 73.99811640927686,21.33877434285268,0 73.99795194432129,21.33892717076619,0 73.99795174919063,21.33908017958278,0 73.99782840008828,21.33919480044644,0 73.99770505097462,21.33930942087606,0 73.99762272043054,21.33946233873555,0 73.99754038976313,21.33961525646316,0 73.99741699123332,21.33976812889606,0 73.9973757280481,21.33992109181027,0 73.99737548360224,21.34011235224182,0 73.99733417130888,21.3403035671145,0 73.99725184005764,21.34045648429656,0 73.99716950866924,21.34060940137558,0 73.99704610923266,21.34076227293969,0 73.99704586446383,21.34095353300265,0 73.99704561970663,21.34114479300629,0 73.99704537496105,21.34133605295784,0 73.99708624727046,21.34148910639265,0 73.99708600259675,21.34168036627105,0 73.99708580686645,21.34183337416394,0 73.99708561114397,21.34198638200654,0 73.99708541542921,21.34213938983618,0 73.99708521972212,21.34229239769019,0 73.99708497509917,21.34248365747088,0 73.99708473048824,21.34267491725855,0 73.9970845348082,21.3428279250925,0 73.99708433913587,21.34298093291704,0 73.99708414347121,21.34313394078633,0 73.99708389890121,21.34332520062739,0 73.99708370325386,21.34347820853522,0 73.99708350761428,21.34363121639894,0 73.99700117449578,21.34378413323767,0 73.99700097878005,21.34393714115508,0 73.99691869435645,21.34405180595295,0 73.99679524298591,21.34424292907761,0 73.99671290921877,21.3443958457732,0 73.99658950630946,21.34454871677651,0 73.99650717213569,21.34470163360094,0 73.99642478869244,21.34489280228634,0 73.99630138499451,21.345045673531,0 73.99617798101892,21.34519854448652,0 73.99613666600459,21.34538975921225,0 73.99605433078484,21.34554267603537,0 73.99597204457835,21.34565734069484,0 73.9958897089772,21.34581025785047,0 73.99584844259047,21.34596322064752,0 73.99576610665446,21.34611613764971,0 73.99568377046721,21.34626905470832,0 73.99556036453394,21.34642192591825,0 73.99547807727591,21.34653659102789,0 73.99539574045451,21.3466895082435,0 73.99527238314434,21.34680412719585,0 73.99514902558451,21.34691874641168,0 73.99498469705715,21.346956814525,0 73.99482051716365,21.34688012586169,0 73.99465633744707,21.34680343682203,0 73.99449215790183,21.34672674794179,0 73.99432802826227,21.34661180632342,0 73.99420496847573,21.34649691106423,0 73.99404068996887,21.34649672629446,0 73.99387656068825,21.34638178438628,0 73.99367131251314,21.34630504868321,0 73.99346606426455,21.34622831250963,0 73.99326076610926,21.34618982844559,0 73.99313765745178,21.346113184936,0 73.99297347923533,21.3460364946601,0 73.99285037079872,21.34595985098507,0 73.99268619281393,21.34588316047674,0 73.99252201470695,21.34580647009972,0 73.99231666686893,21.34580623732893,0 73.9921114194392,21.34572949974279,0 73.99194714067394,21.34572931319421,0 73.99174189377823,21.34565257519878,0 73.99149552596532,21.34561404280158,0 73.99133129804135,21.34557560340497,0 73.99116706963159,21.34553716385964,0 73.99100284166762,21.34549872416566,0 73.99083866396505,21.34542203225975,0 73.99063341674955,21.34534529298441,0 73.99046918876547,21.34530685278824,0 73.99018180184265,21.34523001925489,0 73.98997650361814,21.34519153153964,0 73.98985339616108,21.3451148854888,0 73.98964804675138,21.34511464974475,0 73.98936055754301,21.34511431933901,0 73.98911413722554,21.3451140357949,0 73.98899092715969,21.34511389390594,0 73.98882664707787,21.34511370459931,0 73.98862124498797,21.3451517202272,0 73.98845686110147,21.34522803557563,0 73.98829258029014,21.34522784586084,0 73.98812829929079,21.34522765600806,0 73.98788197949031,21.34515086591126,0 73.98771775022577,21.34511242314482,0 73.98755362330549,21.34499747539138,0 73.98755388170309,21.34480621300342,0 73.98747194801697,21.34465310773552,0 73.98743108407926,21.34450005026159,0 73.98722599038804,21.34430854928831,0 73.98718497241553,21.34427024899721,0 73.98706196839021,21.34411709578171,0 73.98693886094601,21.34404044733544,0 73.98681580527584,21.34392554623,0 73.98665157536705,21.34388710199038,0 73.98644637831022,21.3437721047123,0 73.98628225287618,21.34365715501038,0 73.98615914534865,21.34358050568603,0 73.98599501895102,21.34346555562187,0 73.98591308515836,21.34331244907604,0 73.9857900815624,21.34315929420825,0 73.98566702603546,21.34304439174754,0 73.98558509329865,21.34289128486596,0 73.98542101901386,21.34273808111249,0 73.98529806755543,21.34254667288864,0 73.98525710076787,21.34247011921876,0 73.98513409735062,21.34231696328848,0 73.98505206071297,21.34224036098864,0 73.98455910918938,21.34231628330121,0 
					</coordinates>
				</LinearRing>
			</outerBoundaryIs>
		</Polygon>
		<atom:link rel="app" href="https://www.google.com/earth/about/versions/#earth-pro" title="Google Earth Pro 7.3.7.1094"></atom:link>
	</Placemark>
</Document>
</kml>
