<?xml version="1.0" encoding="UTF-8"?>
<kml xmlns="http://www.opengis.net/kml/2.2" xmlns:gx="http://www.google.com/kml/ext/2.2" xmlns:kml="http://www.opengis.net/kml/2.2" xmlns:atom="http://www.w3.org/2005/Atom">
<Document>
	<name>खरबर्डी (आमपडा)_४९_319.kml</name>
	<StyleMap id="m_ylw-pushpin">
		<Pair>
			<key>normal</key>
			<styleUrl>#s_ylw-pushpin</styleUrl>
		</Pair>
		<Pair>
			<key>highlight</key>
			<styleUrl>#s_ylw-pushpin_hl</styleUrl>
		</Pair>
	</StyleMap>
	<Style id="s_ylw-pushpin">
		<IconStyle>
			<scale>1.1</scale>
			<Icon>
				<href>http://maps.google.com/mapfiles/kml/pushpin/ylw-pushpin.png</href>
			</Icon>
			<hotSpot x="20" y="2" xunits="pixels" yunits="pixels"/>
		</IconStyle>
		<LineStyle>
			<color>d600ffff</color>
			<width>2.8</width>
		</LineStyle>
		<PolyStyle>
			<color>8affffaa</color>
		</PolyStyle>
	</Style>
	<Style id="s_ylw-pushpin_hl">
		<IconStyle>
			<scale>1.3</scale>
			<Icon>
				<href>http://maps.google.com/mapfiles/kml/pushpin/ylw-pushpin.png</href>
			</Icon>
			<hotSpot x="20" y="2" xunits="pixels" yunits="pixels"/>
		</IconStyle>
		<LineStyle>
			<color>d600ffff</color>
			<width>2.8</width>
		</LineStyle>
		<PolyStyle>
			<color>8affffaa</color>
		</PolyStyle>
	</Style>
	<Placemark>
		<name>खरबर्डी (आमपडा)_४९_319</name>
		<styleUrl>#m_ylw-pushpin</styleUrl>
		<Polygon>
			<tessellate>1</tessellate>
			<outerBoundaryIs>
				<LinearRing>
					<coordinates>
						73.71964360371784,21.11071054391051,0 73.71966867642493,21.11064620866163,0 73.71969458862517,21.11056045799006,0 73.71969884139932,21.11045327439297,0 73.71970224103848,21.11036759120063,0 73.71970648734212,21.11026056732488,0 73.71966409802043,21.11019627456186,0 73.7196683571992,21.1100893923799,0 73.71964931151442,21.11000388967707,0 73.71960783434021,21.10991838314708,0 73.71958882015468,21.10983299376496,0 73.71959224772601,21.10974772084959,0 73.71957325220224,21.10966244424652,0 73.71957668256591,21.10957728397494,0 73.71955770466276,21.10949211962084,0 73.71953873821801,21.10940701175635,0 73.71947413701926,21.10934308179824,0 73.71945607620326,21.1092368435028,0 73.71941478551199,21.10915184331161,0 73.71937265064402,21.10908809977175,0 73.71930992494154,21.1089819508478,0 73.71928932010174,21.10893952766196,0 73.71924813277732,21.10885472331769,0 73.7192525403637,21.10874894691763,0 73.71925694424877,21.10864325751817,0 73.71921581385713,21.10855864813387,0 73.7192202294662,21.10845311508376,0 73.71913452465478,21.10836851024686,0 73.71909258562575,21.10830515313124,0 73.7190506672237,21.1082418273411,0 73.71900966953615,21.10815748150007,0 73.71892413103033,21.10807307058036,0 73.71888138279658,21.10803088578087,0 73.71879501346325,21.10796757443274,0 73.71868549251715,21.1079252435569,0 73.71857414078204,21.1079249425276,0 73.71846467364897,21.10788262541841,0 73.71840071695156,21.10781944671349,0 73.71838225295973,21.10773543723593,0 73.71840829401989,21.10765160310551,0 73.71843431793462,21.10756782398646,0 73.7184825576137,21.10748415985092,0 73.71857614646127,21.10737974710163,0 73.71864651930991,21.10729626631616,0 73.71869371637428,21.10723367658253,0 73.71869832202296,21.10712922826861,0 73.71870292382843,21.10702486532557,0 73.71870660251173,21.10694143630332,0 73.71866592321334,21.10685794159446,0 73.71858185928546,21.10675355969526,0 73.71853938643287,21.10671180669764,0 73.71845260534151,21.10666994712111,0 73.71836679739883,21.10660730341329,0 73.71830318259651,21.10654475034894,0 73.71823959885104,21.10648222781184,0 73.71817604613878,21.10641973577877,0 73.71817988774842,21.10633670081959,0 73.71818372680282,21.10625371995828,0 73.71820968209784,21.10617085319672,0 73.71823561940215,21.10608804040268,0 73.71828364408624,21.1060053416021,0 73.71830954026537,21.10592263657585,0 73.7183363649081,21.10581931596138,0 73.71834108950844,21.10571601932514,0 73.71830072445722,21.105633322468,0 73.71828244838247,21.10555073919494,0 73.71824212851224,21.105468149616,0 73.71822578849343,21.10534448553765,0 73.71820851190238,21.10524151407339,0 73.71819029471136,21.10515918502064,0 73.71815006563827,21.10507684936142,0 73.71813187912437,21.1049946269643,0 73.71809073323571,21.10493292006732,0 73.71802760245782,21.10487118330288,0 73.71798747150866,21.10478903399475,0 73.71794736750701,21.10470693766821,0 73.71788530489825,21.10462483461363,0 73.71786821350119,21.10452244514061,0 73.71782818906361,21.10444052123918,0 73.71778819145847,21.10435865023958,0 73.71774723163155,21.10429725174428,0 73.71766040422459,21.10427659236803,0 73.71757358971614,21.10425593626157,0 73.71750974606708,21.10421493363333,0 73.71751477392411,21.10411293447018,0 73.71756265850169,21.10403151427534,0 73.71763144200379,21.10397057338903,0 73.71772211347611,21.10390972219231,0 73.71778984291117,21.10386919086365,0 73.71788044010768,21.10380838846012,0 73.71797002535928,21.10376794966459,0 73.71806054201001,21.10370719654324,0 73.71814910961284,21.10368711145183,0 73.71823860766138,21.10364671173197,0 73.7183061820092,21.10360626523977,0 73.71839469466428,21.10358619632325,0 73.71846315356365,21.10352547139409,0 73.71855254268851,21.10348512370972,0 73.71864281525741,21.10342450708895,0 73.71877589025559,21.10338431129146,0 73.71886607106541,21.1033237436711,0 73.71897542172798,21.1033240420467,0 73.71904278929182,21.10328369951048,0 73.7191547297035,21.10322323985429,0 73.71924217499438,21.10322347836228,0 73.71935404080318,21.10316304777948,0 73.71942045594611,21.10314299046431,0 73.71950955266561,21.10310276576186,0 73.71959778745919,21.10308277737319,0 73.71970785549058,21.10306285170977,0 73.71981872086016,21.10302271227325,0 73.71990770988688,21.10298252620085,0 73.71997483420567,21.10294229382384,0 73.72006377025055,21.1029021335576,0 73.72017450540902,21.1028620456224,0 73.72028520575395,21.10282197052819,0 73.72037250787925,21.10282220822255,0 73.72046057377118,21.10280226455587,0 73.72052756004703,21.10276209010457,0 73.72061709113348,21.10270182248513,0 73.72068402518174,21.10266167997144,0 73.72077274625478,21.10262160967068,0 73.72083963362678,21.10258149288371,0 73.72092902435756,21.10252131244796,0 73.72101765539433,21.1024812870918,0 73.72112734146093,21.102461457022,0 73.721215919066,21.10242145082544,0 73.72128337660537,21.10236128814452,0 73.7213929886364,21.10234147711052,0 73.72150393755935,21.10228147099765,0 73.72157061569884,21.10224146320177,0 73.72165904350922,21.10220152736236,0 73.72174810038074,21.10214152956458,0 73.72183581323699,21.10212169424851,0 73.72192351243054,21.10210186207101,0 73.72201183364727,21.10206197083672,0 73.72212125400605,21.10204220718794,0 73.72223127561261,21.1020023940425,0 73.72231951178858,21.10196253485059,0 73.72240771910957,21.10192268809793,0 73.72251764157849,21.10188291304046,0 73.72269390800582,21.10180328305031,0 73.72278199899189,21.10176348738427,0 73.72287006169472,21.10172370412558,0 73.72295865546806,21.10166393527089,0 73.72304665400418,21.10162418374343,0 73.72315688482132,21.10156452137331,0 73.7232453523208,21.10150482872919,0 73.72331154310997,21.10146506966106,0 73.72337823740851,21.10140536583021,0 73.72346607704797,21.10136569665135,0 73.72355388902754,21.10132604009662,0 73.72364217667796,21.1012664615151,0 73.72375111524649,21.10124682351396,0 73.72381764532453,21.10118722414139,0 73.72390485520702,21.10116753997125,0 73.72401325565477,21.10116783316275,0 73.72407829567753,21.10116800903637,0 73.724165477095,21.10114832782062,0 73.72425309972066,21.10110874036547,0 73.72434024665864,21.10108906905111,0 73.7244269389238,21.10108930328162,0 73.72453616785572,21.10104979309405,0 73.72462369608982,21.10101023692683,0 73.72468953356567,21.10097063483495,0 73.72479866809034,21.10093116226992,0 73.72484280122362,21.10089152687794,0 73.72493022449576,21.10085202096095,0 73.72501761933476,21.10081252757819,0 73.7251049867419,21.10077304672575,0 73.72517068426973,21.10073352003008,0 73.72523673629456,21.10067416657039,0 73.72532401991887,21.10063472960393,0 73.72541127543232,21.10059530513649,0 73.72549814889639,21.10057571416343,0 73.72556408045992,21.10051643541533,0 73.725651256169,21.10047704843014,0 73.72571645112556,21.10045741784239,0 73.72582519575326,21.10041810774431,0 73.72593390569345,21.10037881006211,0 73.72599905210909,21.10035919495489,0 73.72612961761195,21.10030019435008,0 73.72619502625507,21.10026081769305,0 73.72628201114526,21.10022151160169,0 73.72641187387222,21.10020209548361,0 73.72645561986538,21.10016269186522,0 73.72654279913621,21.10010366788552,0 73.72662993704199,21.10004467195332,0 73.72671677634943,21.10000543419617,0 73.72678251659659,21.09992670675984,0 73.72684772260507,21.0998874483644,0 73.72691314915973,21.0998284972119,0 73.72700033565208,21.09974993922476,0 73.72706568923452,21.09969105337064,0 73.72715255716243,21.09963225328485,0 73.72723938371921,21.09957348107785,0 73.72732616893023,21.09951473728164,0 73.72743424359643,21.09947572456957,0 73.72749903316526,21.09945625167049,0 73.72760705454975,21.09941725732997,0 73.72769333981245,21.09939785126402,0 73.72777961138029,21.09937844820955,0 73.72786553912624,21.09939831250894,0 73.72797347676958,21.09935933627721,0 73.7281242718602,21.09934011190779,0 73.72823200674731,21.09932077528542,0 73.72829682266806,21.09928170825928,0 73.72836174378915,21.09922304455332,0 73.72844813846307,21.09916446666845,0 73.72853449209512,21.09910591594093,0 73.72859920367276,21.09906691665157,0 73.72868538734349,21.09902798706213,0 73.72877154370123,21.09898906970785,0 73.72885758648758,21.09896973035838,0 73.7289436951481,21.09893083129587,0 73.72902963122907,21.09893106063364,0 73.72913705130611,21.09893134721795,0 73.72922287257322,21.09897070503158,0 73.72930882224516,21.09897093420286,0 73.72939477191956,21.09897116331181,0 73.7295022090081,21.09897144961034,0 73.72958813017244,21.09899124759998,0 73.72969557577692,21.09899153374649,0 73.72978151908673,21.09901133474727,0 73.7298459671912,21.09907024141008,0 73.72991044597696,21.09912917596581,0 73.72995344962267,21.09920768380431,0 73.73001798965554,21.09926668351756,0 73.7300610512533,21.09934527883112,0 73.73012566680143,21.0994239811207,0 73.73016878988084,21.09950267594943,0 73.73023348063151,21.09958147731727,0 73.73027666525581,21.09966027185483,0 73.73034143141449,21.099739173602,0 73.73038471241199,21.09983777081695,0 73.73047112849719,21.09991684240568,0 73.73049295742972,21.10003525659585,0 73.73053630356731,21.10011433885473,0 73.7305364438177,21.10017359745668,0 73.73055827800914,21.10027248190472,0 73.73058007930993,21.10035165692981,0 73.73060199856845,21.10047048595814,0 73.73062372347439,21.1005101591038,0 73.73064556648697,21.10058948579482,0 73.73066742343021,21.10066886295393,0 73.73068935338401,21.1007681405196,0 73.73068953064664,21.10082771081933,0 73.73075473327894,21.10090735468067,0 73.7307983830361,21.10100688017202,0 73.73086359435653,21.10106673707793,0 73.73088556273073,21.10114641758644,0 73.73095091148946,21.10122626458702,0 73.73103807902596,21.10132615933757,0 73.73108173416141,21.10138611138949,0 73.73112550448155,21.10146605370498,0 73.73114759194894,21.10154598889795,0 73.73125666926957,21.10164619648507,0 73.73132226769842,21.1017263625257,0 73.73138802331366,21.10182659861535,0 73.73141010956931,21.10188673277023,0 73.73143232558633,21.10196693730116,0 73.73149818860418,21.10206736582539,0 73.73154221191454,21.10214774364734,0 73.73158613186979,21.10220808936313,0 73.73163034310005,21.10230865347682,0 73.73167445128095,21.10238918586905,0 73.73171858780601,21.10246976960333,0 73.73182769402241,21.10249018359014,0 73.73189385354394,21.10259103141616,0 73.73191644552938,21.1026918442635,0 73.73196103677259,21.10281297278863,0 73.7320051747007,21.10287363877809,0 73.7320495027281,21.10295453366308,0 73.73209403224492,21.10305569616176,0 73.73211639760029,21.10311642127533,0 73.73216080458884,21.10319747196473,0 73.73220542205189,21.1032988300502,0 73.73224970451203,21.10335973037733,0 73.73233794814695,21.10344105350875,0 73.73242624900892,21.10352242927188,0 73.73249271718957,21.10360379919024,0 73.73260323587797,21.1037056581442,0 73.73264746840329,21.10374642469641,0 73.73271406716934,21.10382793893827,0 73.73278070900699,21.10390950603729,0 73.73282523840457,21.10397070138906,0 73.73322673530225,21.10427759788697,0 73.7333593904297,21.10423712792961,0 73.73338133528995,21.10423718588032,0 73.73346864031606,21.10425782483101,0 73.73357837234884,21.10425811450628,0 73.73368719229921,21.10429922871312,0 73.73377364380453,21.10436072190608,0 73.73383862124653,21.10440175329319,0 73.73392558220972,21.10444285582528,0 73.73403410875322,21.10450447636943,0 73.73414268742427,21.10456612670526,0 73.7342513192624,21.10462780700266,0 73.73431684825407,21.1046484509446,0 73.73435919811436,21.10473048062891,0 73.73440197498927,21.1047920666505,0 73.7344219790392,21.10489464135586,0 73.73446440439392,21.10497683043283,0 73.73446243089415,21.10507949677606,0 73.73450529183866,21.10514125255885,0 73.73450333361335,21.1052440521294,0 73.73452341444541,21.10534699301641,0 73.73454390040327,21.10542941755891,0 73.73458568383094,21.10555318363107,0 73.73462865490239,21.10561516996295,0 73.73469371626085,21.1056772445338,0 73.73475843750451,21.10575999953536,0 73.73482356754616,21.10582214465239,0 73.73491081689247,21.1058843781121,0 73.73495356698095,21.10596720957422,0 73.73501809540259,21.1060708537604,0 73.73508371432378,21.10611243958928,0 73.73517078753166,21.1061955356204,0 73.73525758578498,21.10629942358047,0 73.73534542939271,21.10634114190812,0 73.73543298409054,21.1064036285735,0 73.73556485693872,21.10646626196564,0 73.73560852537852,21.10650791829198,0 73.73571834824766,21.10657054446708,0 73.73580636012703,21.10661235097642,0 73.73589412050322,21.10667496999118,0 73.73595976247425,21.10673756149033,0 73.73606976997284,21.10680029985992,0 73.73617983136798,21.10686306888615,0 73.73624559162478,21.1069257523371,0 73.73637793292218,21.10698864086604,0 73.73646596242024,21.10705144387899,0 73.73653184138172,21.10711421944997,0 73.73659730552896,21.10721879750363,0 73.73664083131932,21.10730249816241,0 73.73670660321655,21.1073863117727,0 73.73674998206911,21.10749105407895,0 73.73681583824234,21.10757499120605,0 73.73685969875304,21.10763796546751,0 73.73692543149298,21.10774297200965,0 73.73701347572113,21.10784812284628,0 73.73705724538027,21.10793223559203,0 73.73712331583923,21.10801646195004,0 73.73716715033389,21.10810068511303,0 73.73723347246575,21.10816397619753,0 73.73727753681071,21.10822724025813,0 73.73734375584881,21.10831166010558,0 73.73738771317485,21.10839607705534,0 73.7374540120361,21.10848060785237,0 73.73752035441251,21.10856519421517,0 73.73756441336435,21.10864977780799,0 73.73760864295176,21.10871328133376,0 73.73769743642467,21.10879807919552,0 73.73778666949835,21.10881946266828,0 73.73787567793013,21.10888316656808,0 73.73800932747321,21.10896819301914,0 73.73807618529852,21.10901072730342,0 73.73816533140779,21.10907452575754,0 73.73825461018808,21.10911715320502,0 73.73834391842783,21.10915979497781,0 73.73841088113102,21.10920239232556,0 73.73847786592451,21.10924500370601,0 73.73858963767113,21.10928774606741,0 73.7386566186897,21.10935162254023,0 73.73874607446498,21.10939434158123,0 73.73883551912233,21.10945832955403,0 73.73892504141386,21.10950108379148,0 73.73901459330256,21.10954385182534,0 73.73908174613969,21.1096078552337,0 73.73914893229453,21.10967189034394,0 73.73923857309038,21.10973601571695,0 73.73979083689078,21.11015886159829,0 73.73979087603901,21.1101784865485,0 73.73985552867497,21.11021791375113,0 73.73989876902573,21.11029658152141,0 73.73996352254204,21.11035569904008,0 73.7400283067645,21.11041484405598,0 73.74007163629163,21.11049363645276,0 73.74013648239624,21.11055284754805,0 73.74017987037864,21.11063172735798,0 73.74024477821891,21.11069100409172,0 73.74028822488559,21.11076997146478,0 73.74035319468271,21.11082931339515,0 73.74041828474267,21.11090842454515,0 73.74046182450776,21.11098752982119,0 73.74050539211325,21.11106668532516,0 73.74061380325398,21.11114605938886,0 73.74078700168957,21.11120586078522,0 73.74083046661299,21.11124555756813,0 73.74091705145884,21.11126557891013,0 73.74098230096155,21.11132515719667,0 73.74106920782357,21.11138481995252,0 73.74113452492871,21.11144445505028,0 73.74117838696321,21.1115239005726,0 73.74122227673706,21.11160339609756,0 73.74126619477934,21.11168294279262,0 73.74133163725013,21.11174272024742,0 73.74139711107343,21.11180252624289,0 73.74146261627267,21.11186236080032,0 73.74148498242735,21.1119420162372,0 73.74152904409443,21.11202177807246,0 73.74159463852635,21.11208171751175,0 73.74166045328894,21.11216162517151,0 73.74172611598389,21.11222163151436,0 73.74181351398228,21.11228172275975,0 73.74187965829674,21.11238173208541,0 73.74194564338897,21.11246183121953,0 73.74203339714882,21.11254203775593,0 73.74209924944726,21.11260222628538,0 73.74214362453061,21.11268240976558,0 73.74218802807883,21.1127626448149,0 73.74221070734237,21.11284287464091,0 73.74227692042157,21.11292326869554,0 73.7423214095235,21.11300365791071,0 73.74240947440893,21.1130842109738,0 73.74243200237431,21.11314454718148,0 73.74249862333137,21.11324524683537,0 73.74258630185936,21.113285707187,0 73.74265275279443,21.11336638494669,0 73.74271924647525,21.11344711417124,0 73.74278606336139,21.11354805661273,0 73.74283111120914,21.11364902336957,0 73.74285407810301,21.11372982150988,0 73.74289889666163,21.11381072801486,0 73.7429437436052,21.11389168623536,0 73.7429883222562,21.11395246750894,0 73.74303322384019,21.11403351686449,0 73.74312157183991,21.11409447956341,0 73.74318809629419,21.11415541515559,0 73.74327588370507,21.11417590306879,0 73.74336335761879,21.11417612904936,0 73.74345083159525,21.11417635498417,0 73.7435383056357,21.1141765808732,0 73.74364764790414,21.11417686316917,0 73.74373512209252,21.11417708895523,0 73.74384446454945,21.11417737112249,0 73.74393119203023,21.11413707589924,0 73.74403975283948,21.11409684994673,0 73.74412681009646,21.11407682632827,0 73.74421345743188,21.11403656325473,0 73.74432192940155,21.11399636965227,0 73.74440851760212,21.11395613229978,0 73.74451608377484,21.11387552744252,0 73.74455892123217,21.11383521627093,0 73.7446231518778,21.11377477403073,0 73.74473100796092,21.11371447291318,0 73.74475152037955,21.11365397613852,0 73.74483703090304,21.11357350898512,0 73.74487976533888,21.11353329459371,0 73.74496610446958,21.11349320522955,0 73.74505102918511,21.11339270190188,0 73.74509323305033,21.11333241594359,0 73.74515720661839,21.11327221491699,0 73.74524341145384,21.11323220914064,0 73.74533055707927,21.11323243293014,0 73.74541671993616,21.11319243951414,0 73.74550335370114,21.11317255938556,0 73.74556769091399,21.11313252914741,0 73.74565378193164,21.11309256753495,0 73.74571755958092,21.11303248178682,0 73.74580359223117,21.11299255203402,0 73.74588959739448,21.11295263498373,0 73.74597557458966,21.11291273062801,0 73.74606206698196,21.1128928946762,0 73.74614854560967,21.11287306183289,0 73.74623501047719,21.11285323209707,0 73.74634377763311,21.11285351051763,0 73.74645254544082,21.11285378886005,0 73.74658306662268,21.11285412276512,0 73.74667008054196,21.11285434530414,0 73.74675709506097,21.1128545677936,0 73.74684410968516,21.11285479023226,0 73.74695287823886,21.11285506820945,0 73.74706164596951,21.11285534610473,0 73.74714929070338,21.1128756211895,0 73.74723758502651,21.11291595874708,0 73.74732590877514,21.11295630920005,0 73.74741491088518,21.11301674792563,0 73.74748152679588,21.11305707478025,0 73.74754882608252,21.11311750632132,0 73.74763727009406,21.11315792133394,0 73.74772642006228,21.11321845692402,0 73.74827609977973,21.11336069046883,0 73.74821142235865,21.1133806573441,0 73.74814815639836,21.11344091065239,0 73.74808486001919,21.11350119260301,0 73.74799901898278,21.11354128551596,0 73.74793566140625,21.11360161594957,0 73.74781022412579,21.11376275011681,0 73.74776860277645,21.11382324278057,0 73.74772763984951,21.11390398189694,0 73.74770850324174,21.11398482901619,0 73.74771189073265,21.11408603058652,0 73.74769273526647,21.1141669947581,0 73.74769611896822,21.11426834288446,0 73.74769882794511,21.11434948034592,0 73.74770153870863,21.11443067006967,0 73.74768235279113,21.11451185578731,0 73.74766248032114,21.11457276560265,0 73.74765997571092,21.11485694792036,0 73.74756492287844,21.11497813122623,0 73.74756792699824,21.11509962288789,0 73.74750551379154,21.11522100804599,0 73.74744232760592,21.11531204404098,0 73.74741257962296,21.11543361626665,0 73.74751374325049,21.115555581739,0 73.74758221798842,21.1156775235196,0 73.74765072659824,21.11579952519422,0 73.74768727249329,21.11595198646588,0 73.74772307856391,21.11607403954607,0 73.74775890388062,21.11619615261352,0 73.7477299445405,21.1163486903841,0 73.74769944557717,21.11644022468495,0 73.74753549574606,21.11643980653952,0 73.74740508054209,21.11647001841185,0 73.74734319510199,21.11662264058407,0 73.74728053684171,21.11674477244707,0 73.74721784630522,21.11686696407094,0 73.74712157252964,21.11695852129716,0 73.74699243376156,21.11705002834871,0 73.74689608301226,21.11714165296913,0 73.74670116905149,21.11723305914937,0 73.74653903401182,21.11732458283918,0 73.74644186086387,21.11738564527194,0 73.74637888298942,21.11750815177863,0 73.74628233030231,21.11759994490984,0 73.74618574198878,21.11769177184242,0 73.74612266228215,21.11781442898161,0 73.74602600286639,21.11790633495458,0 73.74596285736106,21.11802909774627,0 73.74589968073866,21.11815192107182,0 73.74586938322093,21.11827488945193,0 73.74587264183134,21.11842879095599,0 73.74584232092026,21.11855189593345,0 73.74571253183227,21.11864398941385,0 73.74564857621732,21.11873628626098,0 73.74555228277686,21.11885937357307,0 73.74542235922452,21.11895158048543,0 73.74532473050067,21.11901304236486,0 73.74519411394945,21.11907443446592,0 73.74509703792133,21.11916680561025,0 73.74496635380761,21.11922823544172,0 73.74483563675378,21.11928968032318,0 73.74470430668357,21.11932023834986,0 73.74457238790815,21.11931989819822,0 73.74440749029806,21.11931947290253,0 73.74427612620647,21.11935003434506,0 73.74414419992171,21.11934969390815,0 73.74401227459045,21.11934935339684,0 73.74388087844052,21.11937991834157,0 73.74374894456943,21.1193795776396,0 73.74361752432308,21.11941014609318,0 73.74348608871513,21.11944071822553,0 73.74332164661404,21.11947120876255,0 73.74319066309373,21.11953271264095,0 73.74302569641254,21.11953228603433,0 73.74289372281973,21.11953194466323,0 73.74276174940468,21.11953160321687,0 73.74256378998567,21.11953109090719,0 73.74246525251945,21.11956176279824,0 73.74230070871779,21.11959226747227,0 73.74216871968797,21.1195919256197,0 73.74203673082175,21.11959158369223,0 73.74183874819953,21.11959107066155,0 73.7417067597311,21.11959072854681,0 73.74154215979011,21.11962123627715,0 73.74144354149536,21.11965191883022,0 73.74131190772053,21.11968251950584,0 73.74114761365276,21.11974398892937,0 73.74104965559997,21.1198366070217,0 73.74091829512427,21.11989819999752,0 73.74078690216116,21.11995980822615,0 73.74068883461996,21.12005250618692,0 73.74055704847684,21.12008315575565,0 73.74042524684305,21.12011380903226,0 73.74029312048026,21.12011346558353,0 73.74016159331671,21.12017512659551,0 73.74002974254164,21.12020579088768,0 73.73989759191701,21.12020544713214,0 73.73976599143563,21.12026713071382,0 73.73960078349656,21.12026670075648,0 73.7394686168218,21.12026635670981,0 73.73930365513333,21.1202969459736,0 73.73920452432816,21.12029668780412,0 73.73903930632596,21.12029625743309,0 73.73887408848417,21.12029582695172,0 73.73874149179251,21.12023344784773,0 73.73860913088625,21.1202020917905,0 73.73847678690511,21.12017073967278,0 73.73837730383744,21.12010847752225,0 73.7382776627348,21.12001524232178,0 73.73814504056099,21.11992195564087,0 73.73804548037964,21.11982878970047,0 73.7373631026736,21.11965765464866,0 73.73706188551598,21.11971303518996,0 73.73676083656967,21.11971224912905,0 73.73658020724204,21.11971177730086,0 73.73633953668865,21.11965498178871,0 73.73621979150097,21.11943000324509,0 73.73610004678316,21.11920502410113,0 73.73591992443089,21.11903605407005,0 73.73573997135121,21.11881091767718,0 73.73568043737654,21.11858609686041,0 73.7356210724558,21.11830511040765,0 73.73556153890856,21.11808029003119,0 73.7355020056112,21.11785546983506,0 73.73544247250796,21.1176306498106,0 73.73544331717379,21.11734982192111,0 73.73526336746697,21.11712468700756,0 73.73508324927933,21.11695571725356,0 73.73502371733942,21.11673089777594,0 73.73484343080943,21.11661809349811,0 73.73466331386881,21.11644912400119,0 73.73460378286384,21.11622430470617,0 73.73436328935057,21.11611134225913,0 73.73436413629852,21.11583051559427,0 73.73412381314243,21.11566138794717,0 73.73394369830908,21.11549241792246,0 73.73382396110701,21.11526744055196,0 73.73358346979168,21.11515447747614,0 73.73334280900994,21.11509767941861,0 73.7331626957979,21.11492870874751,0 73.73292203545121,21.11487190993723,0 73.73268154527304,21.11475894568896,0 73.73244088506173,21.11470214642911,0 73.73220039536213,21.11458918133021,0 73.73202028382066,21.11442020971766,0 73.73178013552482,21.11419491361966,0 73.73153964685923,21.11408194778302,0 73.73135936587997,21.11396914057229,0 73.73111887766915,21.11385617401797,0 73.73087838967716,21.11374320720273,0 73.73063807271102,21.11357407469927,0 73.7303975852122,21.11346110714081,0 73.73021730493673,21.11334829855572,0 73.73003719619241,21.11317932450439,0 73.72979653819972,21.11312252123061,0 73.72955605139087,21.113009552272,0 73.72931556438736,21.11289658291786,0 73.72901504254449,21.11272728802473,0 73.72877455587631,21.11261431777425,0 73.72853407000726,21.1125013471079,0 73.72829375517502,21.11233221064372,0 73.72811347663698,21.11221939935384,0 73.72787299045659,21.11210642748314,0 73.7276928839232,21.11193745015963,0 73.72745239866381,21.11182447749506,0 73.72721191277084,21.11171150438604,0 73.72697142760515,21.11159853088057,0 73.72673094178478,21.11148555682183,0 73.72649011229227,21.11148491350382,0 73.72624962635354,21.11137193868324,0 73.72600914110092,21.11125896339911,0 73.72576865515232,21.11114598754395,0 73.72552799737676,21.11108917698435,0 73.72528768386628,21.11092003460164,0 73.72498664500407,21.11091922739423,0 73.72468560556831,21.11091841962363,0 73.72438456554224,21.11091761128981,0 73.72408352490922,21.11091680239269,0 73.72372227628502,21.11091583097514,0 73.72348178883217,21.11080285103816,0 73.72324095473948,21.11080220254679,0 73.72294025928881,21.110689059191,0 73.72269977126291,21.11057607769298,0 73.72245893608569,21.11057542788473,0 73.7222181004515,21.11057477771178,0 73.7220376474194,21.11051812377605,0 73.72173660291159,21.11051731016152,0 73.72149576594006,21.11051665885657,0 73.72125475454568,21.11057217337627,0 73.7209537079361,21.11057135832606,0 73.72065265915712,21.11057054270205,0 73.72047203004861,21.11057005305548,0 73.72011077093768,21.11056907314655,0 73.71964360371784,21.11071054391051,0 
					</coordinates>
				</LinearRing>
			</outerBoundaryIs>
		</Polygon>
		<atom:link rel="app" href="https://www.google.com/earth/about/versions/#earth-pro" title="Google Earth Pro 7.3.7.1094"></atom:link>
	</Placemark>
</Document>
</kml>
