<?xml version="1.0" encoding="UTF-8"?>
<kml xmlns="http://www.opengis.net/kml/2.2" xmlns:gx="http://www.google.com/kml/ext/2.2" xmlns:kml="http://www.opengis.net/kml/2.2" xmlns:atom="http://www.w3.org/2005/Atom">
<Document>
	<name>खोकसा_८०_441.kml</name>
	<StyleMap id="m_ylw-pushpin">
		<Pair>
			<key>normal</key>
			<styleUrl>#s_ylw-pushpin</styleUrl>
		</Pair>
		<Pair>
			<key>highlight</key>
			<styleUrl>#s_ylw-pushpin_hl</styleUrl>
		</Pair>
	</StyleMap>
	<Style id="s_ylw-pushpin">
		<IconStyle>
			<scale>1.1</scale>
			<Icon>
				<href>http://maps.google.com/mapfiles/kml/pushpin/ylw-pushpin.png</href>
			</Icon>
			<hotSpot x="20" y="2" xunits="pixels" yunits="pixels"/>
		</IconStyle>
		<LineStyle>
			<color>d600ffff</color>
			<width>2.8</width>
		</LineStyle>
		<PolyStyle>
			<color>8affffaa</color>
		</PolyStyle>
	</Style>
	<Style id="s_ylw-pushpin_hl">
		<IconStyle>
			<scale>1.3</scale>
			<Icon>
				<href>http://maps.google.com/mapfiles/kml/pushpin/ylw-pushpin.png</href>
			</Icon>
			<hotSpot x="20" y="2" xunits="pixels" yunits="pixels"/>
		</IconStyle>
		<LineStyle>
			<color>d600ffff</color>
			<width>2.8</width>
		</LineStyle>
		<PolyStyle>
			<color>8affffaa</color>
		</PolyStyle>
	</Style>
	<Placemark>
		<name>खोकसा_८०_441</name>
		<styleUrl>#m_ylw-pushpin</styleUrl>
		<Polygon>
			<tessellate>1</tessellate>
			<outerBoundaryIs>
				<LinearRing>
					<coordinates>
						73.92843323647688,21.04656136965358,0 73.92838534497132,21.04651652489324,0 73.92838567766006,21.04633743442834,0 73.92843398467676,21.04615841647836,0 73.92853026784709,21.04597947114669,0 73.9285786590758,21.04575568174705,0 73.92862696474295,21.04557666636371,0 73.92867535280655,21.04535287801381,0 73.92872374253118,21.04512909023279,0 73.92877221215841,21.04486053176678,0 73.92882043349339,21.04472628873478,0 73.92886873924894,21.04454727482626,0 73.92891712486131,21.04432348901001,0 73.92896559228873,21.04405493282596,0 73.92896583921448,21.04392061837754,0 73.92896625053562,21.04369676191704,0 73.92896666158208,21.04347290522283,0 73.92896723658269,21.04315950712726,0 73.92896748284655,21.04302519361278,0 73.92896789306457,21.04280133867712,0 73.92896830300803,21.0425774834681,0 73.92896871267467,21.04235362923536,0 73.92896904021042,21.04217454558818,0 73.92892147714846,21.04195061888385,0 73.92887383217355,21.04177146254155,0 73.92877813097404,21.0416370038914,0 73.92873056771909,21.04141307757008,0 73.92873089470076,21.04123399476563,0 73.92868324729331,21.04105483944815,0 73.92858762999157,21.04087561020608,0 73.92853998249355,21.04069645437412,0 73.92854039066118,21.04047260219713,0 73.92854071699324,21.04029352013459,0 73.92863698878165,21.04011458599405,0 73.92878123151087,21.03993572507124,0 73.92887750196954,21.03975679118269,0 73.92902174306981,21.03957793115768,0 73.92916582104068,21.0394886114832,0 73.92926208853214,21.03930967829625,0 73.92940632733632,21.0391308189718,0 73.92959829437763,21.03908634328508,0 73.92974245076964,21.03895225429189,0 73.92993449610834,21.03886300861693,0 73.93007873168986,21.0386841499744,0 73.93022280535907,21.03859483122188,0 73.93036704052389,21.03841597263028,0 73.93046330291817,21.0382370410275,0 73.93065534559921,21.03814779610302,0 73.93075160679425,21.03796886452923,0 73.93099177866596,21.03779015408367,0 73.93108779829662,21.03774553155194,0 73.93127991804029,21.0376115172872,0 73.93152000570123,21.03747757655304,0 73.9316641536354,21.0373434886472,0 73.93176041206088,21.03716455834013,0 73.93185666887678,21.03698562818986,0 73.93190503639215,21.03676185540579,0 73.93195332288488,21.03658285190394,0 73.9320495794302,21.03640392220406,0 73.93204997656511,21.03618007629749,0 73.932146310509,21.03595637765435,0 73.93214654845094,21.03582207019377,0 73.93214670703316,21.03573253194878,0 73.93224232673171,21.03591175569107,0 73.93228989920929,21.03613567479826,0 73.93233755093007,21.03631482490994,0 73.93233731287226,21.03644913235052,0 73.932432853137,21.03667312487435,0 73.93243261495712,21.03680743218438,0 73.93248018704747,21.03703135129136,0 73.93252791795759,21.03716573209573,0 73.93252760009987,21.03734480873077,0 73.93252720257715,21.03756865470707,0 73.93252680483161,21.03779250080792,0 73.93252648647487,21.03797157772198,0 73.93262210603396,21.03815080118264,0 73.932813823826,21.03824063161075,0 73.9330056993456,21.03824092350617,0 73.93319757554764,21.03824121522033,0 73.93338953070155,21.03819673754451,0 73.93358148531402,21.03815226006837,0 73.93377351859132,21.038063013033,0 73.93396555008988,21.03797376595552,0 73.93410969238232,21.0378396773618,0 73.93411008748076,21.03761583252101,0 73.93406243598454,21.0374366839773,0 73.9341586876598,21.03725775384824,0 73.93425493885695,21.03707882401676,0 73.93430322245783,21.03689982130862,0 73.93449525156203,21.03681057503884,0 73.93468735866342,21.03667656001446,0 73.93483149711976,21.03654247205875,0 73.93502352316415,21.03645322567925,0 73.93516766048165,21.03631913775697,0 73.93531171998693,21.03622981859244,0 73.9354079671874,21.03605088931167,0 73.93545624771124,21.03587188756869,0 73.93550452688515,21.03569288581703,0 73.93550491790232,21.03546904279411,0 73.93550523058745,21.03528996838316,0 73.93550569940068,21.03502135683275,0 73.9355060898819,21.03479751388926,0 73.93550648018449,21.03457367093766,0 73.93550679229797,21.03439459657097,0 73.93550710429714,21.03421552221367,0 73.93569912597231,21.03412627675428,0 73.93589091349405,21.0341713368078,0 73.93608262297256,21.0342611651308,0 73.93622636582958,21.03435092041088,0 73.9363219865927,21.03453013974843,0 73.93627370877751,21.03470914102683,0 73.93627339738899,21.03488821497417,0 73.93622504235397,21.03511198481343,0 73.93617684179216,21.03524621769355,0 73.93617652996404,21.03542529174129,0 73.93603231822675,21.03560414805671,0 73.93603200600255,21.03578322214373,0 73.93598372654301,21.0359622237788,0 73.93598333589576,21.03618606658272,0 73.93598286689236,21.03645467809469,0 73.93598263229823,21.03658898373271,0 73.93607833239794,21.03672343444965,0 73.9363181667497,21.03672379646151,0 73.93651011258324,21.03667931741162,0 73.93670221392337,21.03654530108842,0 73.93684634759964,21.03641121246584,0 73.93699048077056,21.03627712386243,0 73.93708672448378,21.03609819470074,0 73.93723085669394,21.03596410616787,0 73.93737498841203,21.03583001764088,0 73.93756708607016,21.03569600137816,0 73.93771113920445,21.03560668121956,0 73.9379030033202,21.035606969712,0 73.93809478976237,21.03565202626947,0 73.93833446377836,21.03574192280588,0 73.9384782838053,21.03578690688037,0 73.93857390636184,21.03596612370458,0 73.93857351983455,21.03618996499187,0 73.93857321051681,21.0363690380038,0 73.93847696891036,21.03654796756883,0 73.93838080434774,21.03668212883352,0 73.9382845619934,21.03686105838348,0 73.93828417445778,21.0370849001327,0 73.93828378678444,21.03730874198482,0 73.93823551084301,21.03748774385625,0 73.93833121063902,21.03762219249808,0 73.93833082271669,21.0378460346123,0 73.93847441201792,21.03802532341161,0 73.9386661234558,21.03811514700029,0 73.93890595606925,21.03811550494588,0 73.93904993272533,21.03807095111729,0 73.9392419525828,21.03798170028526,0 73.93943397246923,21.03789244967909,0 73.93957810252594,21.03775835887141,0 73.93967434338731,21.03757942864207,0 73.93977058331259,21.03740049851322,0 73.93981893476172,21.03717672877528,0 73.93991509698489,21.0370425669649,0 73.94010719099379,21.03690854798295,0 73.94020342990106,21.0367296181659,0 73.94029959163258,21.03659545645338,0 73.94039582930046,21.03641652675029,0 73.94054003228308,21.03623766844334,0 73.94073220029044,21.03605888130046,0 73.94087640209081,21.03588002300226,0 73.94102052686291,21.03574593263872,0 73.94121254010113,21.0356566815191,0 73.94145244124394,21.03561226937475,0 73.94159641213956,21.03556771468494,0 73.9417883474475,21.0355232310367,0 73.94198028301749,21.03547874720739,0 73.9422680711769,21.03547917299438,0 73.94245993012784,21.03547945659206,0 73.94274771774207,21.03547988159648,0 73.94293957607336,21.03548016467207,0 73.94317939860174,21.03548051822282,0 73.94346718576699,21.03548094205395,0 73.94361107911557,21.03548115379328,0 73.94380278567968,21.03557097161201,0 73.94399456792922,21.03561602143824,0 73.94423439019323,21.03561637352726,0 73.94447421231291,21.03561672529232,0 73.94471403429888,21.03561707673344,0 73.9449059670183,21.03557258977078,0 73.94514586391381,21.03552817284027,0 73.94533802148632,21.03534938211478,0 73.94543410013189,21.03525998667475,0 73.9456260318959,21.03521549907534,0 73.94581803846825,21.0351262434638,0 73.94610589801285,21.03508189524818,0 73.94629775433958,21.03508217469882,0 73.94648983501934,21.03494815062157,0 73.94672987922286,21.03481419606759,0 73.94692173511054,21.03481447483692,0 73.94711374014577,21.03472521785654,0 73.94730559590813,21.03472549619745,0 73.94749760059807,21.034636238794,0 73.94778545843501,21.03459188780392,0 73.94792942447233,21.03454732823841,0 73.9481214285652,21.03445807012707,0 73.94831350667523,21.03432404399099,0 73.94855347410035,21.03423485464878,0 73.94869751373524,21.03414552661762,0 73.94888959104172,21.03401149978457,0 73.94908159405217,21.03392224044067,0 73.94922578118573,21.03374337636245,0 73.94932200433044,21.0335644430679,0 73.94946619080342,21.03338557867122,0 73.94961030326392,21.03325148182709,0 73.94970652578174,21.03307254806069,0 73.94985078547597,21.03284891519017,0 73.94989897015054,21.03271468045973,0 73.94999519228209,21.03253574629802,0 73.95004345084361,21.03235674344095,0 73.95013967241219,21.03217780917658,0 73.95014004123702,21.03195396941174,0 73.95023626282168,21.03177503487714,0 73.9503325577095,21.03155133209276,0 73.95047666843163,21.03141723353157,0 73.95057296293209,21.03119353029469,0 73.95066918385967,21.03101459497497,0 73.95071744132046,21.0308355910184,0 73.9507656989944,21.03065658692071,0 73.95086191957978,21.0304776510692,0 73.95100610270184,21.03029878302462,0 73.95110232271939,21.03011984669578,0 73.95115058001036,21.02994084188203,0 73.95129476265734,21.02976197334707,0 73.95143887185641,21.02962787260617,0 73.95158305418555,21.02944900342764,0 73.95177512565861,21.02931497013659,0 73.95196719701114,21.02918093706517,0 73.9521112320291,21.02909160366475,0 73.95225541407113,21.02891273278273,0 73.95239952232335,21.02877863083424,0 73.95254363048923,21.02864452795908,0 73.95263984942045,21.02846558835786,0 73.9528319198879,21.02833155312102,0 73.95297610109114,21.02815268042139,0 73.95312013618593,21.02806334513693,0 73.9532643172147,21.02788447234272,0 73.95345638739293,21.02775043483441,0 73.95360049503964,21.02761632960373,0 73.95379263885712,21.02743752274026,0 73.9538887839072,21.02730334960507,0 73.95408092704702,21.02712454113509,0 73.95417707200555,21.02699036801946,0 73.95427321693379,21.02685619403378,0 73.95441739743762,21.02667731730084,0 73.95456150478421,21.02654321017813,0 73.95475350154368,21.026453938307,0 73.95494542587758,21.02640943556165,0 73.95513735035379,21.02636493247472,0 73.95537723709491,21.02632049553345,0 73.95561719758007,21.02623128842781,0 73.95590519448984,21.02609737788999,0 73.95604922920796,21.02600803705778,0 73.95628911738652,21.02596359796954,0 73.95652915148871,21.02582961861753,0 73.95676904021303,21.02578517838564,0 73.95696103785187,21.02569590248313,0 73.9572008549646,21.02569623124672,0 73.95739285410514,21.02560695383805,0 73.95763281611696,21.02551774149841,0 73.95782481565111,21.02542846309256,0 73.95801688797954,21.02529441461924,0 73.95816099650916,21.02516029967138,0 73.95835306800652,21.02502624946627,0 73.9585450681836,21.02493696911312,0 73.9586891770293,21.0248028534084,0 73.95888125010291,21.02466880154429,0 73.95902543173443,21.02448991356223,0 73.95916968603785,21.02426625480084,0 73.95931379531082,21.02413213636209,0 73.95945790469661,21.02399801745922,0 73.95955412356498,21.02381906255405,0 73.95965034141784,21.02364010841066,0 73.95979452368209,21.0234612168684,0 73.95989067019946,21.02332703170492,0 73.96003485269978,21.02314813901738,0 73.96017896272528,21.02301401715476,0 73.96037103630158,21.022879960084,0 73.96056303863405,21.02279067273302,0 73.96070714920081,21.02265654928748,0 73.96085118732186,21.02256719714836,0 73.96104326296899,21.02243313643706,0 73.96123526632117,21.02234384700335,0 73.96147523385109,21.02225462047934,0 73.96181113210915,21.0221655197952,0 73.9620511745499,21.02203151925078,0 73.96238721860622,21.02185287260169,0 73.96267515426291,21.02176370509198,0 73.96301098400079,21.02171937180431,0 73.96315502513932,21.0216300144555,0 73.96329906649129,21.02154065671948,0 73.96349092909263,21.02154090659572,0 73.96373090311629,21.02145167279334,0 73.96397073184406,21.02145198403882,0 73.96416281321028,21.02131791372595,0 73.96430692855482,21.02118378065528,0 73.96440307766646,21.02104958635756,0 73.96454726591229,21.02087067890709,0 73.9646434889594,21.02069170891672,0 73.96473978364264,21.02046796470955,0 73.96478811305813,21.02024415928546,0 73.96478840347655,21.02006506416634,0 73.96483666064535,21.01988603012053,0 73.96488491687573,21.01970699555251,0 73.96493317435487,21.0195279604597,0 73.9650293975496,21.01934898737969,0 73.96507765535772,21.01916995115714,0 73.96512591332659,21.018990914392,0 73.96527010384496,21.01881199921305,0 73.96536625498207,21.01867779700117,0 73.96541444052609,21.01854353341848,0 73.96555863180494,21.01836461741512,0 73.96565478348556,21.0182304136872,0 73.96579904839307,21.01800671954483,0 73.96594316874808,21.01787257509,0 73.96608714224207,21.01782798103334,0 73.96623082396606,21.01796248868223,0 73.96637443321359,21.0181417714075,0 73.9664701472728,21.01827621807949,0 73.96651782444405,21.01845537937555,0 73.96651746035671,21.01867925366268,0 73.96646920058886,21.01885829311185,0 73.966372976722,21.01903727144739,0 73.96622878452952,21.01921618840876,0 73.96618059798456,21.01935045147678,0 73.96603640633079,21.01952936575793,0 73.96598814965402,21.01970840227563,0 73.96598785939989,21.01988749921829,0 73.96598756932009,21.02006659573865,0 73.96608321428846,21.02024581385313,0 73.96608285220636,21.0204696822454,0 73.96613045684256,21.02069361233692,0 73.96613016761349,21.02087270714228,0 73.96612987856,21.02105180155329,0 73.96603365450279,21.0212307718982,0 73.9660332935937,21.0214546387834,0 73.96593685577159,21.02176792868882,0 73.96593649545541,21.02199179407195,0 73.96593613541276,21.02221565762885,0 73.96550299159549,21.02311055405726,0 73.96555081546261,21.02320016068254,0 73.96555052835029,21.02337924994432,0 73.96531018982121,21.02369234517663,0 73.96545387614198,21.02382684635537,0 73.96564560227417,21.02391663858992,0 73.96583740065127,21.02396165852056,0 73.96593326483222,21.02400655443314,0 73.96574110833195,21.02418539467567,0 73.96564495817866,21.02431958634159,0 73.96550084154083,21.02445371484485,0 73.96535672514287,21.02458784345918,0 73.96526050506785,21.02476680554025,0 73.96511653203335,21.02481139000914,0 73.9652124660138,21.02481151479441,0 73.96506813574561,21.02507995606678,0 73.96492416295327,21.02512453994085,0 73.96478019039913,21.02516912356818,0 73.96473193725019,21.02534814562939,0 73.96453985480282,21.02548220845953,0 73.96444370711866,21.025616396353,0 73.96429952094971,21.02579529141552,0 73.96425126819953,21.02597431249824,0 73.9643948121368,21.02619835624664,0 73.96449053301185,21.02633279433415,0 73.96449024807406,21.0265118778224,0 73.96444192466201,21.02673566814889,0 73.96434570622317,21.02691462480204,0 73.96424948681977,21.02709358038025,0 73.9641532686321,21.02727253615232,0 73.96396111589175,21.0274513647074,0 73.96391293527867,21.02758561192573,0 73.96391265098553,21.02776469343786,0 73.96376846590826,21.02794358409025,0 73.96357631485499,21.02812240987151,0 73.96343205912078,21.0283460694273,0 73.96343177507001,21.02852514914295,0 73.96328758946638,21.02870403767957,0 73.96314347609041,21.0288381557527,0 73.96304718800513,21.02906187659629,0 73.96295104194839,21.02919605795717,0 73.96275896181947,21.02933011004867,0 73.96261484891885,21.02946422650564,0 73.96251856006347,21.02968794591037,0 73.9623264815001,21.02982199713752,0 73.96218229795252,21.03000088156643,0 73.96203804352776,21.03022453498012,0 73.96184596433467,21.03035858430732,0 73.96174974678644,21.03053753202834,0 73.96160556359673,21.03071641491631,0 73.96155724305559,21.030940195813,0 73.9613650222208,21.03116378182168,0 73.96126880485943,21.03134272845266,0 73.96117251768034,21.03156644360258,0 73.96107644335729,21.03165585117101,0 73.96093233137887,21.03178996272736,0 73.96069228613585,21.03192394299214,0 73.96045224226179,21.03205792261695,0 73.96026009298868,21.03223673619216,0 73.96011598135509,21.03237084598227,0 73.96001976515595,21.03254978980382,0 73.95987565354562,21.0326838990363,0 73.95973154086975,21.03281800797908,0 73.95953946399166,21.03295205078821,0 73.95939535247362,21.03308615894827,0 73.95925124096786,21.03322026699086,0 73.95910712837716,21.03335437476132,0 73.95891512290943,21.03344364753676,0 73.95872318776468,21.03348815154305,0 73.95853118150558,21.03357742367373,0 73.95838714148528,21.03366676178362,0 73.95833881860055,21.03389053779147,0 73.95829056817097,21.03406954525616,0 73.95824231665718,21.03424855263775,0 73.95814609996431,21.03442749343765,0 73.95809784842537,21.03460650061548,0 73.95804959689016,21.0347855077281,0 73.95795338007365,21.03496444819087,0 73.95790512850172,21.0351434551529,0 73.95780891158338,21.03532239537083,0 73.95771276481081,21.03545656713618,0 73.95761654776236,21.03563550714931,0 73.9574723641653,21.03581438013741,0 73.95728028536848,21.0359484177525,0 73.95713610156065,21.03612729033852,0 73.95694402261996,21.03626132738261,0 73.95694366545948,21.03648516904268,0 73.95684744781843,21.03666410818649,0 73.95684709074963,21.0368879499378,0 73.95684673381741,21.03711179178248,0 73.95684637702168,21.03733563373044,0 73.95679805351762,21.03755940842438,0 73.95674980242256,21.03773841515224,0 73.95674944584557,21.03796225739076,0 73.95660526020222,21.03814112928725,0 73.95650904194932,21.03832006843273,0 73.95641289438879,21.03845423899337,0 73.95631667536186,21.03863317839295,0 73.95626842332751,21.03881218495086,0 73.95622017070849,21.03899119157248,0 73.95612395137375,21.03917013071785,0 73.9560756277924,21.03939390612794,0 73.95597926544879,21.03966238277107,0 73.95597897998204,21.03984145739638,0 73.95588261797998,21.04010993437678,0 73.95650576578556,21.0403794263614,0 73.95664952612518,21.04046916700277,0 73.95669720945753,21.0406483104956,0 73.95669685454476,21.04087215499897,0 73.95674446794273,21.04109606803783,0 73.95674418429046,21.04127514395168,0 73.9567918679727,21.04145428834509,0 73.95679158456774,21.04163336465266,0 73.95683926975705,21.04181250948319,0 73.95683898660022,21.04199158683465,0 73.95679073487129,21.04217059602054,0 73.95659857866816,21.04234940263467,0 73.95645446120176,21.04248350753547,0 73.95616643869072,21.0426174080695,0 73.95602232086907,21.04275151275979,0 73.95587813182134,21.04293038632764,0 73.95582994994339,21.04306462703152,0 73.95573372870578,21.04324356941975,0 73.95568547612183,21.04342257939585,0 73.95568519183571,21.04360165830383,0 73.95568490762579,21.04378073746183,0 73.95578056113902,21.04395995249772,0 73.95578027724372,21.04413903220748,0 73.95577978061347,21.04445242171114,0 73.95577956784381,21.04458673202374,0 73.95577907155084,21.04490012273506,0 73.95577878806024,21.04507920389406,0 73.95587444354888,21.04525842120318,0 73.95587416038119,21.04543750298796,0 73.95587387729149,21.04561658507479,0 73.95587352354092,21.04584043685628,0 73.95587324062659,21.04601951964129,0 73.95587295779019,21.04619860274485,0 73.95587267503174,21.04637768617204,0 73.95572855261048,21.04651179382812,0 73.95553674400769,21.04646674931449,0 73.95534500618258,21.04637693389331,0 73.95515312747182,21.04637666014033,0 73.95496131952721,21.04633161547708,0 73.95467350203985,21.04633120451557,0 73.95448162415292,21.04633093040912,0 73.95424163382387,21.04642012913685,0 73.95395381664066,21.04641971753482,0 73.95361803126673,21.04641923703478,0 73.95333021550059,21.04641882492117,0 73.95318630721201,21.04641861877489,0 73.95294646099381,21.04641827506741,0 73.95270661556398,21.04641793119644,0 73.95246662538216,21.04650712851241,0 73.95232264574051,21.04655169269468,0 73.95213069656134,21.04659618794604,0 73.95189085089125,21.04659584346538,0 73.95165100568957,21.04659549882341,0 73.95150724362992,21.04650575062509,0 73.9513635549021,21.04637123189001,0 73.95107603285814,21.04619173583598,0 73.95102813716775,21.04614689635661,0 73.95083633516627,21.04610184982255,0 73.95064453343431,21.04605680321532,0 73.95045273196615,21.04601175653356,0 73.95026093075599,21.04596670977592,0 73.95002116119204,21.04592159380103,0 73.94987732881334,21.04587661602716,0 73.94968560198001,21.04578679876568,0 73.94944575974982,21.0457864527401,0 73.94925403347108,21.04569663659615,0 73.94901419173975,21.04569629026733,0 73.94882254001594,21.04556170255968,0 73.94858277257801,21.04551658579485,0 73.94839097368738,21.04547153825296,0 73.94819917499244,21.04542649061999,0 73.94800737648731,21.04538144289457,0 73.94781565246878,21.04529162504526,0 73.94762385441894,21.04524657715014,0 73.94743205652435,21.04520152915799,0 73.94724025878776,21.04515648106747,0 73.9470485358832,21.04506666356916,0 73.94685673856277,21.04502161529502,0 73.9466650162295,21.04493179703195,0 73.94647329420431,21.04484197871464,0 73.94628149741018,21.04479693015857,0 73.94608970081558,21.04475188149459,0 73.94584986133198,21.04475153276794,0 73.9456100216394,21.04475118385195,0 73.94537018200045,21.044750834747,0 73.9451783855088,21.04470578550367,0 73.94489057789642,21.04470536613847,0 73.94469870597301,21.04470508640964,0 73.94445886588873,21.0447047365776,0 73.94421894977837,21.04474915640885,0 73.94402700149479,21.04479364614015,0 73.9438349768803,21.0448829057051,0 73.94364310412315,21.04488262534047,0 73.9434511550235,21.04492711481217,0 73.94321131360715,21.04492676404918,0 73.94297154844355,21.04488164311995,0 73.94277967515376,21.04488136221579,0 73.94253983328507,21.04488101091686,0 73.94234780653197,21.04497026978894,0 73.94215577874033,21.04505952865838,0 73.94201179628001,21.04510408775139,0 73.94181976820363,21.04519334597173,0 73.94162781612296,21.04523783462238,0 73.94143586425085,21.04528232320144,0 73.94124391148854,21.04532681170865,0 73.94110008222012,21.0452818300753,0 73.94090805161937,21.04537108869724,0 73.9407162534238,21.04532603635662,0 73.94052445465476,21.04528098388846,0 73.94038062523006,21.04523600188115,0 73.94014077985668,21.04523564886595,0 73.93999702811325,21.04514589636634,0 73.93975726028523,21.04510077335277,0 73.93961350871558,21.04501102068244,0 73.93942163233056,21.04501073773135,0 73.9392299113205,21.04492091410211,0 73.93903826907757,21.04478632011876,0 73.93889451785192,21.04469656713452,0 73.9387508444089,21.04456204454948,0 73.93851123317329,21.04442737943596,0 73.93836756067043,21.04429285614271,0 73.93812794980228,21.04415819138456,0 73.93803224720392,21.04402373907751,0 73.93788841816406,21.04397875574877,0 73.93769669809126,21.04388893115205,0 73.93750489936667,21.04384387642892,0 73.93726505313303,21.04384352036698,0 73.93707317516507,21.04384323537035,0 73.93688129690203,21.04384295024382,0 73.93668941943145,21.04384266498903,0 73.93649738234694,21.04393191994142,0 73.93630526538918,21.04406594517701,0 73.93611330618671,21.04411042994668,0 73.93596915813808,21.04424452614279,0 73.93577711839447,21.04433378132182,0 73.93563304863179,21.04442310797495,0 73.93544100872495,21.04451236326742,0 73.93524904677173,21.04455684801435,0 73.93505708429942,21.04460133270917,0 73.93486504137661,21.04469058740823,0 73.93472096898223,21.04477991431668,0 73.93448103458036,21.04482432743667,0 73.9342889895771,21.04491358288819,0 73.93409694383455,21.04500283840775,0 73.93390497885269,21.04504732301031,0 73.93371293171256,21.04513657797892,0 73.93352096441862,21.04518106254859,0 73.93332891585314,21.04527031823564,0 73.93318475801681,21.0454044168999,0 73.93299262704348,21.04553844416017,0 73.93280049616429,21.04567247167099,0 73.93275219930915,21.04585148462628,0 73.93260803861021,21.04598558438491,0 73.93246387720637,21.04611968440786,0 73.93227174190423,21.04625371307576,0 73.93207968704522,21.04634297016487,0 73.93188755087458,21.04647699929735,0 73.93169557594827,21.046521484681,0 73.93150368216682,21.04652119800843,0 73.9313117879325,21.04652091123107,0 73.93112005820768,21.04643108018748,0 73.93092832723632,21.0463412489755,0 73.93073659610471,21.04625141759359,0 73.93059283897495,21.04616165792228,0 73.93035321661668,21.04602698227376,0 73.93020954046344,21.04589245034488,0 73.92996967093288,21.04589209030456,0 73.92977777409475,21.0458918021467,0 73.92963376892835,21.04593635807563,0 73.9294416233537,21.04607038635968,0 73.92920175087293,21.04607002596508,0 73.92896171082384,21.04615921009695,0 73.92872175463218,21.04620362189624,0 73.92843323647688,21.04656136965358,0 
					</coordinates>
				</LinearRing>
			</outerBoundaryIs>
		</Polygon>
		<atom:link rel="app" href="https://www.google.com/earth/about/versions/#earth-pro" title="Google Earth Pro 7.3.7.1094"></atom:link>
	</Placemark>
</Document>
</kml>
