<?xml version="1.0" encoding="UTF-8"?>
<kml xmlns="http://www.opengis.net/kml/2.2" xmlns:gx="http://www.google.com/kml/ext/2.2" xmlns:kml="http://www.opengis.net/kml/2.2" xmlns:atom="http://www.w3.org/2005/Atom">
<Document>
	<name>खोलघर_१५५_२८७.kml</name>
	<StyleMap id="m_ylw-pushpin">
		<Pair>
			<key>normal</key>
			<styleUrl>#s_ylw-pushpin</styleUrl>
		</Pair>
		<Pair>
			<key>highlight</key>
			<styleUrl>#s_ylw-pushpin_hl</styleUrl>
		</Pair>
	</StyleMap>
	<Style id="s_ylw-pushpin">
		<IconStyle>
			<scale>1.1</scale>
			<Icon>
				<href>http://maps.google.com/mapfiles/kml/pushpin/ylw-pushpin.png</href>
			</Icon>
			<hotSpot x="20" y="2" xunits="pixels" yunits="pixels"/>
		</IconStyle>
		<LineStyle>
			<color>d600ffff</color>
			<width>2.8</width>
		</LineStyle>
		<PolyStyle>
			<color>8affffaa</color>
		</PolyStyle>
	</Style>
	<Style id="s_ylw-pushpin_hl">
		<IconStyle>
			<scale>1.3</scale>
			<Icon>
				<href>http://maps.google.com/mapfiles/kml/pushpin/ylw-pushpin.png</href>
			</Icon>
			<hotSpot x="20" y="2" xunits="pixels" yunits="pixels"/>
		</IconStyle>
		<LineStyle>
			<color>d600ffff</color>
			<width>2.8</width>
		</LineStyle>
		<PolyStyle>
			<color>8affffaa</color>
		</PolyStyle>
	</Style>
	<Placemark>
		<name>खोलघर_१५५_२८७</name>
		<styleUrl>#m_ylw-pushpin</styleUrl>
		<Polygon>
			<tessellate>1</tessellate>
			<outerBoundaryIs>
				<LinearRing>
					<coordinates>
						74.13292581460767,21.25038063872117,0 74.13280800628182,21.25054520748031,0 74.13263135566353,21.2506548890339,0 74.13251357123796,21.25076458951624,0 74.13239596282526,21.25049020746617,0 74.13233717174205,21.25032558245441,0 74.13227840534124,21.2501060892577,0 74.13227853128616,21.24983174877319,0 74.13227863191808,21.24961227592095,0 74.13227873243923,21.24939280374514,0 74.13227888301324,21.24906359673305,0 74.13227895820611,21.24889899532687,0 74.1322790583673,21.24867952529678,0 74.13227915841773,21.24846005591071,0 74.13233812424167,21.24824060619794,0 74.13239708897666,21.24802115715725,0 74.13239721324953,21.24774682448584,0 74.13251504261321,21.2475273960028,0 74.13257400604409,21.24730794908686,0 74.1325741046993,21.24708848367906,0 74.13257420324722,21.24686901885998,0 74.1325154375799,21.24664953697787,0 74.13245667139252,21.24643005406707,0 74.13228020226097,21.24615566740822,0 74.13216254874285,21.2459910318374,0 74.13204491961704,21.24577153250247,0 74.13186842718946,21.24555201261165,0 74.13175079884498,21.24533251248151,0 74.13157430734742,21.24511299321816,0 74.1315744072047,21.24489353291015,0 74.13157453185845,21.24461920978846,0 74.1315746314483,21.24439975062282,0 74.13157473091931,21.24418029195251,0 74.1316925565073,21.24396087307785,0 74.13169265548015,21.24374141542999,0 74.13192818026148,21.2435769027267,0 74.13216368010083,21.24346725286966,0 74.1323403405505,21.24330271940383,0 74.13263465233231,21.24330281729366,0 74.13287010099728,21.2433028954093,0 74.13310559780803,21.24319324547071,0 74.1333411168515,21.24302873174498,0 74.13357658825139,21.24297394568223,0 74.13375322048499,21.24286427644155,0 74.13398871346104,21.24275462740527,0 74.13422420630731,21.24264497761028,0 74.13445967460505,21.24259019129295,0 74.13463632737756,21.24242565878789,0 74.13475414150081,21.24220624474893,0 74.13487195498101,21.24198683038626,0 74.13498974508855,21.24182227952328,0 74.13504869635935,21.2416028474519,0 74.13510764796143,21.24138341503127,0 74.13516659855526,21.24116398379633,0 74.13522554881416,21.24094455219574,0 74.13528449941057,21.24072512099335,0 74.13534344900529,21.24050569095236,0 74.13540239827165,21.24028626052143,0 74.1354613478817,21.24006683123615,0 74.13552029649725,21.2398474015445,0 74.13557924546116,21.23962797221058,0 74.13557935663547,21.23935366268252,0 74.13557944549378,21.23913421480342,0 74.13557955646468,21.23885990616469,0 74.13563850378175,21.23864047833153,0 74.13563861440724,21.23836617055469,0 74.1357564201913,21.23814676277665,0 74.13587420276386,21.2379822168007,0 74.13587431256308,21.23770791015146,0 74.13593325896265,21.23748848387688,0 74.13605104105724,21.23732393930754,0 74.13610998610712,21.23710451350302,0 74.1361689311953,21.2368850879557,0 74.13634556962495,21.23672056320355,0 74.13646337129695,21.23650115737892,0 74.13658117276643,21.23628175215526,0 74.13664011625961,21.23606232787818,0 74.13664022359019,21.23578802364737,0 74.13669916625885,21.23556859985111,0 74.13669927329067,21.23529429617857,0 74.13664050221092,21.23507483419907,0 74.13664060920409,21.23480053100215,0 74.13664071610354,21.23452622805819,0 74.13664082290927,21.23425192535231,0 74.13669978575368,21.23397764225924,0 74.1368175836606,21.23375823926835,0 74.13693538107132,21.23353883599964,0 74.13699432154756,21.2333194138928,0 74.13711211809834,21.23310001122115,0 74.13711222345337,21.23282570964552,0 74.13699459609686,21.2326062298584,0 74.13687696935918,21.23238674983805,0 74.13670046571799,21.23222211081719,0 74.13658283957162,21.23200263062567,0 74.13646519210306,21.23183801069318,0 74.13628873225836,21.2315636506622,0 74.13617110696742,21.23134417028209,0 74.13605346056073,21.231179550123,0 74.13581808185926,21.23106975031035,0 74.13552380511325,21.23106965077175,0 74.13522952802757,21.23106955073974,0 74.13499406296052,21.23117919104777,0 74.1346997631028,21.23123395049715,0 74.13446431810655,21.23128872980848,0 74.13417003921171,21.23128862810069,0 74.13387576057421,21.23128852590365,0 74.13358148083714,21.23128842321687,0 74.1333460564596,21.23128834071492,0 74.13305179844632,21.23123337667263,0 74.13281639678053,21.23117843294629,0 74.13258101700647,21.23106862824666,0 74.13234566068695,21.23090396265317,0 74.13211028100984,21.23079415716054,0 74.13199263691297,21.23062953309841,0 74.1318161369675,21.2304648876222,0 74.13169851672556,21.23024540258776,0 74.13152201642463,21.23008075656816,0 74.13140439650014,21.22986127108017,0 74.13134560890323,21.22969666761091,0 74.13116910968468,21.22953202087596,0 74.13105148945976,21.22931253477138,0 74.13087499049925,21.22914788747918,0 74.13075739362009,21.22887354012161,0 74.13058089493124,21.22870889206759,0 74.13040442014291,21.22848938285074,0 74.13028677674203,21.22832475615416,0 74.1301103015209,21.22810524628736,0 74.12999268282279,21.22788575824889,0 74.12987503966285,21.22772113076298,0 74.12969856475802,21.22750161973659,0 74.12952208995323,21.22728210802939,0 74.12940444833821,21.22711747962343,0 74.12928683004635,21.22689798995327,0 74.12916921047002,21.22667849994432,0 74.12899268936103,21.22656870895299,0 74.12881621488,21.22634919531033,0 74.12869857348336,21.22618456557358,0 74.12858095411973,21.22596507372705,0 74.12852219245441,21.22574560507108,0 74.12834571681975,21.22552608965373,0 74.12822807553236,21.22536145863992,0 74.1281104342572,21.22519682694183,0 74.12799283834687,21.22492247187597,0 74.12781634077049,21.22475781623356,0 74.12763984314904,21.22459316009782,0 74.1275810816193,21.22437368877171,0 74.12740460602573,21.22415416977356,0 74.1272869881134,21.22393467411666,0 74.12705163401517,21.22376999193803,0 74.12699287248697,21.2235505190377,0 74.12681642147132,21.22327613570712,0 74.126757635153,21.22311152431522,0 74.1265811840378,21.22283713963176,0 74.12646358791048,21.22256277785239,0 74.12634596972717,21.22234327803648,0 74.12628718324245,21.22217866596892,0 74.12616956495386,21.22195916524656,0 74.12599306689512,21.22179450193741,0 74.12581659200029,21.22157497579728,0 74.12569894886768,21.22141033638325,0 74.12558133028962,21.22119083414802,0 74.12540483179514,21.22102616847413,0 74.12528721303912,21.22080666427552,0 74.12516956959216,21.22064202372098,0 74.12505195065008,21.22042251839765,0 74.12487547492368,21.22020298667262,0 74.12475785439857,21.21998348075454,0 74.12452256930746,21.21965419344833,0 74.12446375889483,21.21954444008902,0 74.12434613931114,21.21932493132601,0 74.124287375059,21.21910544819993,0 74.12428749049046,21.21883112732274,0 74.12428758260756,21.21861166956263,0 74.12428769746813,21.21833734757056,0 74.12440550082816,21.21811794186507,0 74.12440563778871,21.21778875398605,0 74.12440577429599,21.21745956437045,0 74.12440588770528,21.21718523970698,0 74.1243471233002,21.21696575213887,0 74.12434721364582,21.21674629078104,0 74.12434732629283,21.21647196497248,0 74.12422970387195,21.21625244873043,0 74.12422981606082,21.2159781199149,0 74.12411219465652,21.21575860214767,0 74.12387686057471,21.21553903060474,0 74.1237592163772,21.21537437727707,0 74.1235827156332,21.21520969589377,0 74.12346509206031,21.21499017479112,0 74.12322973558716,21.21482546403828,0 74.12299439954876,21.21460588529565,0 74.12281785289862,21.21455093430372,0 74.12264135054573,21.21438625029766,0 74.1224648478685,21.21422156392146,0 74.12222946544023,21.21411171561682,0 74.12199408242722,21.21400186644964,0 74.12175872112415,21.21383714877174,0 74.12158219451256,21.21372732669822,0 74.12140568984405,21.21356263612468,0 74.12122918480628,21.21339794623172,0 74.12117041596319,21.21317844436419,0 74.12128822011339,21.21295902980339,0 74.12134716480169,21.21273958543212,0 74.12140611048254,21.21252014053463,0 74.12152391323077,21.21230072599236,0 74.12164171409903,21.21208130937177,0 74.12175951443281,21.21186189220761,0 74.12193617125286,21.21164250376465,0 74.12205397175818,21.21142308547122,0 74.12205405813202,21.21120360962436,0 74.1221718564928,21.21098419020611,0 74.12234853235441,21.21070992972807,0 74.12246630952048,21.21054537882031,0 74.12270179627909,21.21038088584426,0 74.12287842731506,21.21021636320568,0 74.12317274850483,21.21010676958251,0 74.12340821277427,21.20999714485325,0 74.12358484170831,21.20983262076187,0 74.12382030318213,21.20972299503122,0 74.12405576522413,21.20961336875494,0 74.12429120559858,21.20955861218867,0 74.12452664530541,21.20950385510725,0 74.1247621038456,21.20939422725048,0 74.12493875122075,21.20917483006441,0 74.1251153758934,21.20901030419886,0 74.12535083243532,21.20890067473828,0 74.12552745597803,21.20873614629096,0 74.1257629125673,21.20862651573984,0 74.12605714025743,21.20873639482987,0 74.12617480562362,21.20884619070194,0 74.12635128348718,21.209065754017,0 74.12646890724963,21.2092852874039,0 74.12658653213299,21.20950482130335,0 74.12670415546106,21.20972435418,0 74.12670407256643,21.20994383244444,0 74.12682171767273,21.21010849422138,0 74.12705706711786,21.21027320700149,0 74.12717471183575,21.21043786728021,0 74.12741008138964,21.21054771071906,0 74.12764547262459,21.21060268449805,0 74.1278808634119,21.21065765760552,0 74.12811623302017,21.2107674986656,0 74.12841049526412,21.21076762751455,0 74.12864590534039,21.21076772997436,0 74.12888131496028,21.21076783188333,0 74.12911670215777,21.21082280166987,0 74.12935206967829,21.21093263910777,0 74.12958745745617,21.21098760750091,0 74.12982286544317,21.21098770707614,0 74.13005823055057,21.21109754232151,0 74.13029359667118,21.21120737672847,0 74.13052894192492,21.21137207657884,0 74.13076432730035,21.21142704150066,0 74.13094080023124,21.21164658450869,0 74.1310584204661,21.21186610242125,0 74.13111719007082,21.2120855955386,0 74.13111710768318,21.21230506405581,0 74.13105817320823,21.2125245065236,0 74.13105809053981,21.21274397383864,0 74.13105800774699,21.21296344054959,0 74.13111677689537,21.21318293046394,0 74.13111669388883,21.2134023959607,0 74.1313519962994,21.21367682008712,0 74.13141078601623,21.21384144175688,0 74.13146953342078,21.21411579469664,0 74.13158717444003,21.21428043876277,0 74.13158707027671,21.21455476518611,0 74.13170469038565,21.21477427353175,0 74.13182230977898,21.21499378110865,0 74.13188107836805,21.21521326483131,0 74.13205757067384,21.21537792905103,0 74.13229293513895,21.21548775059929,0 74.13258713055082,21.21565245734733,0 74.13276364338719,21.21576225465887,0 74.13294013603692,21.21592691606315,0 74.13311662798107,21.21609157680593,0 74.13323424727511,21.21631107894996,0 74.13323416412275,21.21653053595049,0 74.13311637825484,21.21674994641107,0 74.13288092965193,21.21685958516152,0 74.13264548119903,21.21696922341282,0 74.13241007358562,21.21696913314035,0 74.13211579286991,21.21702388368713,0 74.13176268080537,21.21702374652235,0 74.13146837750087,21.21713335958079,0 74.13129182077211,21.21713329018845,0 74.13105638972496,21.21718806134734,0 74.13076212730347,21.21718794453729,0 74.13046786428379,21.21718782698278,0 74.13023249743971,21.21707800396563,0 74.12999708600748,21.21707790884639,0 74.12970286392289,21.21696806058055,0 74.12952630509447,21.21696798843056,0 74.1293496811258,21.2171325091596,0 74.12952617542413,21.21729717432358,0 74.12964379584326,21.21751667822055,0 74.12970256136374,21.21773615832479,0 74.12982018168469,21.21795566171904,0 74.12993780062126,21.21817516367193,0 74.13011427301902,21.21839468934251,0 74.13023191491735,21.21855932638455,0 74.13034953376224,21.2187788271856,0 74.13040830043201,21.21899830400699,0 74.13046706571042,21.21921777957944,0 74.13052583228078,21.21943725545558,0 74.13052574519884,21.21965670689953,0 74.13064336461422,21.21987620506255,0 74.13064327738263,21.22009565649753,0 74.13064316816164,21.22036996953005,0 74.13070191187998,21.22064430581318,0 74.13076067743057,21.22086377821108,0 74.13081944361696,21.22108325097236,0 74.13087820910098,21.22130272256111,0 74.13093697522515,21.22152219452944,0 74.13099574065099,21.22174166611318,0 74.13105450605143,21.22196113654898,0 74.13111327209853,21.22218060738863,0 74.1314074742765,21.22234530516195,0 74.13140738641809,21.2225647527362,0 74.13152500529212,21.22278424478593,0 74.13158377145167,21.2230037133178,0 74.13170139108082,21.2232232045177,0 74.13187786425087,21.22344271661695,0 74.13199548335839,21.2236622068481,0 74.13199537346155,21.22393651372663,0 74.13211299334014,21.22415600280541,0 74.13211290531977,21.22437544772793,0 74.13223052530559,21.22459493652967,0 74.13228929096559,21.22481440279209,0 74.1323480573072,21.22503386879446,0 74.13234794706314,21.22530817394523,0 74.13246556663836,21.2255276610822,0 74.13258318698786,21.22574714786386,0 74.13270080744634,21.22596663429948,0 74.13281842801874,21.22618612078445,0 74.13293604871049,21.22640560655659,0 74.13305369085327,21.22657023121728,0 74.13317131178545,21.22678971640551,0 74.13323007800578,21.22700918034396,0 74.13328884493428,21.22722864410523,0 74.13322990191581,21.22744806533406,0 74.13322979165766,21.2277223682352,0 74.13328851436597,21.22805155246221,0 74.13334725850405,21.22832587604837,0 74.13340602544729,21.22854533909107,0 74.13346479176987,21.2287648018186,0 74.13370018929903,21.22881974569991,0 74.13393565319357,21.22871010779578,0 74.13405345052668,21.22849070748334,0 74.13428891253177,21.22838106930782,0 74.13446554134997,21.22821654981103,0 74.13470102442592,21.22805205067627,0 74.13487765202842,21.22788753102434,0 74.13511309081544,21.2278327521576,0 74.13540736106962,21.22783285368359,0 74.1357016316482,21.22783295465789,0 74.1360547563105,21.22783307509865,0 74.13646667057438,21.22799779552255,0 74.13676094034193,21.2279978944577,0 74.13699635589185,21.22799797321058,0 74.13729062518017,21.22799807115767,0 74.13758489422464,21.22799816855586,0 74.13776139377225,21.22816280739626,0 74.13799676797426,21.22827260496085,0 74.13823214236074,21.22838240212031,0 74.13846751694192,21.22849219887939,0 74.13864403779708,21.22860197634376,0 74.13882053895982,21.22876661358147,0 74.13899704008473,21.2289312506602,0 74.13917354168167,21.22909588739362,0 74.13935002338613,21.22931538404226,0 74.13952654564864,21.22942516028408,0 74.13964417404664,21.22964463784634,0 74.13987955091582,21.22975443223196,0 74.14005603417388,21.22997392792048,0 74.14023253780371,21.23013856333968,0 74.14017360437037,21.23035798511869,0 74.14017352531279,21.23057742531157,0 74.14011459173983,21.23079684708219,0 74.13999680320293,21.23101625046438,0 74.13987903416235,21.23118079376075,0 74.13976124487627,21.23140019698437,0 74.13970233002563,21.23156475876392,0 74.13946689020972,21.23161954452141,0 74.13940793485432,21.2318938264753,0 74.13940783434454,21.23216812715327,0 74.13940771367533,21.23249728819063,0 74.13934877766302,21.23271671023851,0 74.13940755268551,21.23293616960762,0 74.1396429347371,21.23304596426163,0 74.13993717260881,21.23315577725668,0 74.14011371961642,21.23321069257977,0 74.14034912227335,21.23326562624131,0 74.14058452507402,21.23332055941865,0 74.14081990846772,21.23343035282524,0 74.14099639752563,21.23364984818542,0 74.141055175429,21.23386930737523,0 74.14105509755981,21.23408874860658,0 74.14117273180162,21.23430822647254,0 74.14129036643291,21.23452770402129,0 74.14158458951316,21.23469237494715,0 74.14170222519164,21.23491185251747,0 74.14187873682913,21.23507648781271,0 74.1419963733798,21.23529596550935,0 74.14211397234317,21.23562516470793,0 74.14211389629278,21.23584460724038,0 74.14199612553118,21.23600915360621,0 74.14199603021065,21.23628345733872,0 74.14181940182623,21.23644798649556,0 74.14170161090772,21.2366673940797,0 74.14152498153307,21.23683192329299,0 74.1412895137144,21.23694157271488,0 74.14105402596437,21.2371060837901,0 74.14087739501572,21.23727061286741,0 74.14075962112359,21.23743515931459,0 74.14070068487345,21.23765458599051,0 74.14070060618428,21.23787403105602,0 74.14052393398292,21.23814828254876,0 74.14040611898264,21.23842255334398,0 74.14011172864392,21.23869676905661,0 74.13999395204453,21.23886131731805,0 74.13987617507372,21.23902586570788,0 74.1398760745859,21.23930017364201,0 74.1398759941701,21.23951962096389,0 74.13987589361896,21.23979392980348,0 74.13987581315249,21.240013377869,0 74.13987571253797,21.24028768766226,0 74.13993449116576,21.24050715477988,0 74.13993439063819,21.24078146556876,0 74.13999316977115,21.2410009334783,0 74.14011080864829,21.24122041918745,0 74.14016958816978,21.24143988779833,0 74.14034608776836,21.24165939311063,0 74.14040486806275,21.24187886166914,0 74.14052250866646,21.2420983495035,0 74.14058130934444,21.24226295656519,0 74.14058123013189,21.24248240810601,0 74.14064001132587,21.24270187893081,0 74.14063991243074,21.24297619469605,0 74.14063983329902,21.24319564842645,0 74.1406397343651,21.24346996622797,0 74.14063965520312,21.24368941944577,0 74.1405218339069,21.24396370241849,0 74.14046291305293,21.24412827616719,0 74.14028624916722,21.24434767807105,0 74.14010960471506,21.24451221617375,0 74.13987411815047,21.24462187201802,0 74.13963865135636,21.2446766635175,0 74.13940318422132,21.24473145335815,0 74.13910887556688,21.2447313619515,0 74.13881456693501,21.24473127029846,0 74.13852025797448,21.24473117839891,0 74.138225948837,21.24473108625291,0 74.1378727778841,21.24473097535246,0 74.13763730879725,21.24478576565712,0 74.1374018609386,21.24478569138,0 74.13710750719741,21.24489532733251,0 74.13687203677016,21.24495011729848,0 74.13663658798717,21.2449500425513,0 74.13640109458292,21.2450596969425,0 74.13610678269875,21.24505960313339,0 74.13581242537769,21.24516923858321,0 74.1355181125263,21.24516914433414,0 74.13540027307971,21.24544343103484,0 74.13540018173377,21.24566289120586,0 74.13540006744725,21.24593721563519,0 74.13539997593372,21.24615667703006,0 74.13539988434567,21.24637613898127,0 74.13551751982702,21.24659563904169,0 74.13557629239401,21.24681512083758,0 74.13575276932366,21.24708950502163,0 74.13598815595756,21.24725417785251,0 74.13616467993209,21.24741883218601,0 74.13634120406063,21.24758348671777,0 74.13657661507222,21.2476932936162,0 74.13675314017773,21.247857948426,0 74.13698855205219,21.2479677538323,0 74.13722396431757,21.24807756076513,0 74.1375182629483,21.24813251944343,0 74.13775369755007,21.24818745958862,0 74.13798911081291,21.24829726632797,0 74.13822454585382,21.24835220630426,0 74.13851886642387,21.24835229769448,0 74.13875430166455,21.2484072374199,0 74.13904862210785,21.24840732847465,0 74.13934296289455,21.2483525526241,0 74.13957841882316,21.24835262520051,0 74.13981391541243,21.24824296435272,0 74.14004937090816,21.24824303670737,0 74.14028484642255,21.24818824235903,0 74.14052032168027,21.24813344794017,0 74.14075581631137,21.24802378698674,0 74.14099127104144,21.24802385888269,0 74.14122674524609,21.24796906424006,0 74.1414622191654,21.24791427106237,0 74.14169773121918,21.2477497436957,0 74.14187435990304,21.24764006485794,0 74.14210987049958,21.24747553784644,0 74.14228651704977,21.24731099325614,0 74.14252198862225,21.24725619842569,0 74.14275742277742,21.24731113532073,0 74.14293395703656,21.24747578648076,0 74.14334590934725,21.24775024103529,0 74.14340475478376,21.24780512496466,0 74.14369898260784,21.24807954356625,0 74.14387552036041,21.24824419606077,0 74.14405205864699,21.24840884886864,0 74.14416973359089,21.24857348442836,0 74.144346273344,21.24873813789833,0 74.14452279618494,21.2489576588371,0 74.14458159099716,21.24917714379682,0 74.14458152133355,21.24939661342266,0 74.14458145170191,21.24961608371733,0 74.14446365208165,21.24983551954494,0 74.14428698669681,21.25005493840268,0 74.14411033834175,21.25021948817566,0 74.14387485961669,21.25027428575681,0 74.14363941662678,21.25021934697956,0 74.14334510877639,21.25016439046328,0 74.14305080147038,21.25010943385293,0 74.14275649460784,21.25005447868899,0 74.14252105316598,21.24999953966708,0 74.14222674705672,21.24994458278577,0 74.14193242232723,21.24994449364549,0 74.14175582747775,21.24994444008826,0 74.14152036767011,21.2499443685934,0 74.14128490785339,21.24994429700115,0 74.1409317181249,21.24994418943013,0 74.14075508360456,21.25005387139719,0 74.14046075837263,21.25005378150376,0 74.14022529813633,21.25005370948085,0 74.13993097268013,21.25005361931698,0 74.13946005186895,21.25005347474234,0 74.13928345656895,21.25005342042772,0 74.13898913073533,21.25005332978309,0 74.13869478362427,21.25010810547494,0 74.1383415709101,21.25016286442283,0 74.13787064814989,21.25016271858951,0 74.13757629922604,21.2502174954146,0 74.13722308406325,21.25027225385511,0 74.13681100268361,21.25032699381874,0 74.13634005437589,21.2503817151985,0 74.13598683636886,21.25043647316911,0 74.13569250661277,21.25043638098122,0 74.13533931073619,21.2504362701666,0 74.1351038467641,21.25043619617555,0 74.13480951596894,21.25043610355755,0 74.13457405079293,21.25043602935983,0 74.13427971930534,21.25043593648373,0 74.1339853874107,21.25043584346424,0 74.133691055093,21.25043575030136,0 74.13339672300694,21.25043565699527,0 74.13292581460767,21.25038063872117,0 
					</coordinates>
				</LinearRing>
			</outerBoundaryIs>
		</Polygon>
		<atom:link rel="app" href="https://www.google.com/earth/about/versions/#earth-pro" title="Google Earth Pro 7.3.7.1094"></atom:link>
	</Placemark>
</Document>
</kml>
