<?xml version="1.0" encoding="UTF-8"?>
<kml xmlns="http://www.opengis.net/kml/2.2" xmlns:gx="http://www.google.com/kml/ext/2.2" xmlns:kml="http://www.opengis.net/kml/2.2" xmlns:atom="http://www.w3.org/2005/Atom">
<Document>
	<name>खैरवे_२_268.kml</name>
	<StyleMap id="m_ylw-pushpin">
		<Pair>
			<key>normal</key>
			<styleUrl>#s_ylw-pushpin</styleUrl>
		</Pair>
		<Pair>
			<key>highlight</key>
			<styleUrl>#s_ylw-pushpin_hl</styleUrl>
		</Pair>
	</StyleMap>
	<Style id="s_ylw-pushpin">
		<IconStyle>
			<scale>1.1</scale>
			<Icon>
				<href>http://maps.google.com/mapfiles/kml/pushpin/ylw-pushpin.png</href>
			</Icon>
			<hotSpot x="20" y="2" xunits="pixels" yunits="pixels"/>
		</IconStyle>
		<LineStyle>
			<color>d600ffff</color>
			<width>2.8</width>
		</LineStyle>
		<PolyStyle>
			<color>8affffaa</color>
		</PolyStyle>
	</Style>
	<Style id="s_ylw-pushpin_hl">
		<IconStyle>
			<scale>1.3</scale>
			<Icon>
				<href>http://maps.google.com/mapfiles/kml/pushpin/ylw-pushpin.png</href>
			</Icon>
			<hotSpot x="20" y="2" xunits="pixels" yunits="pixels"/>
		</IconStyle>
		<LineStyle>
			<color>d600ffff</color>
			<width>2.8</width>
		</LineStyle>
		<PolyStyle>
			<color>8affffaa</color>
		</PolyStyle>
	</Style>
	<Placemark>
		<name>खैरवे_२_268</name>
		<styleUrl>#m_ylw-pushpin</styleUrl>
		<Polygon>
			<tessellate>1</tessellate>
			<outerBoundaryIs>
				<LinearRing>
					<coordinates>
						74.0422686776804,21.35968282977012,0 74.04227005935441,21.35965775048492,0 74.0422769646879,21.35953240724879,0 74.042230066526,21.35943215938208,0 74.04215560277913,21.35935698334675,0 74.04208256191508,21.3592568152189,0 74.04200816495293,21.3591817122571,0 74.04201375488098,21.35908169593297,0 74.04207169619976,21.35898177046714,0 74.0421034344684,21.35888188281311,0 74.04218609749412,21.35880704399658,0 74.04229488279582,21.35873225449157,0 74.04232653630218,21.3586325060103,0 74.04238431683467,21.35853283177232,0 74.04246683849993,21.35845813902811,0 74.04257545803762,21.35838349555718,0 74.0426826857354,21.3583337746443,0 74.04276509834759,21.35825916522706,0 74.04287226054763,21.3582094790359,0 74.04298071972758,21.35813493967622,0 74.04306170353722,21.35808527081273,0 74.04317008365858,21.35801078341169,0 74.04325231881981,21.35793630907736,0 74.0433097274345,21.35783702215804,0 74.04341797965664,21.35776263845215,0 74.04350010531144,21.35768826770772,0 74.04358219647824,21.35761392869571,0 74.04366552916879,21.35751483918611,0 74.04372148272486,21.35744055365339,0 74.04380347021804,21.3573663172245,0 74.04393752827136,21.35729214807157,0 74.04404673070175,21.35719325589884,0 74.04407651344714,21.35711908618502,0 74.04418438704577,21.35704500189732,0 74.04421659960963,21.3569214938331,0 74.04429713398331,21.35687216177973,0 74.04438009313016,21.35677348443547,0 74.04448779680874,21.35669954398035,0 74.04456945386872,21.35662561605658,0 74.04467707287893,21.35655173712141,0 74.04478464684746,21.35647788926432,0 74.0449181633436,21.35640409003234,0 74.04497368017563,21.3563302667005,0 74.04508112471376,21.35625651090588,0 74.04516372147917,21.3561581743967,0 74.04521914851647,21.35608445314219,0 74.04530050977782,21.35601078110641,0 74.04538298819566,21.3559125805032,0 74.04546427575187,21.35583897940912,0 74.04554666858047,21.35574087411182,0 74.04562901567769,21.35564282266301,0 74.04571131705173,21.3555448257053,0 74.0457935727746,21.35544688250168,0 74.04584987421357,21.35534897498921,0 74.04593093498951,21.35527560768169,0 74.04601306713225,21.35517781300434,0 74.04606816281181,21.35510449778932,0 74.04617610177235,21.35500681617526,0 74.0462581034522,21.35490916967566,0 74.04626245108537,21.35481152209477,0 74.04637024550027,21.35471400152586,0 74.04645105243434,21.35464089635012,0 74.04648226467725,21.35451904810657,0 74.04651131788613,21.35444598651005,0 74.0466426502192,21.35439737559296,0 74.04667377359344,21.35427569455008,0 74.04667799862555,21.35417839511688,0 74.04673280173962,21.35410549239146,0 74.04683816163055,21.35405695668405,0 74.04696930363033,21.35400845261444,0 74.04704982469848,21.35393563861701,0 74.04715508963129,21.35388714943023,0 74.04723452783195,21.35383865511047,0 74.04739233281904,21.35376596646215,0 74.04755007226851,21.35369330775763,0 74.04760263792333,21.3536690947833,0 74.04768295003372,21.35359642063601,0 74.04778802667258,21.35354802460111,0 74.0479188455182,21.35349966028409,0 74.04799905342206,21.3534270558942,0 74.04812979906319,21.35337872475242,0 74.04821088376762,21.35328197338096,0 74.04826523051794,21.35320944007525,0 74.04834530058484,21.3531369548369,0 74.04840053037138,21.35304031745926,0 74.04848239096394,21.35291960428663,0 74.04853570115814,21.35287135691571,0 74.04861655721015,21.35277488332826,0 74.04867165671014,21.35267844405276,0 74.04875333986639,21.3525579782739,0 74.0488083677631,21.35246165746333,0 74.04883767509499,21.35236537087766,0 74.04889264963842,21.35226915528881,0 74.04894848727048,21.35214895042705,0 74.04900428778521,21.35202882754224,0 74.04905916389812,21.35193279558916,0 74.04911400876279,21.35183681602415,0 74.04916882474424,21.35174088877254,0 74.04922273641085,21.35166898689729,0 74.04945514585073,21.35127392338491,0 74.0494563093381,21.35123908123278,0 74.04960767912486,21.35116951810526,0 74.04975901041058,21.35109997167481,0 74.04987532969582,21.35096079310977,0 74.05002770187228,21.35085650045985,0 74.05014278599808,21.350752218167,0 74.05029505603828,21.35064800046962,0 74.05041004997125,21.35054379309127,0 74.05052500223559,21.35043962313667,0 74.05063991285689,21.350335490583,0 74.05071758299111,21.35023136826264,0 74.05083241716193,21.35012731047629,0 74.05098546416745,21.34998862476919,0 74.05106302501085,21.34988462688743,0 74.05121489708921,21.34978072056486,0 74.05133059897696,21.34964217344735,0 74.05144520466833,21.3495383268578,0 74.05155976893121,21.34943451747291,0 74.05167531812607,21.34929613578662,0 74.05178979255365,21.34919241313044,0 74.05190624971519,21.34901957040872,0 74.05198452082738,21.34888135964138,0 74.05202565014585,21.34874318766231,0 74.05214094850164,21.34860513574198,0 74.05221910682,21.34846712226654,0 74.05233430332156,21.34832920189153,0 74.0524874868709,21.34815690051435,0 74.05260255671821,21.3480191278771,0 74.05271661169209,21.34791586182102,0 74.05282966944694,21.34784706518168,0 74.05301489324685,21.3478472004795,0 74.05316494296341,21.34777844714685,0 74.05331588009783,21.34767529398074,0 74.05346584676373,21.34760658169313,0 74.05361668603219,21.34750348953915,0 74.05372955395661,21.34743479106959,0 74.05388029878705,21.34733176012015,0 74.05403010918144,21.34726312932824,0 74.05410587651158,21.34719446077361,0 74.05425649200043,21.3470915156422,0 74.05433307379947,21.3469885531848,0 74.05437350619273,21.34685128239786,0 74.05441392005625,21.34671407674414,0 74.05449127660175,21.3465769628231,0 74.05449554168733,21.3464055951205,0 74.05460978099234,21.34626865437658,0 74.05461316304327,21.34613169832876,0 74.05469039344274,21.34599486049154,0 74.05480450355894,21.34585811439121,0 74.05491690599416,21.3457898064493,0 74.05510228051453,21.34575575230394,0 74.05521462792639,21.345687468039,0 74.0553269476239,21.3456191999124,0 74.05544003569996,21.3455167877898,0 74.05555308327324,21.34541441248793,0 74.05566609039052,21.3453120730241,0 74.05577905706514,21.34520976985698,0 74.05592885119306,21.34510753016817,0 74.05614855141583,21.34517591715174,0 74.05625916694788,21.34517599708686,0 74.05640665437448,21.34517610354206,0 74.05662788460916,21.34517626295638,0 74.05673849951103,21.34517634254286,0 74.05688527719896,21.34521056817159,0 74.05706964540312,21.34521070044279,0 74.05725263890812,21.34527908380561,0 74.05740015090433,21.34527918926059,0 74.05754699288445,21.34531342625812,0 74.05769319086657,21.3453818068695,0 74.05784007591134,21.34541605563378,0 74.05798762116012,21.34541616047605,0 74.0581338967865,21.34548456478482,0 74.05828145994748,21.34548466932437,0 74.05842778738806,21.34555308896294,0 74.05864915726204,21.34555324526704,0 74.05875924386613,21.34558748719857,0 74.05897945593739,21.34565598290589,0 74.05916338820516,21.3456902884865,0 74.05931100248253,21.3456903919875,0 74.05945805975409,21.34572467537219,0 74.05956822625015,21.34575893685617,0 74.05975276468966,21.34575906571045,0 74.05990039573463,21.34575916863777,0 74.06004802659535,21.34575927142603,0 74.06019514417473,21.34579356214781,0 74.06034227821108,21.34582785676102,0 74.06048943039978,21.34586215478722,0 74.06063659989221,21.34589645718933,0 74.06078378670183,21.34593076348778,0 74.06093098999395,21.34596507368345,0 74.06107821145727,21.34599938777894,0 74.06122635442343,21.34596527710412,0 74.06141095666375,21.34596540396229,0 74.06159555866712,21.34596553060535,0 74.06178016043977,21.34596565703334,0 74.06196516969041,21.34593157500962,0 74.06207552272755,21.3459658588707,0 74.0621847030497,21.34610280783538,0 74.06225699715688,21.3462397959101,0 74.0624039838641,21.3463083898607,0 74.06262563638315,21.3463085403586,0 74.06277340485217,21.34630864052158,0 74.06295811505646,21.34630876553486,0 74.0631428250759,21.34630889033669,0 74.06336447669567,21.3463090398197,0 74.06354918633046,21.34630916415639,0 74.06373389580047,21.34630928828166,0 74.06388136855087,21.34634364020844,0 74.06406552166635,21.34641228167909,0 74.06425026366267,21.34641240520845,0 74.06443448227144,21.34648106248638,0 74.06458229298687,21.346481160989,0 74.06472985995214,21.34651553242678,0 74.06487744418527,21.34654990730926,0 74.06502504589648,21.34658428660236,0 74.0651726650957,21.34661866982542,0 74.0653200927392,21.34668735036402,0 74.06535602396681,21.34685890247437,0 74.06539218124772,21.34699622223164,0 74.06550254326298,21.34709930990981,0 74.06565032252537,21.3471337535121,0 74.06587228876498,21.34713389959744,0 74.0659836112889,21.34706528425442,0 74.06613205371234,21.3469623791488,0 74.06631712026541,21.34692817467112,0 74.06646476272154,21.34699692720379,0 74.0666496903461,21.34699704805679,0 74.06679763236015,21.34699714459223,0 74.06698255988131,21.34699726507787,0 74.06713029899925,21.34706603358484,0 74.06727816591084,21.3471004719496,0 74.06742605041001,21.34713491402489,0 74.06813303487428,21.34737915187787,0 74.06809656760538,21.34741242914759,0 74.06802357324835,21.34751230768801,0 74.06805982646398,21.34764561872536,0 74.06820551971254,21.34771238027405,0 74.06835127498323,21.34774581371206,0 74.06849710538742,21.34767923204115,0 74.06864289081317,21.34764599365828,0 74.06878866376827,21.34754611562115,0 74.06889796090462,21.34747955667574,0 74.06900723246152,21.34741301312825,0 74.06911649535179,21.34737978190286,0 74.06918940780078,21.34747974230444,0 74.06922593191894,21.34761303762089,0 74.06937168952017,21.34761313013355,0 74.06951756832451,21.34771321810056,0 74.06962699943313,21.34777997043645,0 74.06977296587712,21.34788011644525,0 74.06991898366596,21.34798029731603,0 74.07006483532439,21.34798038902603,0 74.07017406636776,21.34791372777062,0 74.07031963878838,21.34781375341414,0 74.07046535191543,21.34778049710047,0 74.07064760266493,21.34778061077947,0 74.07079351841104,21.3478140490074,0 74.07097603143092,21.34788086884916,0 74.07112199218057,21.34791431837281,0 74.07134074473129,21.34791445355562,0 74.071450428254,21.34798125106452,0 74.07148735884884,21.34808139782978,0 74.07163340110753,21.34811487015013,0 74.07181645988921,21.34824855041894,0 74.07196274800123,21.34831544784424,0 74.07203646959739,21.34844915535577,0 74.07207372437655,21.34858290297643,0 74.07200165202818,21.34875010277823,0 74.0718924746609,21.34881696078356,0 74.07174692236069,21.34891728714909,0 74.07163784834013,21.34901767191342,0 74.07156527183001,21.34911811427932,0 74.0714561272483,21.34921856926242,0 74.07145674494774,21.34935265423445,0 74.07142080346691,21.3494867793618,0 74.07145829055479,21.34968814030474,0 74.07138559715521,21.34978881775855,0 74.07131302410312,21.34992312438792,0 74.07127701296507,21.35005751655246,0 74.07124084308853,21.35015834631481,0 74.07109470018163,21.35022550914964,0 74.07102187405309,21.35032637514028,0 74.07087566245134,21.35039357800413,0 74.07076626662386,21.35052814485734,0 74.07076660919941,21.35062916280553,0 74.07080370742803,21.35076393155978,0 74.07087747285379,21.35089878546034,0 74.07098780430371,21.351000002368,0 74.07106164385755,21.35113496796331,0 74.07117219177023,21.35127001971651,0 74.07124610974294,21.35140511206915,0 74.07117316014669,21.35150639320131,0 74.07110031908508,21.35164150444117,0 74.07110085578034,21.35177672581261,0 74.07110139274801,21.35191201077285,0 74.07110206433899,21.35208120599142,0 74.07106586756551,21.35221661131512,0 74.07106652906961,21.35238598573368,0 74.07114056616723,21.35252160322906,0 74.07114111332974,21.35265723879091,0 74.07121520336347,21.35279298358028,0 74.0712525484909,21.35292876990708,0 74.07125326617957,21.35309856372738,0 74.07132743966221,21.35323451703651,0 74.07132803186542,21.3533704881793,0 74.0714389206213,21.35347257769362,0 74.07140271613576,21.35360863874226,0 74.07132951369512,21.35371069752548,0 74.07125642944141,21.35384684798896,0 74.07118331035223,21.35398306269762,0 74.07107316730483,21.35408523091589,0 74.07096298510884,21.35418743571712,0 74.07085276352875,21.35428967664346,0 74.07066842785667,21.35428956107499,0 74.07044722485621,21.35428942209706,0 74.07026288913347,21.35428930603582,0 74.07007855357824,21.35428918975071,0 74.06989421797429,21.35428907324158,0 74.06970988252537,21.35428895650859,0 74.06956237053447,21.35425475562563,0 74.06945166462749,21.35415238755881,0 74.06926734683562,21.35411817911477,0 74.06911990488867,21.35408399799523,0 74.06893561579692,21.35398164349612,0 74.06878822850867,21.35394747818803,0 74.06860401566306,21.35391329315201,0 74.06845666550289,21.35387913558557,0 74.06830936349903,21.3538109269444,0 74.06816205701537,21.35377678117329,0 74.0680147198152,21.35377668619688,0 74.06783054833537,21.35377656726999,0 74.06764637683601,21.35377644811377,0 74.06746220525852,21.3537763287282,0 74.06727803375402,21.35377620911336,0 74.06709386210649,21.35377608926912,0 74.06687285613334,21.35377594515334,0 74.0667253942315,21.35380989978898,0 74.06661475347843,21.35384388240841,0 74.06643041776648,21.35387782066205,0 74.0662829032952,21.35391178690242,0 74.06617190184821,21.35401392676785,0 74.06598782173776,21.35397973099796,0 74.06591481742063,21.35384342262127,0 74.06576782493539,21.35377521962047,0 74.06558365274144,21.35377509789551,0 74.06539948045233,21.35377497594119,0 74.06532498148383,21.35391115472725,0 74.06532394321394,21.35408152927936,0 74.06532311212776,21.35421790175683,0 74.06532228062822,21.35435433820916,0 74.06539541296966,21.35445675709042,0 74.06546837219594,21.3545933557581,0 74.06550427304356,21.35476415782017,0 74.06550348370065,21.35490085306238,0 74.06550249646816,21.35507181262179,0 74.06550210140074,21.3551402249648,0 74.0653548260665,21.35507171496627,0 74.06520758544278,21.35500322150373,0 74.06502301934843,21.35500309906873,0 74.06483821598816,21.3550371719868,0 74.06469030807925,21.35507127380706,0 74.06457930267749,21.35510540415386,0 74.06439470305995,21.35510528098443,0 74.06424702352082,21.35510518229394,0 74.06409962434495,21.35507087931763,0 74.06395195339645,21.35507078035009,0 74.06376796537296,21.35500226076746,0 74.06362062060008,21.35496796947298,0 74.06350988678616,21.35496789491911,0 74.06336224174811,21.35496779539257,0 74.06321526283999,21.35489932382504,0 74.06303072785505,21.35489919904128,0 74.06295830832435,21.3547624537625,0 74.06284867846652,21.35465990015122,0 74.06270183860011,21.35459150078703,0 74.06255354416911,21.35465969965002,0 74.06240597725242,21.35465959918834,0 74.06225723975874,21.35476197720299,0 74.06218147030125,21.35493280618462,0 74.06214257550432,21.35510376096729,0 74.06214019166445,21.35530907110368,0 74.06210245890085,21.35537751457192,0 74.06202696595717,21.35551445111736,0 74.06195143701099,21.35565145256594,0 74.0619493916297,21.35582285826831,0 74.06187380404587,21.35596000571995,0 74.06183516395809,21.3560972436976,0 74.06175951301152,21.35623452134014,0 74.06164725106734,21.35633748440904,0 74.06157152361753,21.35647487610571,0 74.0614587419909,21.35661230802212,0 74.06134635276123,21.35671540557976,0 74.06123392363696,21.356818539851,0 74.06112099427123,21.35695613478021,0 74.06100847636863,21.35705935506235,0 74.06093250102244,21.35719708983502,0 74.06081990300257,21.35730039578321,0 74.06070726453289,21.35740373881224,0 74.06059360262074,21.35757610971963,0 74.06048037111542,21.35771406499264,0 74.06036759065499,21.35781755540688,0 74.06025476963045,21.35792108301313,0 74.06010479940366,21.35802462186309,0 74.05999241850374,21.35809365995195,0 74.05984289304301,21.35816268881047,0 74.05969278559154,21.35826631400576,0 74.05954318002259,21.35833538388843,0 74.05931983957551,21.35836982249212,0 74.05913302647436,21.35843889123483,0 74.05898448493673,21.35843878856642,0 74.05887188815899,21.35850792507665,0 74.05868497595144,21.35857702648599,0 74.05853639823908,21.35857692351219,0 74.05838782031046,21.35857682042409,0 74.0582392421623,21.35857671722171,0 74.05809066463763,21.35857661390562,0 74.05790559445695,21.3585418674245,0 74.05772054689717,21.35850712498453,0 74.05760979699954,21.35847243824407,0 74.05746124430742,21.35847233440617,0 74.05731337997972,21.35843762560733,0 74.05712909936597,21.35836829825839,0 74.056980572535,21.35836819400892,0 74.05683276265911,21.35833349724695,0 74.0566471151877,21.35833336661175,0 74.05594768175828,21.35824032527728,0 74.0558503277814,21.35819504321176,0 74.05575299735852,21.35814977188954,0 74.05565568992623,21.35810451122614,0 74.05555840602814,21.35805926137625,0 74.05546125577825,21.35803660574089,0 74.05536411714955,21.35801395267619,0 74.05524283204414,21.35801386563062,0 74.05514562059774,21.35796863706869,0 74.05509675717948,21.35787831687608,0 74.05504791721754,21.35778803964543,0 74.05495054698127,21.35767522728755,0 74.05490176795062,21.35758504660213,0 74.05485301231474,21.35749490877381,0 74.05475604894541,21.35747231992764,0 74.05463493740257,21.35747223265386,0 74.0545382143904,21.35753972785134,0 74.05444150647321,21.35762978218201,0 74.05427207750917,21.35774237522983,0 74.05410242976839,21.35776480363989,0 74.05393274241875,21.35776468069255,0 74.0538600192924,21.35776462795215,0 74.05373881409128,21.35776453998655,0 74.05356912682501,21.35776441669838,0 74.05344794072633,21.35771922906221,0 74.05332674999417,21.35771914083133,0 74.05322984250125,21.35767398129616,0 74.05310866621618,21.35767389292869,0 74.05296333150075,21.35762870862937,0 74.05291490806486,21.35760613832782,0 74.05281803142553,21.35758353510885,0 74.05269688398724,21.35758344648127,0 74.05257573650069,21.35758335777123,0 74.0524303595363,21.35758325121039,0 74.05230921207902,21.35758316231904,0 74.05223660525337,21.35756057927016,0 74.05206710065143,21.35753792762788,0 74.05199451679653,21.35751534984598,0 74.05189761605018,21.3575152785103,0 74.0517764901922,21.35751518926614,0 74.05165536416199,21.35751509993896,0 74.05155882954999,21.35744747172908,0 74.05148641965511,21.35740239353952,0 74.05124423949252,21.35740221443111,0 74.0511231493435,21.35740212475133,0 74.05100205914569,21.35740203498783,0 74.05083236757307,21.35742442008745,0 74.0507109249674,21.3574693599593,0 74.05058981294789,21.35746926990582,0 74.05046832685824,21.3575142201439,0 74.05039545960871,21.35753669030025,0 74.05027412717254,21.3575591269819,0 74.05012875794158,21.35755901854245,0 74.05003184515645,21.35755894618343,0 74.04993493204857,21.35755887377132,0 74.04981356467377,21.3575813128113,0 74.04966795169254,21.35760373630092,0 74.04954655377048,21.35762618035501,0 74.04944912744489,21.35767118568389,0 74.04937541188681,21.35776131915769,0 74.0493021745921,21.35780637476245,0 74.0492051978124,21.35780630195429,0 74.0491079524116,21.3578287882069,0 74.0490106956312,21.35785127693315,0 74.04891398671349,21.35782864233205,0 74.04879247087979,21.3578511126939,0 74.04869518928039,21.35787360409685,0 74.04857394591673,21.3578735126764,0 74.04847695103928,21.35787343948201,0 74.04837995609276,21.35787336623614,0 74.04828296162826,21.35787329293919,0 74.04820924967078,21.35794094749984,0 74.04813518480906,21.35803120933994,0 74.04811026979779,21.35807636555297,0 74.04806009080163,21.35818931235984,0 74.04793806902518,21.35823443277483,0 74.04786456751519,21.35827960065221,0 74.0477431928207,21.35827950871974,0 74.04766965913811,21.35832468730504,0 74.04757182749945,21.35836985823316,0 74.04747433816041,21.35839241091815,0 74.04737609272416,21.35846023239228,0 74.04730210308114,21.35852809655283,0 74.04722808684819,21.35859598490665,0 74.04715442969928,21.35864123894924,0 74.0470560619634,21.35870914935346,0 74.04700627314321,21.35877712100536,0 74.04700469404634,21.35886783704053,0 74.04707646060324,21.35893595788943,0 74.04719804596587,21.35893605015723,0 74.0472706181841,21.35895879936302,0 74.04729380384903,21.35902691571048,0 74.04722121724129,21.35900415837185,0 74.04712509465413,21.35893599480523,0 74.04705214329239,21.35893593942695,0 74.04695487454661,21.35893586554824,0 74.04685679867018,21.35898118211237,0 74.04680653068901,21.35907195867078,0 74.04673231870507,21.35914004180374,0 74.04670551023015,21.35927637379076,0 74.04665475031173,21.35939003688372,0 74.04657960662409,21.35950374943503,0 74.04655398499918,21.35957202441997,0 74.04655229389071,21.35966312049698,0 74.04659892154835,21.3597770889128,0 74.04659724023377,21.35986828308383,0 74.0465955580791,21.3599595209569,0 74.04664223437798,21.36007366669168,0 74.04663847045251,21.36027923470331,0 74.04661238683302,21.36037065102818,0 74.04660944467655,21.3605307673325,0 74.04655933535599,21.36059939284991,0 74.04650878121363,21.36069094423312,0 74.04641062919163,21.36071377433724,0 74.04631290383136,21.36071370041609,0 74.04621517836962,21.36071362645637,0 74.04606904345967,21.36069061144283,0 74.04597132416941,21.36069053738345,0 74.04570916152292,21.36066361685589,0 74.04550716300828,21.36053798317904,0 74.0455074528785,21.36022429007198,0 74.04537294234908,21.35997323106068,0 74.04510363002575,21.35978480523131,0 74.04483420126824,21.35972185625032,0 74.04449734276938,21.35972159260994,0 74.0442278540592,21.35972138125266,0 74.04395836445737,21.35972116950048,0 74.04362150233618,21.35972090425582,0 74.04335201068898,21.35972069161507,0 74.04308251811531,21.35972047857937,0 74.04281302613954,21.35972026514994,0 74.04254347250613,21.35978279050494,0 74.04227397696368,21.35978257635907,0 74.0422686776804,21.35968282977012,0 
					</coordinates>
				</LinearRing>
			</outerBoundaryIs>
		</Polygon>
		<atom:link rel="app" href="https://www.google.com/earth/about/versions/#earth-pro" title="Google Earth Pro 7.3.7.1094"></atom:link>
	</Placemark>
</Document>
</kml>
