<?xml version="1.0" encoding="UTF-8"?>
<kml xmlns="http://www.opengis.net/kml/2.2" xmlns:gx="http://www.google.com/kml/ext/2.2" xmlns:kml="http://www.opengis.net/kml/2.2" xmlns:atom="http://www.w3.org/2005/Atom">
<Document>
	<name>गोकुळनगर_४५_279.kml</name>
	<StyleMap id="m_ylw-pushpin">
		<Pair>
			<key>normal</key>
			<styleUrl>#s_ylw-pushpin</styleUrl>
		</Pair>
		<Pair>
			<key>highlight</key>
			<styleUrl>#s_ylw-pushpin_hl</styleUrl>
		</Pair>
	</StyleMap>
	<Style id="s_ylw-pushpin">
		<IconStyle>
			<scale>1.1</scale>
			<Icon>
				<href>http://maps.google.com/mapfiles/kml/pushpin/ylw-pushpin.png</href>
			</Icon>
			<hotSpot x="20" y="2" xunits="pixels" yunits="pixels"/>
		</IconStyle>
		<LineStyle>
			<color>d600ffff</color>
			<width>2.8</width>
		</LineStyle>
		<PolyStyle>
			<color>8affffaa</color>
		</PolyStyle>
	</Style>
	<Style id="s_ylw-pushpin_hl">
		<IconStyle>
			<scale>1.3</scale>
			<Icon>
				<href>http://maps.google.com/mapfiles/kml/pushpin/ylw-pushpin.png</href>
			</Icon>
			<hotSpot x="20" y="2" xunits="pixels" yunits="pixels"/>
		</IconStyle>
		<LineStyle>
			<color>d600ffff</color>
			<width>2.8</width>
		</LineStyle>
		<PolyStyle>
			<color>8affffaa</color>
		</PolyStyle>
	</Style>
	<Placemark>
		<name>गोकुळनगर_४५_279</name>
		<styleUrl>#m_ylw-pushpin</styleUrl>
		<Polygon>
			<tessellate>1</tessellate>
			<outerBoundaryIs>
				<LinearRing>
					<coordinates>
						73.66694024423356,21.12145125838584,0 73.66698987616007,21.12128098350921,0 73.66708448772529,21.12111093318583,0 73.66713405600724,21.12094083535677,0 73.66727242904604,21.12081362595104,0 73.66736689896335,21.12064381850313,0 73.66750627912242,21.12047423463765,0 73.66760063778047,21.12030460242628,0 73.66773878422299,21.12017764077283,0 73.66783304027973,21.12000816216713,0 73.66792615881592,21.11988117883121,0 73.668065229855,21.11971199033614,0 73.66820315959035,21.11958525802783,0 73.66834209514779,21.11941622201618,0 73.66848095837135,21.11924727398113,0 73.66857488647305,21.1190782769306,0 73.66871465155114,21.11886722126681,0 73.66880743470925,21.11874068027106,0 73.6689470516112,21.11852984245284,0 73.66903974229129,21.11840343234416,0 73.66913340226336,21.11823487090104,0 73.66922701361148,21.11806639607161,0 73.66931958363234,21.11794016517559,0 73.66936932080317,21.11772957159931,0 73.66937328070631,21.11756108571178,0 73.66942297231999,21.11735073599784,0 73.66942691581023,21.11718244503728,0 73.66943085714774,21.11701424059861,0 73.66952519424677,21.11680437811965,0 73.66961752662667,21.11667863381345,0 73.66962238729705,21.11646871554885,0 73.66975932744741,21.1163432365747,0 73.66985250424591,21.11617573487178,0 73.66994563386372,21.11600831934517,0 73.67008335508511,21.11584112540774,0 73.67017637588917,21.11567388153989,0 73.67026841998332,21.11554857278442,0 73.67040504134474,21.11542344787528,0 73.67045331862322,21.11525628288925,0 73.67045698302528,21.115089068141,0 73.67046064543787,21.11492193895596,0 73.6704197408402,21.11475475983677,0 73.67042341072445,21.11458780176192,0 73.6703379922715,21.11442065810262,0 73.67034168104801,21.11425387081302,0 73.67030084748889,21.1140870333208,0 73.67030454368923,21.11392041654468,0 73.67030916112155,21.11371226529962,0 73.670313775425,21.11350424699715,0 73.67031746461869,21.11333792791232,0 73.67036560938962,21.11317182916267,0 73.6704581755086,21.113005950618,0 73.6705506930096,21.11284015682592,0 73.67059874065738,21.11267431216286,0 73.67069117448087,21.11250868755627,0 73.67082707343356,21.11238472739113,0 73.67091940707604,21.11221925051714,0 73.67101169431811,21.11205385799521,0 73.6711030636432,21.11192993643208,0 73.67115090171171,21.11176455603639,0 73.67115523169889,21.11155778014452,0 73.67111435845661,21.11139231903967,0 73.67111869734413,21.11118577977052,0 73.67103354798317,21.11102037267814,0 73.67099273933104,21.11085518466778,0 73.67095370592091,21.11060762733358,0 73.67095545998225,21.11052519506839,0 73.67082617398246,21.11035998823816,0 73.67074120699493,21.11019500020506,0 73.6706129390117,21.10998881505751,0 73.67061563224684,21.1098654100377,0 73.67048565810643,21.10974164615139,0 73.67049018484209,21.1095361534646,0 73.67044960689739,21.1093717179484,0 73.67040904949137,21.10920736541363,0 73.67032433888562,21.10904296147389,0 73.67023967120488,21.10887864007772,0 73.67024426939982,21.10867369371132,0 73.67024886452207,21.1084688764149,0 73.67034078582751,21.10830538672293,0 73.67043266026063,21.10814197918584,0 73.67056859055565,21.10797878938275,0 73.67061626961844,21.10781541261006,0 73.67075119731942,21.1076932375639,0 73.67092927287628,21.10761208314392,0 73.67110816562005,21.10749012058215,0 73.67128528746913,21.10744983602695,0 73.67146238555171,21.10740955639617,0 73.67168352117326,21.1073694164036,0 73.67181569793028,21.10736982045361,0 73.67199193370055,21.10737035901089,0 73.67225628634824,21.10737116646582,0 73.67247657943284,21.10737183899611,0 73.67260875529027,21.10737224236314,0 73.67287310657743,21.1073730487558,0 73.67313745831093,21.10737385469634,0 73.67331369115934,21.10737439173309,0 73.6735332747183,21.1074158765879,0 73.6737088206265,21.10745723219554,0 73.67388438957758,21.10749859279324,0 73.6741040496904,21.10754009241047,0 73.67427966549778,21.10758146236815,0 73.67450002558418,21.10758213210712,0 73.67467504013437,21.10766435229395,0 73.67485072490801,21.10770573776673,0 73.67507112612302,21.10770640676382,0 73.67529152703933,21.10770707544919,0 73.67551134360482,21.10774859912532,0 73.67577527421939,21.10779026129091,0 73.67599570221294,21.1077909290317,0 73.67621612994509,21.10779159646189,0 73.67643655692252,21.10779226358,0 73.67661289893135,21.10779279705271,0 73.67679024523792,21.10771161424225,0 73.67696705575896,21.10767129694874,0 73.67714480287643,21.10754931024349,0 73.67723483629911,21.10738628856248,0 73.67741337886976,21.10718282673668,0 73.67750329264771,21.10701999061829,0 73.67763673352771,21.10689811640703,0 73.67785815445188,21.10677655451041,0 73.67794789786252,21.10661392278837,0 73.67808033012604,21.10657360957129,0 73.67821397979277,21.10641121286324,0 73.67839114022424,21.10628970165286,0 73.67852386860017,21.1062087634053,0 73.67870091420986,21.10608732783973,0 73.67900832878969,21.10612890505644,0 73.67914094521835,21.10604800696018,0 73.67927387184207,21.10592649998337,0 73.67945069637099,21.10580517044489,0 73.67962745373035,21.10568388653453,0 73.67980383388661,21.1056032320304,0 73.67998046826423,21.1054820245692,0 73.6801570356035,21.1053608620831,0 73.68037717169355,21.10528042003011,0 73.6805536080702,21.10515933377777,0 73.68068582775592,21.10507867838942,0 73.68086239266577,21.10491716488298,0 73.68099428878953,21.10487706232204,0 73.68117027322393,21.10479660898874,0 73.68130255488376,21.10467557282518,0 73.68147844488929,21.10459516968951,0 73.68169833985938,21.10447447117966,0 73.6818743032087,21.10435368660697,0 73.68213771788555,21.10427362573496,0 73.68226955420856,21.10419319257284,0 73.68248902083283,21.1041130402401,0 73.68266460585436,21.10403277680474,0 73.68288408246738,21.1039122882123,0 73.68301574994818,21.10383194389803,0 73.68314738425406,21.10375161960097,0 73.68327907556488,21.10363097481312,0 73.68349822154883,21.10355096162109,0 73.68371737497155,21.10343065280218,0 73.68393644553858,21.10331038995688,0 73.68411162743811,21.10323032568076,0 73.68424299972483,21.10315015106753,0 73.68433057879463,21.10306986629339,0 73.68450565796545,21.10294960673321,0 73.684724412958,21.10274905742117,0 73.68494304525309,21.10258883893342,0 73.68507415810383,21.10246862927244,0 73.68516153939382,21.10238851447086,0 73.68524893230142,21.10234859419413,0 73.68538019074612,21.10246953692393,0 73.68555533197791,21.10267107806281,0 73.68573045520326,21.10279227120733,0 73.68586189531777,21.10291338012133,0 73.68599330440834,21.1029942741485,0 73.68612501366934,21.1031960146309,0 73.68621274002682,21.10327684980766,0 73.68621321304148,21.10347837737654,0 73.68616979275114,21.10363956166567,0 73.68612635061034,21.10380082677374,0 73.68608288685104,21.10396217276653,0 73.6860394847688,21.10416400154899,0 73.685995974253,21.10432552864437,0 73.6859962987612,21.10448726787052,0 73.68599670466799,21.10468955617403,0 73.68599702960968,21.10485147774351,0 73.68599735474598,21.1050134812831,0 73.68608548816363,21.10517582637843,0 73.68612993025991,21.10541923641084,0 73.68617422119682,21.10558165559769,0 73.68621853457164,21.10574415597563,0 73.68630692550067,21.1059474948589,0 73.68639515883372,21.10606966319143,0 73.68643956190675,21.10623240987786,0 73.68657184429216,21.10635481664488,0 73.68666030771666,21.10651783660841,0 73.68670480876888,21.10668080911988,0 73.68674933266477,21.10684386327005,0 73.68679387892496,21.10700700026997,0 73.68679440757799,21.10717008930656,0 73.68688303985846,21.10733352079733,0 73.68688359147164,21.10749677466536,0 73.6869722914665,21.10766037123585,0 73.68697286608932,21.10782379020231,0 73.6870616338993,21.10798755269648,0 73.6871063389673,21.10815126693648,0 73.68715106679865,21.10831506456515,0 73.68715184284076,21.1085197643946,0 73.68715246407616,21.10868361796665,0 73.68715324111868,21.10888855102507,0 73.68715386315517,21.10905259135092,0 73.68715448554826,21.10921671478794,0 73.6871552640393,21.10942198548432,0 73.68711183462548,21.10962725571744,0 73.68711244700761,21.10979167024297,0 73.68711321298038,21.10999730578221,0 73.68711397950362,21.1102030717895,0 73.6871147465779,21.11040896839736,0 73.68707108734688,21.11057364864258,0 73.68707184129414,21.11077978061303,0 73.68707259578458,21.11098604355615,0 73.68707350189116,21.11123373221752,0 73.68707440878184,21.11148160990215,0 73.68703081497365,21.11168818774666,0 73.68698704812805,21.11185351830647,0 73.68694311596936,21.11197753865795,0 73.68689944690571,21.11218443215507,0 73.68685575048174,21.11239145742007,0 73.68685657580654,21.11264021980937,0 73.68676814141926,21.11276440897022,0 73.68676880159488,21.11297193568704,0 73.68668030537037,21.11309625161125,0 73.68663660090547,21.11334542179892,0 73.68659262101272,21.11351159723904,0 73.68654861860632,21.11367785761665,0 73.68646009624737,21.11384407084953,0 73.68632691544352,21.11396858825842,0 73.68623829629863,21.11413494999049,0 73.68614963171044,21.114301396739,0 73.6861054623614,21.11446806089283,0 73.68606127010473,21.11463481031285,0 73.68606161852531,21.11480177746026,0 73.68606214155162,21.11505238853105,0 73.68610717263942,21.11526151073679,0 73.6861968417118,21.11547089947765,0 73.68624204411941,21.11572215748619,0 73.68628707781343,21.11588981454112,0 73.68628768912743,21.11614126220133,0 73.68633265881394,21.11626719142656,0 73.68633318327842,21.11647695992788,0 73.68633360313208,21.11664487164235,0 73.68628932198537,21.11681273692112,0 73.68628983305652,21.11702285586074,0 73.68629044684788,21.11727517693105,0 73.68624601232266,21.11740127730976,0 73.68620165728231,21.11756953126853,0 73.68615737322045,21.1177800038272,0 73.68611296983856,21.11794845269361,0 73.6861134251161,21.11815930237043,0 73.68611388073926,21.11837028785486,0 73.68611442794402,21.1186236499591,0 73.68611488432903,21.11883493471422,0 73.68620495266106,21.11900432741665,0 73.68625020470387,21.119173674083,0 73.68634046111175,21.11938558086747,0 73.68638577448176,21.11955512407563,0 73.68638631965638,21.11976701003322,0 73.68634173452874,21.11989407308069,0 73.6862972351897,21.12006361242664,0 73.68620767925081,21.12019065729978,0 73.6860731469871,21.12031761703765,0 73.68593856243402,21.12044462653927,0 73.68575896632642,21.12057155137024,0 73.68562426809454,21.12069865925361,0 73.68544454101637,21.12082568183261,0 73.68530969003277,21.1209103466102,0 73.68512981572216,21.12099489918823,0 73.68494989476309,21.12107947354934,0 73.68472492712971,21.12116393496594,0 73.68449992756295,21.12116326418594,0 73.68427487242619,21.12124774768656,0 73.68404980140215,21.121289661972,0 73.68386976679568,21.12128912492001,0 73.68373486650668,21.12120355685814,0 73.68350985257182,21.12120288543596,0 73.68333001974331,21.12111720580545,0 73.68310503511236,21.12111653423171,0 73.68292527827013,21.12103087608927,0 73.6827454410293,21.12098778662372,0 73.6825656271911,21.12094470264904,0 73.6823858366898,21.12090162416279,0 73.68220623158206,21.12081602119993,0 73.68198170246697,21.12073030591309,0 73.68184716122867,21.12064488204501,0 73.68166769593707,21.12055934523206,0 73.68148827719718,21.1204738304463,0 73.68130912505538,21.12034586835543,0 73.68117474958301,21.12026054360475,0 73.68104040881842,21.12017524025405,0 73.68090634914178,21.12004752805468,0 73.68072742621115,21.11991973089413,0 73.68059347930222,21.11979211813159,0 73.68036978883983,21.11966428535118,0 73.68014559468321,21.11962123733854,0 73.6799217391975,21.11953582976768,0 73.67978739011772,21.11949306695768,0 73.67956329148529,21.11945004065962,0 73.67938410232827,21.11940715483677,0 73.6791596996451,21.11940648227662,0 73.67893529708024,21.11940580955772,0 73.67871089411307,21.11940513667851,0 73.6784864909898,21.11940446363974,0 73.67826208770104,21.11940379044137,0 73.67808299396309,21.11936090897419,0 73.67790348251043,21.11936037022337,0 73.67767909327881,21.1193596966414,0 73.67749958205722,21.11935915766134,0 73.67731911389693,21.1194433088238,0 73.67709469506285,21.11944263476508,0 73.67691465572953,21.11948444897188,0 73.67668970293195,21.11952613360427,0 73.67650961318037,21.11956795842042,0 73.67637439581716,21.11960992351692,0 73.67619426252494,21.11965175901624,0 73.67601354219249,21.11973598612362,0 73.67583392487684,21.11973544600153,0 73.67565372050137,21.11977729749194,0 73.6754728949283,21.11986155636883,0 73.67529324163037,21.11986101588598,0 73.67506742599504,21.11994516178283,0 73.67493266849897,21.11994475623539,0 73.6747517017206,21.12002905891338,0 73.67457134419796,21.12007094791301,0 73.67434603224224,21.12011270697714,0 73.67407437847552,21.120239234206,0 73.67384827103803,21.12032347695368,0 73.67366848765452,21.12032293539808,0 73.67348797659031,21.12036486200633,0 73.67330596416008,21.12049175793151,0 73.67312613339284,21.12049121602902,0 73.67294553952294,21.1205331642191,0 73.67271918137426,21.12061748340174,0 73.67244779122797,21.12070168817363,0 73.67222292797317,21.12070101013976,0 73.67208801022464,21.12070060325223,0 73.6719072887846,21.12074257825265,0 73.67168241091042,21.12074189986338,0 73.67150165075459,21.12078388011946,0 73.67131999799068,21.12086839983132,0 73.67114006013831,21.12086785680158,0 73.67095922863315,21.12090985322903,0 73.67077837332506,21.12095185505142,0 73.67055342007455,21.12095117588502,0 73.6703734564996,21.12095063244971,0 73.67019349259982,21.12095008892518,0 73.67001352837033,21.12094954531143,0 73.66983356483142,21.12094900161153,0 73.66965262261867,21.12099100831293,0 73.66947165654841,21.12103302041763,0 73.66924265468838,21.12120261887752,0 73.66905956966423,21.12132984192088,0 73.66896646674971,21.12145738664077,0 73.66874029527662,21.12149932289477,0 73.66846800648577,21.12158375548272,0 73.66824175820288,21.12162570798196,0 73.66801547886209,21.12166766586032,0 73.66783421459634,21.1217097653311,0 73.66756394554004,21.12170894801591,0 73.66738489138234,21.12166575880487,0 73.66711463838743,21.12166494118452,0 73.66694024423356,21.12145125838584,0 
					</coordinates>
				</LinearRing>
			</outerBoundaryIs>
		</Polygon>
		<atom:link rel="app" href="https://www.google.com/earth/about/versions/#earth-pro" title="Google Earth Pro 7.3.7.1094"></atom:link>
	</Placemark>
</Document>
</kml>
