<?xml version="1.0" encoding="UTF-8"?>
<kml xmlns="http://www.opengis.net/kml/2.2" xmlns:gx="http://www.google.com/kml/ext/2.2" xmlns:kml="http://www.opengis.net/kml/2.2" xmlns:atom="http://www.w3.org/2005/Atom">
<Document>
	<name>नावली_११४_418.kml</name>
	<StyleMap id="m_ylw-pushpin">
		<Pair>
			<key>normal</key>
			<styleUrl>#s_ylw-pushpin</styleUrl>
		</Pair>
		<Pair>
			<key>highlight</key>
			<styleUrl>#s_ylw-pushpin_hl</styleUrl>
		</Pair>
	</StyleMap>
	<Style id="s_ylw-pushpin">
		<IconStyle>
			<scale>1.1</scale>
			<Icon>
				<href>http://maps.google.com/mapfiles/kml/pushpin/ylw-pushpin.png</href>
			</Icon>
			<hotSpot x="20" y="2" xunits="pixels" yunits="pixels"/>
		</IconStyle>
		<LineStyle>
			<color>d600ffff</color>
			<width>2.8</width>
		</LineStyle>
		<PolyStyle>
			<color>8affffaa</color>
		</PolyStyle>
	</Style>
	<Style id="s_ylw-pushpin_hl">
		<IconStyle>
			<scale>1.3</scale>
			<Icon>
				<href>http://maps.google.com/mapfiles/kml/pushpin/ylw-pushpin.png</href>
			</Icon>
			<hotSpot x="20" y="2" xunits="pixels" yunits="pixels"/>
		</IconStyle>
		<LineStyle>
			<color>d600ffff</color>
			<width>2.8</width>
		</LineStyle>
		<PolyStyle>
			<color>8affffaa</color>
		</PolyStyle>
	</Style>
	<Placemark>
		<name>नावली_११४_418</name>
		<styleUrl>#m_ylw-pushpin</styleUrl>
		<Polygon>
			<tessellate>1</tessellate>
			<outerBoundaryIs>
				<LinearRing>
					<coordinates>
						74.08892128590546,21.27276889762118,0 74.08871598111675,21.27263766666715,0 74.08863469698446,21.2724145080249,0 74.08855347172589,21.27219151166276,0 74.08841036832069,21.27201458574381,0 74.08827448034502,21.27178535485857,0 74.08806960924241,21.27165450334708,0 74.08787198333314,21.27147134947277,0 74.08761970900493,21.27128177917894,0 74.08746985085337,21.2711576282421,0 74.08711557138832,21.27090294712515,0 74.08686370794194,21.27071368443603,0 74.08667394631223,21.27047884905386,0 74.08653171522477,21.27030283311147,0 74.0864515073556,21.27008130127277,0 74.08637135731202,21.26985992985579,0 74.08623664782806,21.26963221784693,0 74.08609472766595,21.26945666899303,0 74.08601478596171,21.26923574086795,0 74.08593490189988,21.26901497174474,0 74.08584775235363,21.26884625425302,0 74.08576797884187,21.2686257641074,0 74.08568826278437,21.26840543246535,0 74.08560860385734,21.26818525985654,0 74.08559080868444,21.26791998767435,0 74.08556569459304,21.26770664623719,0 74.08554059862389,21.26749345719018,0 74.08551552055042,21.26728042181468,0 74.08549779380134,21.26701595938966,0 74.085480083097,21.26675173465432,0 74.08539338441437,21.26658425924671,0 74.08543005116753,21.266326880585,0 74.08528912476878,21.26615317681442,0 74.08526419287939,21.26594109711836,0 74.08518501442353,21.26572271142405,0 74.08514544633857,21.26561357693197,0 74.08508105278477,21.26529286128837,0 74.08505623129545,21.2650813916303,0 74.08497724018657,21.26486362473686,0 74.08499929256043,21.26471007195052,0 74.08503602016835,21.26445433302909,0 74.08512683881597,21.26420526322479,0 74.08516347640337,21.2639499771384,0 74.08520008116707,21.26369491842922,0 74.0852366531531,21.2634400867803,0 74.08527319240733,21.26318548187533,0 74.08524839219065,21.26297553369854,0 74.08517692903688,21.26270848996833,0 74.08520614768484,21.26250530129262,0 74.08512745437858,21.26228941719738,0 74.08511004876981,21.26202940329823,0 74.08508535522112,21.26182027534352,0 74.08511456200584,21.26161770838416,0 74.08514374793376,21.26141528521186,0 74.08518020108005,21.26116245798995,0 74.08521662173933,21.26090985473612,0 74.08508434405208,21.26068872584971,0 74.08494486072938,21.26051818133188,0 74.08491298797851,21.2603605254544,0 74.08478824537582,21.26008942315113,0 74.08471002078997,21.25987527142459,0 74.08463185193179,21.25966127103775,0 74.08455373811449,21.25944742183721,0 74.08452934821094,21.25924011104152,0 74.08450497521758,21.25903294658975,0 74.08437335909828,21.25881316260702,0 74.08429544742555,21.25859991412072,0 74.08414930804344,21.25848058702503,0 74.08396435127639,21.25825481372969,0 74.08376477464947,21.25812923386381,0 74.08362622003177,21.25796007087205,0 74.08342679175919,21.25783459785622,0 74.08324226895827,21.25760926950829,0 74.08305044607769,21.25743400757841,0 74.08291966811952,21.25721532619318,0 74.08284246111791,21.25700316398938,0 74.08281876837007,21.25679751437146,0 74.08274165182534,21.25658564832522,0 74.08266458895405,21.25637393101406,0 74.08258012322311,21.25621206168967,0 74.08250316460339,21.25600060549067,0 74.08242626070135,21.25578929771725,0 74.08229605850187,21.2555717873832,0 74.08221928079308,21.25536077793593,0 74.08219587122859,21.25515626265676,0 74.08212666497423,21.25489606241174,0 74.08205003425067,21.25468552929294,0 74.08192020382879,21.25446880463211,0 74.08183620044979,21.25430794503821,0 74.0817065246295,21.25409148485065,0 74.08163014179503,21.25388150881168,0 74.08155381234016,21.25367168018316,0 74.08141684608896,21.25350491010305,0 74.08128748730913,21.2532890130304,0 74.08115821893425,21.25307326722465,0 74.08108215471945,21.25286399421171,0 74.08099859144329,21.25270397449078,0 74.08086954825414,21.2524886392288,0 74.08074059532157,21.25227345322607,0 74.08065720164065,21.25211374159621,0 74.08058143237704,21.25190513058637,0 74.08061173922839,21.25170928732632,0 74.08074045068555,21.25157511426888,0 74.08099790185216,21.25165558830747,0 74.08126291413225,21.25168713832429,0 74.08152792608108,21.25171868786748,0 74.08173993565183,21.25174392719082,0 74.08200494643313,21.25177547581348,0 74.08222438729111,21.25175177561269,0 74.08240562547694,21.2516239323779,0 74.08263234708333,21.25155135305565,0 74.08286635907689,21.25142992190194,0 74.08309290071836,21.25135740805966,0 74.08329004194242,21.25148035721205,0 74.08354753324021,21.2515607625397,0 74.08369913016617,21.25162857082938,0 74.08401694687595,21.25166640217437,0 74.08422882492499,21.25169162274845,0 74.08454664117208,21.25172945298399,0 74.08488604148366,21.25162059070342,0 74.0851193799618,21.25149918082082,0 74.08529251520717,21.2514203760738,0 74.08561723481812,21.25140933283116,0 74.08582894539484,21.25143453153182,0 74.08608649944844,21.25151487957549,0 74.08629822835498,21.2515400798059,0 74.08666875373412,21.25158417949889,0 74.08694042498271,21.25156681991649,0 74.08715912574019,21.25154316426284,0 74.0874766631796,21.25158095573112,0 74.08768835488,21.25160614969483,0 74.08788619396088,21.25172907231056,0 74.08811173839806,21.25165653677867,0 74.08824516462448,21.25147376500236,0 74.0883784978386,21.25129111946691,0 74.08856460558232,21.25111489303596,0 74.08874374147436,21.25098752031324,0 74.08900801025902,21.25101896967275,0 74.08927227893322,21.25105041856159,0 74.0894836940455,21.25107557736384,0 74.08991326496449,21.2510771498138,0 74.09024378281489,21.2510174135836,0 74.09052803901628,21.25090270279972,0 74.09081214675726,21.25078805188569,0 74.09108947501846,21.25072212222691,0 74.09130730106349,21.25069858956165,0 74.09151849588075,21.25072371942026,0 74.09183528829962,21.25076141367174,0 74.09194088582734,21.25077397827957,0 74.09241607506948,21.25083051813552,0 74.09294406388966,21.25089333851826,0 74.09314880763817,21.25096715035714,0 74.09330077892507,21.25103469182235,0 74.09360480147161,21.25116980953602,0 74.09397452376132,21.2512137965296,0 74.09413297659459,21.25123264787067,0 74.09429142923037,21.25125149902146,0 74.09455551739426,21.25128291728752,0 74.09481960556487,21.25131433509108,0 74.09509626375105,21.25124830128706,0 74.09558402388593,21.25120741435268,0 74.09596603436881,21.25115398032169,0 74.09628895466686,21.25114296797521,0 74.09665845672693,21.25118692212018,0 74.09693462892747,21.25112094774919,0 74.0970929597203,21.25113978141651,0 74.09740962177102,21.25117744829912,0 74.0978318390361,21.25122766989939,0 74.09809572550162,21.25125905786913,0 74.09830683525715,21.25128416797602,0 74.09857072258984,21.25131555520329,0 74.09904572069581,21.25137205113639,0 74.09930960945989,21.25140343721849,0 74.09939154091857,21.2516108688786,0 74.09959094405008,21.25173348021944,0 74.09979041760111,21.25185613403063,0 74.10000167655963,21.25188125957328,0 74.10026575122419,21.25191266619889,0 74.10043001595162,21.25188273293384,0 74.10070565911968,21.25181660194699,0 74.10096966637455,21.25184799926096,0 74.10113382791197,21.25181807860261,0 74.10135649059907,21.25174569705533,0 74.10157907615327,21.25167334090515,0 74.1016019314511,21.25147850751553,0 74.10162477096404,21.25128380911969,0 74.1016532981034,21.25104062642116,0 74.10167610216257,21.25084623122689,0 74.10164620748486,21.25064570627197,0 74.10156367039558,21.25043905673763,0 74.10158648214802,21.25024507126014,0 74.10166190502724,21.25005747812106,0 74.10168466694927,21.24986375982442,0 74.10165482300228,21.24966392008486,0 74.10168325678141,21.24942212841317,0 74.10170598620056,21.24922884523788,0 74.101676167481,21.24902944982755,0 74.10164636969701,21.24883019059111,0 74.10177408058641,21.24864979642305,0 74.10198406244389,21.24867476613884,0 74.10214154970552,21.24869349331331,0 74.10240402979555,21.24872470501701,0 74.10260841757774,21.24879789122479,0 74.10281841928852,21.24882286201303,0 74.10303954208231,21.24875139785837,0 74.10320810574007,21.24867371748858,0 74.10342356185464,21.24865048675097,0 74.10362796918062,21.24872364006594,0 74.10387941348378,21.24885126008956,0 74.10402046835567,21.24901467961484,0 74.10416159680403,21.24917818367067,0 74.10430279889134,21.24934177232833,0 74.10450206014279,21.24946337130179,0 74.10470681134521,21.24953668228966,0 74.10496954743913,21.2495679197241,0 74.10517973760219,21.24959290946055,0 74.10544247632782,21.24962414629732,0 74.10553152529457,21.24978168576706,0 74.10577834624299,21.2499580584096,0 74.10592011881246,21.25012201820556,0 74.10600936356302,21.2502798093826,0 74.10616187237923,21.25034701780464,0 74.1063144079564,21.25041423775765,0 74.10667218123071,21.2505549680406,0 74.1068248018201,21.25062222311694,0 74.10723539409362,21.25076928093038,0 74.10738290729137,21.25088509928999,0 74.10759348695684,21.25091013223387,0 74.10784123913162,21.25108707120945,0 74.10810453311313,21.251118369852,0 74.10832028731039,21.25109484584278,0 74.10853600469477,21.25107132556413,0 74.10880433023215,21.25105406677297,0 74.10907261021167,21.25103681046825,0 74.10928317653152,21.25106183926928,0 74.1094937434958,21.25108686783207,0 74.10970431111103,21.25111189615741,0 74.10990990141423,21.25118547840182,0 74.11010560322359,21.2513562278136,0 74.11008574574005,21.25155063808876,0 74.11007084370269,21.25169653409426,0 74.11014645754645,21.25200108550865,0 74.11011665488878,21.25229341432961,0 74.1100967693706,21.25248846952863,0 74.11007189335487,21.25273247806746,0 74.11005197711805,21.25292783780771,0 74.11003204720463,21.25312333313846,0 74.11011779142481,21.25333152616392,0 74.11025645876482,21.25354614822947,0 74.11034234185372,21.25375463316311,0 74.11032248621011,21.25395068799579,0 74.11030261691008,21.25414687916881,0 74.11013389541421,21.25422615116694,0 74.10992218776504,21.254200985654,0 74.10966257800862,21.25412045802538,0 74.10949373163818,21.25419973150087,0 74.1093147119674,21.25437724493582,0 74.10914064294344,21.25450573875773,0 74.10897666392748,21.25453599081742,0 74.10875457448334,21.25460910724696,0 74.1085426663696,21.25458391564528,0 74.10828808400478,21.25445413271184,0 74.10814466833992,21.25428787207317,0 74.10793285462883,21.25426269105614,0 74.10766808926499,21.25423121459706,0 74.10744583332783,21.25430425713467,0 74.10727123330224,21.25443276198535,0 74.10704355203424,21.25455503432347,0 74.10696949409032,21.25474547246366,0 74.1068953858323,21.25493604268738,0 74.10703867233401,21.25510270594516,0 74.10723508960214,21.25527576427946,0 74.10721408214962,21.25547299583344,0 74.10724615119273,21.25567667788857,0 74.1072198764582,21.2559235862175,0 74.10719357889288,21.25617071087299,0 74.10716199180605,21.25646754481274,0 74.10698664484622,21.25659711000774,0 74.1067207442387,21.25656549501534,0 74.10650802369395,21.25654020272155,0 74.10625282149046,21.25640957500888,0 74.10610938919639,21.25624216043867,0 74.1059075174739,21.2561179618709,0 74.10569492975506,21.25609268458898,0 74.10548775481139,21.25601796566684,0 74.10522204583658,21.25598637146171,0 74.10500947854329,21.25596109578692,0 74.10474377108996,21.25592950101973,0 74.10452570893844,21.25595365620857,0 74.10420683343472,21.25591573833811,0 74.10399425000416,21.25589045945657,0 74.1037285211239,21.25585886053234,0 74.10351594003313,21.25583358133574,0 74.10319706810442,21.25579566201166,0 74.10287819604683,21.25575774207897,0 74.10261247155502,21.2557261419462,0 74.1022936026332,21.25568822129876,0 74.10197473472937,21.2556503001791,0 74.10175641709476,21.25567442916939,0 74.10152654073484,21.25579742296311,0 74.10126072652895,21.25576580996718,0 74.10098910324002,21.25578363393177,0 74.1007647773018,21.25585723715452,0 74.10059940215081,21.25588772305717,0 74.10021537774257,21.25594238440931,0 74.09989032815652,21.25595390400833,0 74.09966569207803,21.25602757391301,0 74.0994528759654,21.2560022615258,0 74.09923409253658,21.25602644618134,0 74.09891484126682,21.25598847347606,0 74.09858956661924,21.25599999954448,0 74.09831140337712,21.25606737091392,0 74.09803921812673,21.25608523673578,0 74.09776698554107,21.25610310562701,0 74.09754794203288,21.25612730982258,0 74.09732885975413,21.25615151791383,0 74.09706265677788,21.25611985200998,0 74.09668997385985,21.2560755192276,0 74.0965302527874,21.25605651924722,0 74.09615132850253,21.25606172012874,0 74.09587257009053,21.25612913938101,0 74.09565326578833,21.25615335413001,0 74.09538697248153,21.25612167495756,0 74.0951206786394,21.25608999532831,0 74.09485438576557,21.25605831542114,0 74.09459447388303,21.25597709063744,0 74.09442831721934,21.25600762675816,0 74.09438992380572,21.25630506555506,0 74.09425127858972,21.25654048552636,0 74.09433225787217,21.25675181033776,0 74.09447304447811,21.25691992050383,0 74.09449438845087,21.25717490512664,0 74.09446236133067,21.2574237618528,0 74.09453713276145,21.25768554631709,0 74.09467180275811,21.25790403899308,0 74.09475311692148,21.25811632669521,0 74.09489433821176,21.25828518113899,0 74.09498215507735,21.25844776236977,0 74.09511714924906,21.25866679266845,0 74.09525223898878,21.25888597723043,0 74.09540645131908,21.25895512384825,0 74.09560789505265,21.25908071684254,0 74.0957495560685,21.2592500789973,0 74.09594485242694,21.25942590237792,0 74.09614653463082,21.25955166667345,0 74.0962821690262,21.25977145289678,0 74.09647776372526,21.25994755372653,0 74.09667970110146,21.26007350965406,0 74.09682808826918,21.26019313126418,0 74.09697031318403,21.26036307170424,0 74.09716626509183,21.26053948446368,0 74.09736850443899,21.26066565603553,0 74.09756464969487,21.2608422268225,0 74.09765352126129,21.26100611790144,0 74.09780229286643,21.26112607320111,0 74.09800482546119,21.2612524598343,0 74.09814759217635,21.26142295177799,0 74.09834417249819,21.26159992657621,0 74.09843335497951,21.26176420736295,0 74.09851649139797,21.26197911995283,0 74.0985458982769,21.26218778641642,0 74.09858141769679,21.26234598331285,0 74.09866468904212,21.26256131179457,0 74.09875410033614,21.26272611051683,0 74.09894519834117,21.26295452053528,0 74.09902868123153,21.26317027528061,0 74.0991182777699,21.26333539717482,0 74.09930969359415,21.26356424677537,0 74.09939338873362,21.26378042918541,0 74.0994771431258,21.26399676507008,0 74.09962695873905,21.26411782773526,0 74.09976482042931,21.26434082029357,0 74.09990277959321,21.26456397128736,0 74.10004682208339,21.26473625751551,0 74.10019094200594,21.26490863562776,0 74.10027513202354,21.2651257590828,0 74.10041344713856,21.26534946850068,0 74.10055186147513,21.26557333731914,0 74.10069631114349,21.2657461700478,0 74.10078079700858,21.26596388292959,0 74.1008653422665,21.26618175147568,0 74.1008416356281,21.26638689108462,0 74.10081791213049,21.26659217717062,0 74.10069172800716,21.26673334545801,0 74.10055355541624,21.26697739273407,0 74.10042123589501,21.26717020687142,0 74.1003913484778,21.26742755443252,0 74.10042169751752,21.26764005535099,0 74.10056066274258,21.26786562631253,0 74.10053080347423,21.26812358482128,0 74.10056123730381,21.26833658221769,0 74.10053135450934,21.268594959436,0 74.10050742899624,21.26880182855816,0 74.10048348638657,21.26900884609744,0 74.1004051032463,21.2692095371551,0 74.1003811067981,21.26941684966705,0 74.10035108717645,21.26967619901071,0 74.10032705207138,21.26988384682042,0 74.1003575066039,21.27009812831188,0 74.10038798456161,21.27031256341764,0 74.10041848455919,21.27052715362703,0 74.1003884256649,21.27078749271751,0 74.10042496296964,21.2709503029696,0 74.10034629780482,21.27115236233664,0 74.10015832356497,21.27134156896385,0 74.10002485838328,21.2715374135189,0 74.0998912982573,21.2717333985939,0 74.09976372498133,21.27187722801196,0 74.09962998491662,21.27207345980306,0 74.09960558805946,21.27228285266439,0 74.09946557919136,21.27253178132873,0 74.09948974949275,21.27280048201213,0 74.09957484972171,21.27302344040804,0 74.09966001070755,21.2732465593601,0 74.09974523484679,21.27346984082827,0 74.09962335289205,21.2735619688009,0 74.09941013042227,21.27348328139634,0 74.09920924711543,21.27329948154095,0 74.09900847228616,21.2731157814527,0 74.09873445542375,21.27308318019365,0 74.09851524165296,21.27305709906094,0 74.09829602829053,21.27303101789496,0 74.09813161884446,21.27301145703527,0 74.09769319452607,21.27295929462134,0 74.09736437744631,21.27292017273398,0 74.09713249641196,21.27299911577491,0 74.0968520719738,21.27301903155152,0 74.09662642000909,21.27304547359008,0 74.09640072684888,21.27307192024194,0 74.09617499372344,21.27309837165788,0 74.09590083310329,21.27306575182216,0 74.09562667298668,21.27303313192391,0 74.09540734499637,21.27300703592941,0 74.09507835420651,21.272967891933,0 74.09474936407968,21.27292874783919,0 74.09453003726817,21.27290265167152,0 74.09409138509149,21.27285045927323,0 74.09376239680518,21.27281131486952,0 74.09343340908283,21.27277217035662,0 74.09299475910028,21.27271997743587,0 74.09276870060836,21.27274639826581,0 74.09254260132722,21.2727728237874,0 74.09237807849617,21.27275324776343,0 74.0921038738239,21.27272062096581,0 74.09177482886906,21.27268146872704,0 74.09117158032483,21.27260968923578,0 74.09062317400877,21.27254443481899,0 74.09006080671492,21.27258420322167,0 74.08982739835527,21.27266315369042,0 74.08970364602705,21.27275519082552,0 74.08941520805968,21.27282767041363,0 74.08923644574249,21.27291323908945,0 74.08892128590546,21.27276889762118,0 
					</coordinates>
				</LinearRing>
			</outerBoundaryIs>
		</Polygon>
		<atom:link rel="app" href="https://www.google.com/earth/about/versions/#earth-pro" title="Google Earth Pro 7.3.7.1094"></atom:link>
	</Placemark>
</Document>
</kml>
