<?xml version="1.0" encoding="UTF-8"?>
<kml xmlns="http://www.opengis.net/kml/2.2" xmlns:gx="http://www.google.com/kml/ext/2.2" xmlns:kml="http://www.opengis.net/kml/2.2" xmlns:atom="http://www.w3.org/2005/Atom">
<Document>
	<name>निजामपूर_२२_266.kml</name>
	<StyleMap id="m_ylw-pushpin">
		<Pair>
			<key>normal</key>
			<styleUrl>#s_ylw-pushpin</styleUrl>
		</Pair>
		<Pair>
			<key>highlight</key>
			<styleUrl>#s_ylw-pushpin_hl</styleUrl>
		</Pair>
	</StyleMap>
	<Style id="s_ylw-pushpin">
		<IconStyle>
			<scale>1.1</scale>
			<Icon>
				<href>http://maps.google.com/mapfiles/kml/pushpin/ylw-pushpin.png</href>
			</Icon>
			<hotSpot x="20" y="2" xunits="pixels" yunits="pixels"/>
		</IconStyle>
		<LineStyle>
			<color>d600ffff</color>
			<width>2.8</width>
		</LineStyle>
		<PolyStyle>
			<color>8affffaa</color>
		</PolyStyle>
	</Style>
	<Style id="s_ylw-pushpin_hl">
		<IconStyle>
			<scale>1.3</scale>
			<Icon>
				<href>http://maps.google.com/mapfiles/kml/pushpin/ylw-pushpin.png</href>
			</Icon>
			<hotSpot x="20" y="2" xunits="pixels" yunits="pixels"/>
		</IconStyle>
		<LineStyle>
			<color>d600ffff</color>
			<width>2.8</width>
		</LineStyle>
		<PolyStyle>
			<color>8affffaa</color>
		</PolyStyle>
	</Style>
	<Placemark>
		<name>निजामपूर_२२_266</name>
		<styleUrl>#m_ylw-pushpin</styleUrl>
		<Polygon>
			<tessellate>1</tessellate>
			<outerBoundaryIs>
				<LinearRing>
					<coordinates>
						73.95529812010281,21.36505320045649,0 73.95530064938406,21.36479583285651,0 73.95530380923675,21.36447428042308,0 73.95530696714997,21.36415290216795,0 73.95531012312563,21.36383169792904,0 73.95531264651154,21.3635748598111,0 73.95531516866083,21.36331813276426,0 73.95531831960807,21.36299738021046,0 73.9553894483881,21.36274098268408,0 73.9558005031155,21.36280556873746,0 73.95628541231373,21.36229344763637,0 73.95642485602906,21.36203743409506,0 73.9564271320137,21.36178137264628,0 73.95643281711256,21.3611417027381,0 73.95691405527006,21.36095049113896,0 73.95705213286992,21.36082283969761,0 73.95725919434859,21.36063141406299,0 73.95760263286279,21.36050406834494,0 73.95780905411752,21.36037659190652,0 73.95808389351313,21.36024922149351,0 73.95822270219867,21.35999409036376,0 73.9584298837957,21.35973914764979,0 73.95870495054101,21.35954815047585,0 73.95891108268005,21.35942087903238,0 73.95911759207216,21.3592299057831,0 73.95939283270519,21.35897537013589,0 73.95946283131332,21.35872070921295,0 73.95953279985957,21.35846615789407,0 73.95967108242107,21.35821179412175,0 73.95980930452279,21.35795753971308,0 73.960016153759,21.35763991459291,0 73.96008630531372,21.3573223038829,0 73.96015641916487,21.35700486374222,0 73.96022577438856,21.35681451285521,0 73.96029581997537,21.35649734528454,0 73.9602972453137,21.35624367145254,0 73.96036723690879,21.35592681007618,0 73.9604371909514,21.35561011857548,0 73.96050641788327,21.35542021649218,0 73.96064412977121,21.35516715997813,0 73.96091808654806,21.35491436780658,0 73.96112378768159,21.35466160594891,0 73.96132939946395,21.35440895215194,0 73.96139870669388,21.35415625090641,0 73.96140018650779,21.35384043043658,0 73.96140136972853,21.35358789495022,0 73.96140284795891,21.35327237835017,0 73.96133598794097,21.35302000824679,0 73.96133748291649,21.35270479502087,0 73.96174617765917,21.35257922109018,0 73.96208677552229,21.35245359579346,0 73.96256330267961,21.35232815062009,0 73.96283552646017,21.35226547597217,0 73.96310751736357,21.35226578311483,0 73.96351604798656,21.35207733721728,0 73.96385614468362,21.35201476407655,0 73.96412822523173,21.35195212062328,0 73.96433243824073,21.3518264719284,0 73.96460469477896,21.35163801065012,0 73.96480880153779,21.35151242923371,0 73.96508090796432,21.3513240676054,0 73.96535284407318,21.3511986272923,0 73.96562478955519,21.35101036506418,0 73.9658287337935,21.3508220880195,0 73.96596475932321,21.3505709933594,0 73.96610068407622,21.35038278012617,0 73.9661009376773,21.35000623387629,0 73.96616891962427,21.34981812570418,0 73.96630475526052,21.34956745913341,0 73.96644050858598,21.34937956597829,0 73.96664405012149,21.34912915979327,0 73.96691530498634,21.34887893545038,0 73.96718645955278,21.34869141061239,0 73.96745752697124,21.34850394500874,0 73.96752523762981,21.34837887774172,0 73.96799957926109,21.34831683642077,0 73.9684739555443,21.34831735478226,0 73.96881269265607,21.34825516925417,0 73.96908351524954,21.34813037434793,0 73.96935441209258,21.34806813363437,0 73.96962528006308,21.34800589897152,0 73.96989579690752,21.34781864780332,0 73.97016605146456,21.34756897289915,0 73.97036885321637,21.3474442478689,0 73.97063912086065,21.34725717294015,0 73.97084139439754,21.34700766290028,0 73.9711114853756,21.34682072574229,0 73.97131381920551,21.34663377511042,0 73.97151633618785,21.34650924638536,0 73.97171855128281,21.34632239581437,0 73.97192070167129,21.34613560250166,0 73.97212278740012,21.34594886816569,0 73.97239272337534,21.34582455470765,0 73.97273053053844,21.34576262213717,0 73.97327149349491,21.34576319264706,0 73.97360959606587,21.34576354806772,0 73.97388082550094,21.34588841935716,0 73.97401760589757,21.34613781550958,0 73.97401951251857,21.34644953047515,0 73.97408871334575,21.34669909376346,0 73.97422563390249,21.34694883384541,0 73.97443072084877,21.34726119250039,0 73.9745000584409,21.34751110028075,0 73.97456942666089,21.34776111422001,0 73.97463882398198,21.34801123351503,0 73.97470825198141,21.34826146000422,0 73.97477770912589,21.34851179200473,0 73.9748471962213,21.34876223135581,0 73.97491671405649,21.34901277725672,0 73.97491886824582,21.349326020059,0 73.97492059257443,21.34957673500337,0 73.97492274919561,21.34989027792646,0 73.97492447547152,21.35014123316549,0 73.97492620260792,21.3503922944461,0 73.97506373860799,21.3506436058782,0 73.97513341609462,21.35089495334337,0 73.97513563319275,21.35120919863492,0 73.97513740787871,21.35146071623275,0 73.97500325042768,21.35171219770417,0 73.97500499763427,21.35196392996446,0 73.97487075424519,21.35221562595685,0 73.97473645402631,21.35246743011188,0 73.9745336581899,21.35265624616789,0 73.97439963989385,21.35297128789422,0 73.97412826240122,21.35309712192432,0 73.97385720324237,21.35328606657895,0 73.97351798783568,21.35347499806652,0 73.97331447566751,21.35360101027496,0 73.97304217241346,21.3536007205129,0 73.97263371887938,21.35360028499223,0 73.9724303891217,21.35378946084096,0 73.97243158533765,21.35404208074289,0 73.97243308146069,21.35435800681883,0 73.9725705470954,21.35461101547445,0 73.97257208172593,21.35492724663447,0 73.97257361733452,21.35524364720528,0 73.97257515392216,21.35556021734275,0 73.97257669148983,21.35587695720296,0 73.97244147741058,21.35613032509951,0 73.97244267928292,21.35638394793189,0 73.97237562907782,21.35663760687355,0 73.97217201666689,21.356891227586,0 73.97196776613808,21.35701796829138,0 73.9716266515596,21.35708109156289,0 73.97135402393735,21.35720779906723,0 73.97108111037704,21.35727101524068,0 73.97087667618484,21.35739783608553,0 73.97046689907678,21.35739739207964,0 73.97026219373852,21.3574607013328,0 73.9699891628196,21.3575239428641,0 73.96985319911903,21.35777801566519,0 73.9696486933903,21.3579685300852,0 73.96951260453699,21.35822279397164,0 73.96930809782206,21.35847709247307,0 73.96917175188949,21.35866790637355,0 73.96896698091194,21.35885870716661,0 73.96883064081959,21.3591133533302,0 73.96862583124384,21.35936803428105,0 73.96835250726811,21.35962274935455,0 73.96821587312097,21.3598139327015,0 73.96807925940804,21.36006898993408,0 73.96787411997472,21.36032408168377,0 73.9677374191357,21.36064323265343,0 73.96773755829996,21.36083489646828,0 73.96787476590634,21.36109069559897,0 73.96787503538303,21.36141041112539,0 73.96801234016419,21.36166645876233,0 73.96801258585225,21.36192246609206,0 73.96801289316306,21.36224263085579,0 73.96801320069719,21.36256296868702,0 73.96801344688545,21.36281936367599,0 73.96794506664415,21.36307579402044,0 73.96780801492167,21.36333225955178,0 73.96760224683432,21.36358876037849,0 73.96746506069705,21.36384544776498,0 73.96739650135083,21.36410232233242,0 73.96732791192117,21.36435930795551,0 73.96725929277707,21.36461640517017,0 73.96712191213243,21.36487353761263,0 73.96712197756437,21.3651953001287,0 73.96712204306947,21.36551723717817,0 73.96705331139204,21.36577483663512,0 73.96705335823134,21.36609708822771,0 73.96698457787095,21.36635493923546,0 73.96698460600244,21.36667750589997,0 73.96691577678925,21.36693560910942,0 73.96691578617083,21.36725849137607,0 73.96684690803269,21.3675168472128,0 73.96684689862202,21.36784004561312,0 73.96670905186441,21.36809857812554,0 73.96650223075606,21.36829243700472,0 73.96608855832757,21.36842140474308,0 73.96574374128836,21.36855047705808,0 73.96546780225938,21.36867965334571,0 73.96519198791212,21.36867934623483,0 73.96484699702182,21.36880847363948,0 73.96470871743117,21.36900263974986,0 73.96450114751367,21.36932641685582,0 73.96429360561808,21.3695855196425,0 73.9642240160056,21.36984488867535,0 73.96422343268556,21.37010444892657,0 73.96401569296722,21.37036389099056,0 73.96380786191763,21.37062344530832,0 73.96353159296567,21.3706231362014,0 73.96318625657071,21.37062274946711,0 73.96291020550528,21.37055748248397,0 73.96263418466057,21.37049222235961,0 73.96235844234661,21.37036203397252,0 73.96215180518868,21.37023195041261,0 73.96187617615566,21.37010181740367,0 73.96160060748836,21.36997171248743,0 73.96139442194047,21.36977684115468,0 73.96111929756964,21.36958195644904,0 73.9608442635549,21.36938713422536,0 73.96063830418049,21.36919245376784,0 73.96036308199558,21.3690625457288,0 73.96001895062345,21.3689325880275,0 73.9598132054716,21.3687380547845,0 73.95960712915324,21.36860832339805,0 73.95933215484987,21.36847854133481,0 73.95905724055002,21.36834878717898,0 73.95885219359786,21.36808975520962,0 73.95864678607951,21.36789549631908,0 73.9583720811913,21.36776586814637,0 73.95802902696978,21.36757155715018,0 73.95782334760193,21.36744207728756,0 73.95761771306326,21.36731262580445,0 73.95734325488996,21.36718312296891,0 73.95720763704828,21.3669246745384,0 73.95721028252453,21.36660196884278,0 73.95707475938953,21.36634377276324,0 73.95673177343292,21.36621440055862,0 73.95645766585095,21.36608513539976,0 73.95618303386775,21.36602035463451,0 73.95584023755639,21.36589105104307,0 73.95556568345698,21.36582629050653,0 73.95536120271078,21.36563276499515,0 73.95515678946353,21.36543930193306,0 73.95529812010281,21.36505320045649,0 
					</coordinates>
				</LinearRing>
			</outerBoundaryIs>
		</Polygon>
		<atom:link rel="app" href="https://www.google.com/earth/about/versions/#earth-pro" title="Google Earth Pro 7.3.7.1094"></atom:link>
	</Placemark>
</Document>
</kml>
