<?xml version="1.0" encoding="UTF-8"?>
<kml xmlns="http://www.opengis.net/kml/2.2" xmlns:gx="http://www.google.com/kml/ext/2.2" xmlns:kml="http://www.opengis.net/kml/2.2" xmlns:atom="http://www.w3.org/2005/Atom">
<Document>
	<name>पानबारा_१०५_684.kml</name>
	<StyleMap id="m_ylw-pushpin">
		<Pair>
			<key>normal</key>
			<styleUrl>#s_ylw-pushpin</styleUrl>
		</Pair>
		<Pair>
			<key>highlight</key>
			<styleUrl>#s_ylw-pushpin_hl</styleUrl>
		</Pair>
	</StyleMap>
	<Style id="s_ylw-pushpin">
		<IconStyle>
			<scale>1.1</scale>
			<Icon>
				<href>http://maps.google.com/mapfiles/kml/pushpin/ylw-pushpin.png</href>
			</Icon>
			<hotSpot x="20" y="2" xunits="pixels" yunits="pixels"/>
		</IconStyle>
		<LineStyle>
			<color>d600ffff</color>
			<width>2.8</width>
		</LineStyle>
		<PolyStyle>
			<color>8affffaa</color>
		</PolyStyle>
	</Style>
	<Style id="s_ylw-pushpin_hl">
		<IconStyle>
			<scale>1.3</scale>
			<Icon>
				<href>http://maps.google.com/mapfiles/kml/pushpin/ylw-pushpin.png</href>
			</Icon>
			<hotSpot x="20" y="2" xunits="pixels" yunits="pixels"/>
		</IconStyle>
		<LineStyle>
			<color>d600ffff</color>
			<width>2.8</width>
		</LineStyle>
		<PolyStyle>
			<color>8affffaa</color>
		</PolyStyle>
	</Style>
	<Placemark>
		<name>पानबारा_१०५_684</name>
		<styleUrl>#m_ylw-pushpin</styleUrl>
		<Polygon>
			<tessellate>1</tessellate>
			<outerBoundaryIs>
				<LinearRing>
					<coordinates>
						74.0440461247286,21.16782521373035,0 74.04394309051062,21.16768586138519,0 74.0437698080254,21.16758143723698,0 74.04370096174371,21.16751189668149,0 74.04363322835421,21.16737298178058,0 74.04349525939158,21.16726888922296,0 74.04342774548184,21.16713030355784,0 74.04329004456076,21.16702645651542,0 74.04322214836556,21.1669227395815,0 74.04322455153957,21.16678464742818,0 74.04326173680722,21.16664675380189,0 74.04329887217938,21.16650904643687,0 74.04333653719956,21.16633717097041,0 74.04337299185772,21.16623418945082,0 74.04340997656752,21.16609703907024,0 74.04341224328283,21.16596006057967,0 74.04341450691859,21.16582326645747,0 74.04341733213428,21.16565253298103,0 74.04341958886407,21.16551615231644,0 74.04342240546724,21.16534593447865,0 74.04342465532287,21.16520996538341,0 74.04339351903148,21.16500634157536,0 74.04336015811087,21.16493854950875,0 74.04329350328921,21.16480310151227,0 74.04319249003191,21.16466782282605,0 74.04312542625885,21.16456648524337,0 74.04302464348613,21.16443152278156,0 74.04295837972006,21.16429675242164,0 74.0428571891163,21.16419577411578,0 74.04279111480221,21.16406131869964,0 74.04269080646708,21.16392702962218,0 74.04265922951812,21.16379294416022,0 74.04266265482472,21.16362560424281,0 74.04270031580246,21.16345855442865,0 74.04273724356939,21.1633251173466,0 74.0427399259529,21.16319184463578,0 74.04274327387087,21.1630255029055,0 74.04278075535862,21.16285944900959,0 74.04281817506622,21.1626936700987,0 74.04285423444892,21.16259433927488,0 74.04289090076711,21.16246204762799,0 74.04289475295039,21.16226391935136,0 74.0429319670112,21.1620991247017,0 74.04296911920031,21.16193460188825,0 74.04297225676345,21.16177033784675,0 74.04304324012713,21.16160636906052,0 74.04311290096904,21.16150812733389,0 74.04318308369869,21.16137728086858,0 74.04325259520887,21.16127926497226,0 74.04332260558256,21.16114871940059,0 74.04339252388193,21.16101834529842,0 74.04346235009793,21.16088814232447,0 74.043498303924,21.16075809767161,0 74.04353474184182,21.16059577851998,0 74.0436043261938,21.16046612938224,0 74.04363959727303,21.16036899767823,0 74.04367584794015,21.16020731505279,0 74.0436783801476,21.16004588419944,0 74.04368040290967,21.15991692928486,0 74.04368242300892,21.15978814259542,0 74.04368444044979,21.15965952385591,0 74.04368695852031,21.15949898612093,0 74.04372251399063,21.15937075641668,0 74.04389211145092,21.1592427428405,0 74.04406060520049,21.15917882924675,0 74.0441954889142,21.15911494488525,0 74.04436181258953,21.15921092215544,0 74.04446236237742,21.15921095895539,0 74.04459571947625,21.15927500393621,0 74.04472982921578,21.15927505292131,0 74.0448965492146,21.15937118614594,0 74.04492919160477,21.15946736430125,0 74.04502873468839,21.15959576849547,0 74.04512867598652,21.15969219063174,0 74.04522871515368,21.15978870714716,0 74.04526134255285,21.1599175061573,0 74.04532767148186,21.16004648560882,0 74.0453604062112,21.16017562158161,0 74.0454608047767,21.16027261174914,0 74.04562966650103,21.16020802644612,0 74.04589944395497,21.16014351984161,0 74.04603426642484,21.16011128224242,0 74.04620261577412,21.16011134300818,0 74.04633743787075,21.16004685078346,0 74.04647222107718,21.15995016712067,0 74.04667410761698,21.15988580422274,0 74.04674138081897,21.15982143495078,0 74.04680860436976,21.15972494767116,0 74.04687572879824,21.15956432895939,0 74.04694277139451,21.15943602714687,0 74.04694266116677,21.15930786821171,0 74.04700961134654,21.15921188253832,0 74.04700941938779,21.15905207426194,0 74.04707615153376,21.15889254949911,0 74.04714283528089,21.15876512084577,0 74.04720950319714,21.15866966384635,0 74.04720922033182,21.15854250026478,0 74.04727569887859,21.15841552537727,0 74.04734209126772,21.15828871488699,0 74.0473750603836,21.15816205651777,0 74.04737457388424,21.15800394891242,0 74.0473739911326,21.15781455679668,0 74.04737360326445,21.15768849898557,0 74.04737311914019,21.15753115542021,0 74.04733952415236,21.15740545120073,0 74.04733906819918,21.15724856339043,0 74.04740512592241,21.15715457575529,0 74.04763686710851,21.15706073795713,0 74.04786838463474,21.15696699069819,0 74.0480338490928,21.15693579310767,0 74.04819903116366,21.15687336879754,0 74.04823144526179,21.15677973103661,0 74.04799637179028,21.15627519195369,0 74.04813544529677,21.15624155256405,0 74.04827447289976,21.15620792442971,0 74.0484492708641,21.15614067065831,0 74.04862113268609,21.15614072272441,0 74.04872564194582,21.15610711790414,0 74.04886584555598,21.15603992112516,0 74.0490389596991,21.15600637127323,0 74.04924766418094,21.15593926260772,0 74.04938629511264,21.15590573548601,0 74.04955920686467,21.15587222996202,0 74.04966465270465,21.15580517962619,0 74.04980191177118,21.15580522124501,0 74.0499415439886,21.15573822602061,0 74.05018281281511,21.15570479715818,0 74.05035541771242,21.15567135911146,0 74.05052687554517,21.15567141106915,0 74.05066617311394,21.15560450510456,0 74.05083861020609,21.15557109999355,0 74.05090715867796,21.15557112075984,0 74.0510462596189,21.15550428161431,0 74.05118331104892,21.15550432312803,0 74.05132227347229,21.15543752846701,0 74.05149353065779,21.15543758032511,0 74.05163234291032,21.15537083009766,0 74.051770183139,21.15533749283372,0 74.05190797700939,21.15530416618375,0 74.05204572531483,21.15527085061132,0 74.05221764462073,21.15523755646114,0 74.05235607705954,21.15517093925888,0 74.05249289987016,21.15517098063858,0 74.05266465868293,21.15513771964633,0 74.05276868485187,21.15507115845286,0 74.05294031200086,21.15503793058962,0 74.05311188197577,21.15500471421134,0 74.0532498559234,21.15493825165701,0 74.05338834802089,21.15483861986162,0 74.0535267018146,21.15473908738041,0 74.05366435531633,21.15467280094817,0 74.05383656051305,21.15457344355717,0 74.05393938779672,21.15454036000814,0 74.05407726148184,21.15444112384038,0 74.05418093450031,21.15434197563439,0 74.05435214998822,21.15427596253669,0 74.0544556007906,21.15417697812989,0 74.05462698610943,21.15407811257062,0 74.0547301980472,21.15397932418387,0 74.05479969580557,21.15384773816459,0 74.05493666536817,21.15374918822009,0 74.0550395535455,21.15365072547452,0 74.05514265632118,21.15351958261177,0 74.05521172196981,21.15338860240848,0 74.05524651949634,21.15329047530721,0 74.05531572451731,21.15312714840541,0 74.0553507059203,21.15299667392964,0 74.05538564153493,21.15286637064261,0 74.05542053125872,21.15273623831889,0 74.05548914263996,21.15260628693051,0 74.05549043075308,21.15244406157047,0 74.05549171673974,21.15228210163293,0 74.0554927440012,21.15215272439143,0 74.05552743795819,21.15202352633682,0 74.05559597210232,21.15186227384296,0 74.05563054770418,21.15173345511472,0 74.05566507805847,21.15160480441162,0 74.05573313813528,21.15147633159011,0 74.05573400376316,21.15134800581238,0 74.05573486825445,21.15121984704763,0 74.05573594727316,21.15105988301741,0 74.05573723976185,21.15086826911288,0 74.05573788505363,21.15077260213951,0 74.0558388449835,21.15067705871277,0 74.05604030420905,21.15051803627241,0 74.05620612499192,21.15024912737703,0 74.05640260519863,21.15006600511931,0 74.05689262300427,21.15006615793005,0 74.05728463692496,21.15006627933627,0 74.05777465409781,21.15006643004113,0 74.05826467105881,21.15006657957609,0 74.05875475526253,21.14997515420209,0 74.05904879364076,21.14988368080818,0 74.05944077677657,21.14979224860816,0 74.06002866244866,21.14970088535018,0 74.06051849937354,21.14960950373721,0 74.06081234265056,21.14951807625733,0 74.06120400968508,21.14933519912273,0 74.06159545185814,21.14906091573623,0 74.06188896649454,21.14887812924497,0 74.06228030931928,21.14869541786721,0 74.0625734699013,21.1484213572015,0 74.06306246607856,21.14823879216152,0 74.0633556119174,21.14805621907859,0 74.06374626446288,21.14778243558341,0 74.06403950568942,21.14769124285028,0 74.06442991938377,21.14741760124964,0 74.06491797456512,21.14714409289947,0 74.06530842601919,21.1469618309267,0 74.06560100395762,21.14677958924428,0 74.06599043934033,21.14641519685853,0 74.06647783163183,21.14614207794287,0 74.06667191287042,21.14586898965813,0 74.06696360408533,21.14559603365085,0 74.06735284745747,21.14532320865959,0 74.06774246423993,21.14514141798906,0 74.06813142571716,21.1448687695683,0 74.06852138934494,21.14477797525942,0 74.0690077042603,21.1445054921763,0 74.06939750876155,21.14441474327168,0 74.0699817818988,21.14423323220244,0 74.07056661464462,21.14414256284472,0 74.07085717326268,21.14387027692183,0 74.0711476184365,21.14359809648041,0 74.07143871762064,21.14341672493318,0 74.07202391888841,21.14341685895093,0 74.0725099075901,21.1432355762597,0 74.07280247086187,21.1432356416347,0 74.07319078540363,21.14305438236034,0 74.07387148712847,21.14287323338489,0 74.07426051682768,21.14278268558293,0 74.07474697923298,21.142692169159,0 74.07503842376371,21.14260162246132,0 74.07542626928256,21.14242052334809,0 74.07581295761796,21.14214892073776,0 74.07610206689387,21.14187740427057,0 74.07629365555361,21.14160597325677,0 74.07628821734609,21.14115376045099,0 74.0762838697064,21.14079220144502,0 74.07618219989141,21.14043081298437,0 74.0760805850377,21.14006961166103,0 74.07597902289439,21.1397085985766,0 74.07578026893894,21.13934775559511,0 74.07567883989844,21.13898711849238,0 74.07528485959236,21.13853653421487,0 74.07518564526309,21.13835639361545,0 74.07479595373539,21.13826627245292,0 74.07459772053201,21.13790617840347,0 74.07459285736147,21.13745637456291,0 74.07458896943275,21.13709674080627,0 74.07458411280504,21.13664746251258,0 74.07582794470503,21.13512233761013,0 74.07669826114321,21.13494326526303,0 74.07727758559363,21.13476418175192,0 74.07785557645948,21.13449558789241,0 74.07804938510293,21.13449562161212,0 74.07998352813765,21.13422735211867,0 74.08104650890742,21.13404851308273,0 74.08133008628171,21.13360124656312,0 74.08161633432472,21.13333304320642,0 74.08229116865185,21.13315436632975,0 74.0823865024814,21.13306501016202,0 74.08199492240497,21.13279691587232,0 74.08170026391615,21.1325289401846,0 74.08140572176485,21.13226106694549,0 74.08149679627236,21.13190413378307,0 74.08207422936151,21.13172581087062,0 74.08235994292608,21.13145833114288,0 74.0827437188431,21.13128009319969,0 74.08312891925607,21.13119101606839,0 74.08351407074561,21.13110194916543,0 74.08389917114152,21.1310128924835,0 74.08447915100916,21.1310129626818,0 74.08467085319958,21.13092389189801,0 74.08505583428467,21.13083485444633,0 74.0855390902275,21.13083490877687,0 74.08612071915277,21.13092405426467,0 74.08631403761441,21.1309240747577,0 74.08660926376304,21.13119142201084,0 74.08661626735309,21.1315480058004,0 74.08700663252264,21.13172640588177,0 74.08739710349026,21.13190485267684,0 74.08759782775736,21.13226182561683,0 74.08808899590109,21.13261901089754,0 74.08819320190085,21.13297634398111,0 74.08848924785076,21.13324448667367,0 74.08869045644471,21.13360215208555,0 74.08898864806081,21.13396001356741,0 74.08899629242082,21.13431803237921,0 74.08929279051478,21.13458669541738,0 74.08968243224236,21.13467630115312,0 74.08997716838063,21.1348555007584,0 74.09036893714159,21.13503475548295,0 74.09076081037604,21.13521405616342,0 74.09124564495515,21.1352140986295,0 74.09144787675787,21.13557278594421,0 74.09164603718042,21.13575220842524,0 74.09136122761548,21.13602137917593,0 74.09097721828208,21.13620086501455,0 74.09059109032916,21.13629060726463,0 74.09020292131831,21.13629057011149,0 74.08981672077587,21.13638032163936,0 74.08943241542545,21.1365598964395,0 74.08904417292241,21.13655985593094,0 74.08865593427576,21.13655981443236,0 74.08837037705108,21.1368292902062,0 74.08838163260552,21.13736861912163,0 74.08838914193085,21.13772840619483,0 74.08829948940704,21.13808836786615,0 74.08830698218941,21.13844852916404,0 74.08802282346772,21.13880884185872,0 74.08793300380329,21.13916936598227,0 74.08794040776122,21.13953008956588,0 74.08823783022029,21.13980079022525,0 74.08834263414174,21.14016185512291,0 74.08844749166154,21.14052310842116,0 74.08845692828328,21.14097492380457,0 74.0884644826962,21.14133658928,0 74.08847393206095,21.14178893531737,0 74.08848338853062,21.14224157725939,0 74.08849285210056,21.14269451479944,0 74.08850232277959,21.14314774826755,0 74.08851180057637,21.14360127799426,0 74.08852318334296,21.14414590532163,0 74.08853077755826,21.14450922754843,0 74.08863602613282,21.14487275348446,0 74.0886455633272,21.14532741217384,0 74.08865510770578,21.14578236871631,0 74.08866465927736,21.14623762344557,0 74.08867421805083,21.14669317669584,0 74.08868187025823,21.14705783432787,0 74.08859169627868,21.14742266937595,0 74.08830387457853,21.14769638836852,0 74.08801781095815,21.14806152793984,0 74.08772789153558,21.14824414697501,0 74.08733634176808,21.14824408621538,0 74.08694119511328,21.14806136125023,0 74.08664223383101,21.14778741048211,0 74.08643945937932,21.14742234120961,0 74.08623679545551,21.14705746381202,0 74.08613201396604,21.14669279383997,0 74.08583178988167,21.14632828456936,0 74.0857288887929,21.14605504761041,0 74.0852402400719,21.14605497003077,0 74.08465221837881,21.14596382536864,0 74.08435905077978,21.14596377736152,0 74.08397136151787,21.14614582329541,0 74.08358357117952,21.14632791637734,0 74.08319568191354,21.14651005599812,0 74.08270991570872,21.14669222441685,0 74.08222253952918,21.14678328278737,0 74.08192920359804,21.14678323026145,0 74.08153520909299,21.14660088225585,0 74.08104356746573,21.14641856434531,0 74.08055480935998,21.14641847398172,0 74.0802642661877,21.14660064736765,0 74.07997498380793,21.14687402466414,0 74.07978471343365,21.14723873090208,0 74.07979134038119,21.14769492985976,0 74.07979797233712,21.14815142838759,0 74.07980460930766,21.14860822682204,0 74.07981258029744,21.14915678110175,0 74.0796219563412,21.14952268593996,0 74.0795305388622,21.14998036630433,0 74.07924040452752,21.15025507144335,0 74.07885084768787,21.15043822819276,0 74.07856048116463,21.1507131124945,0 74.07807020718404,21.15071301065647,0 74.07767798895058,21.15071292835704,0 74.07718771675171,21.15071282444638,0 74.07698932109011,21.15052947469986,0 74.07659492234696,21.1503461309257,0 74.07620390297657,21.15043766993828,0 74.07591194443577,21.15062088913341,0 74.07552184843597,21.15080413429462,0 74.07513063054597,21.1508957308953,0 74.07474134945279,21.15117076663977,0 74.07444904415431,21.15135417613257,0 74.07406044937176,21.15172118351676,0 74.07386701321818,21.1519965880676,0 74.0734762612184,21.15218019049253,0 74.07318536072819,21.15254765393804,0 74.07289343279785,21.15282336088431,0 74.0727004704478,21.15319118590698,0 74.07260566051411,21.15355922844413,0 74.07270736002975,21.15392751239874,0 74.07280911518109,21.15429599110693,0 74.07271425801214,21.15466461759274,0 74.07242179017702,21.15494116186148,0 74.07203001696496,21.15512553726827,0 74.07173571857635,21.15521771880442,0 74.07154133136819,21.15549450491927,0 74.07134763801848,21.15586374018274,0 74.07135150222774,21.1563256199083,0 74.07135459572011,21.15669534384322,0 74.07125995627625,21.15715774994381,0 74.07116525287533,21.15762046246808,0 74.07106973213361,21.15799084824911,0 74.07087556499178,21.15836140555405,0 74.07068056435158,21.15863944038777,0 74.07018749190222,21.15863931449177,0 74.06979303528429,21.15863921311106,0 74.06939728998836,21.15845370925339,0 74.06929614084927,21.15808302822958,0 74.06909649724986,21.15771251838217,0 74.0687011113034,21.15752725992669,0 74.06820843829063,21.15752713097672,0 74.0678148377403,21.15761959884437,0 74.0675207683921,21.15789730893854,0 74.06712750937261,21.15808245738808,0 74.06673461140754,21.15836032384422,0 74.06653878295828,21.15863835419469,0 74.06624424237842,21.15891646766528,0 74.06624640951451,21.1593803703832,0 74.06624857831852,21.15984458137046,0 74.06615116198162,21.16012322957422,0 74.06595538174687,21.16049491468451,0 74.06575949731263,21.16086679736111,0 74.06556350745508,21.16123887778899,0 74.06536741320073,21.16161115615398,0 74.06497316225813,21.16189042686728,0 74.06477681727276,21.16226305183615,0 74.0644814700033,21.16263584759296,0 74.06408675020911,21.16291552580597,0 74.06389002254835,21.16328869732018,0 74.06359396222048,21.16356866386375,0 74.06319856832425,21.16375531448385,0 74.06280327231028,21.16403543816515,0 74.06240763955695,21.16422221231192,0 74.06201205140803,21.16450252327071,0 74.06171522273699,21.16468944980525,0 74.06151748881548,21.16497000331364,0 74.06112150827866,21.16525061285127,0 74.06082447129118,21.16553136340079,0 74.06042814650112,21.16571853478667,0 74.0601308938885,21.16609317121262,0 74.05993265117401,21.16646803845563,0 74.05993270653462,21.1669369764593,0 74.05973429020921,21.16731229549376,0 74.05963502387446,21.16768784488594,0 74.05923792382097,21.16787559095008,0 74.05874150184628,21.16796939485176,0 74.05814561928302,21.16815715750315,0 74.05784774721305,21.1681570682961,0 74.05735145668201,21.16806294260822,0 74.05695470009904,21.16787490756126,0 74.05675697115474,21.16749916939328,0 74.05675778328015,21.16712369122979,0 74.05636160350531,21.16684209399504,0 74.05596558365825,21.16656061059985,0 74.055470566556,21.16627920786084,0 74.05507457000371,21.16609164791124,0 74.05467833701584,21.16599782519942,0 74.05418340230148,21.16581030990433,0 74.0538860301221,21.16581021721561,0 74.05339126782418,21.16562274943083,0 74.05299527998223,21.16552898721814,0 74.05259934502405,21.16543523701052,0 74.05220397207391,21.16524789867875,0 74.05180870504654,21.16506060979951,0 74.05121427616336,21.16506041967611,0 74.05071891795235,21.1650602604334,0 74.05032326646042,21.16496656974824,0 74.0498279405481,21.16496640913664,0 74.04923354740308,21.16496621543084,0 74.04873821877234,21.16496605319967,0 74.04824288908914,21.16496589023237,0 74.04784662523109,21.16496575932872,0 74.0474487015582,21.1651527666316,0 74.04705238288658,21.16515263488978,0 74.04665517979292,21.16524609088359,0 74.04625792354172,21.16533955903114,0 74.04585967553975,21.16552666519419,0 74.04536122889975,21.16580745131019,0 74.04486257930505,21.1660883485944,0 74.04466326700108,21.16618199530512,0 74.04436268970373,21.16646311118489,0 74.04405987155924,21.16693195457901,0 74.04385823789133,21.16721340553365,0 74.04385501883095,21.16749503678206,0 74.0440461247286,21.16782521373035,0 
					</coordinates>
				</LinearRing>
			</outerBoundaryIs>
		</Polygon>
		<atom:link rel="app" href="https://www.google.com/earth/about/versions/#earth-pro" title="Google Earth Pro 7.3.7.1094"></atom:link>
	</Placemark>
</Document>
</kml>
