<?xml version="1.0" encoding="UTF-8"?>
<kml xmlns="http://www.opengis.net/kml/2.2" xmlns:gx="http://www.google.com/kml/ext/2.2" xmlns:kml="http://www.opengis.net/kml/2.2" xmlns:atom="http://www.w3.org/2005/Atom">
<Document>
	<name>बर्डीपाडा_१००_२०3.kml</name>
	<StyleMap id="m_ylw-pushpin">
		<Pair>
			<key>normal</key>
			<styleUrl>#s_ylw-pushpin</styleUrl>
		</Pair>
		<Pair>
			<key>highlight</key>
			<styleUrl>#s_ylw-pushpin_hl</styleUrl>
		</Pair>
	</StyleMap>
	<Style id="s_ylw-pushpin">
		<IconStyle>
			<scale>1.1</scale>
			<Icon>
				<href>http://maps.google.com/mapfiles/kml/pushpin/ylw-pushpin.png</href>
			</Icon>
			<hotSpot x="20" y="2" xunits="pixels" yunits="pixels"/>
		</IconStyle>
		<LineStyle>
			<color>d600ffff</color>
			<width>2.8</width>
		</LineStyle>
		<PolyStyle>
			<color>8affffaa</color>
		</PolyStyle>
	</Style>
	<Style id="s_ylw-pushpin_hl">
		<IconStyle>
			<scale>1.3</scale>
			<Icon>
				<href>http://maps.google.com/mapfiles/kml/pushpin/ylw-pushpin.png</href>
			</Icon>
			<hotSpot x="20" y="2" xunits="pixels" yunits="pixels"/>
		</IconStyle>
		<LineStyle>
			<color>d600ffff</color>
			<width>2.8</width>
		</LineStyle>
		<PolyStyle>
			<color>8affffaa</color>
		</PolyStyle>
	</Style>
	<Placemark>
		<name>बर्डीपाडा_१००_२०3</name>
		<styleUrl>#m_ylw-pushpin</styleUrl>
		<Polygon>
			<tessellate>1</tessellate>
			<outerBoundaryIs>
				<LinearRing>
					<coordinates>
						73.99658860566159,21.14679853868885,0 73.99646966980858,21.14679810872596,0 73.99629196346639,21.14663107194013,0 73.99617372497632,21.14646425022555,0 73.99617488709606,21.14618693210167,0 73.99617581669153,21.14596507733147,0 73.99635491589528,21.14579933185036,0 73.99647524400324,21.14546698171732,0 73.99665434161011,21.14530123671395,0 73.99677397186798,21.14513527754423,0 73.99689383362261,21.14491385447954,0 73.99701369410563,21.14469243169193,0 73.99707408843874,21.14447079492509,0 73.99707524744682,21.14419347955583,0 73.9970759427878,21.14402709129776,0 73.99695793731613,21.14380480923525,0 73.99678023440232,21.14363777537935,0 73.99654283327912,21.14352598866826,0 73.99630520092619,21.14346966458062,0 73.99606756785201,21.14341334020446,0 73.99577070100014,21.14330133753083,0 73.99559253459361,21.14324522805464,0 73.99535466963171,21.14324436573362,0 73.99505780274224,21.14313236155238,0 73.99482040207211,21.14302057307685,0 73.99458276937708,21.14296424684784,0 73.99434490299041,21.14296338328256,0 73.99410750297486,21.14285159347733,0 73.99386963614515,21.1428507293271,0 73.99363223606561,21.14273893926955,0 73.99339460206144,21.14268261150385,0 73.99309773474275,21.1425706040811,0 73.99303873503159,21.14245946208732,0 73.99321806853776,21.14223825958197,0 73.99345640156758,21.14212819895375,0 73.99369519925088,21.14190721290759,0 73.99381483093322,21.14174125732654,0 73.99411239441413,21.14168687545654,0 73.99429149061453,21.14152113565805,0 73.99458951774236,21.14135582839242,0 73.99488754355005,21.14119052094459,0 73.99500693888284,21.14108002770798,0 73.99530496276333,21.14091472002696,0 73.99554352050527,21.14074919594354,0 73.99578184461747,21.14063913456981,0 73.99596116722516,21.14041793236747,0 73.99619925871764,21.1403633327182,0 73.99649658248769,21.14036441070166,0 73.99679390586881,21.14036548822153,0 73.9970313009555,21.14047727428312,0 73.99726869686518,21.14058906020415,0 73.99756625106789,21.14053467416822,0 73.99780433983378,21.14048007259285,0 73.99816158840011,21.1403704388419,0 73.99833998120191,21.14037108385193,0 73.99851906642836,21.14020534237133,0 73.99881684864755,21.14009549270481,0 73.99905539664299,21.13992996578727,0 73.99923424975412,21.1398196860545,0 73.99941333257181,21.13965394434198,0 73.99971111204006,21.13954409341912,0 73.99988996342988,21.13943381325037,0 74.00000981116821,21.13921239466224,0 74.00018912225647,21.138991190378,0 74.00036843232756,21.13876998622694,0 74.00048804854191,21.13860402937536,0 74.00060789466256,21.13838261076877,0 74.00072774034854,21.13816119205565,0 74.00078812231339,21.1379395590333,0 74.00090819700073,21.1376626785367,0 74.00096834883772,21.13749650737235,0 74.00102896006877,21.13721941258564,0 74.0010891115307,21.13705324140239,0 74.00109003016109,21.13683139417768,0 74.00121010296365,21.13655451355468,0 74.0012112509378,21.13627720452022,0 74.00133109343487,21.13605578557522,0 74.00139124413491,21.13588961420107,0 74.00139216217056,21.13566776691198,0 74.00151200383785,21.13544634765297,0 74.00157238330448,21.13522471436744,0 74.00181114759405,21.1350037231531,0 74.00187129726794,21.13483755143065,0 74.00187244382525,21.13456024183794,0 74.00187359034567,21.13428293209605,0 74.00187450753518,21.13406108426291,0 74.0018756539894,21.13378377421414,0 74.00187680040695,21.13350646397359,0 74.00187794678787,21.13322915352603,0 74.00187909313225,21.13295184285628,0 74.00193970016714,21.13267474598109,0 74.00194061711267,21.13245289715681,0 74.0019417632632,21.13217558578971,0 74.00206160129312,21.13195416459368,0 74.00212197859815,21.13173252878647,0 74.00230104736838,21.13156678350535,0 74.0024211135464,21.13128989896396,0 74.00254095031204,21.13106847663432,0 74.00266078677475,21.13084705399699,0 74.00272116282906,21.13062541693609,0 74.00272230764658,21.1303481038866,0 74.00278268344913,21.13012646627112,0 74.00278359920823,21.12990461546558,0 74.00290343461096,21.1296831909941,0 74.00290435021873,21.12946133888683,0 74.00296472550738,21.12923970093606,0 74.00302510065998,21.12901806189972,0 74.00308547567238,21.12879642332988,0 74.00314585055325,21.12857478365793,0 74.00332514422264,21.12835357067262,0 74.00332605933718,21.1281317175911,0 74.00344589306279,21.12791029031827,0 74.00344703679322,21.12763297290772,0 74.00356687015443,21.12741154477617,0 74.0035677850133,21.12718969027745,0 74.00362815895245,21.12696804800319,0 74.00368853276547,21.12674640533849,0 74.00374890646201,21.12652476305534,0 74.00380928005075,21.12630311958506,0 74.00386942489715,21.12613694001862,0 74.00387056811509,21.12585961895679,0 74.00393094142585,21.12563797424602,0 74.0039913146623,21.12541632987588,0 74.00411114640157,21.12519489740074,0 74.00429043660016,21.12497367819111,0 74.00441003939274,21.12480770949481,0 74.00458932907362,21.12458648827679,0 74.00476861848466,21.12436526710762,0 74.00494745078167,21.12425497490801,0 74.00518596979455,21.12408942958879,0 74.00530557176158,21.12392345857668,0 74.00548486041259,21.12370223407198,0 74.00566392036255,21.12353647597278,0 74.00578375020616,21.12331503780061,0 74.00584412171851,21.1230933868126,0 74.00596395132482,21.12287194742428,0 74.00608400905257,21.12259504124127,0 74.00614438013758,21.12237338995679,0 74.00614529314116,21.12215152454919,0 74.00614643443451,21.12187419204133,0 74.0061473475004,21.12165232542684,0 74.00620794693053,21.12137520491684,0 74.00626854615035,21.12109808192311,0 74.00650729089756,21.12087706070109,0 74.00674512265785,21.1208779075393,0 74.00698295452707,21.12087875385376,0 74.00716064436521,21.12104578983121,0 74.00721918969485,21.12126786952622,0 74.00739642386422,21.12154583662728,0 74.00751511196982,21.12160172601383,0 74.00757365812527,21.12182380420942,0 74.007572746058,21.12204567062514,0 74.00757183403515,21.12226753650551,0 74.00751146362518,21.12248919057949,0 74.00739163507008,21.12271063116983,0 74.00727180607235,21.12293207264133,0 74.00721143548482,21.12315372494132,0 74.00709160664454,21.12337516515841,0 74.00697200540326,21.12354113908668,0 74.00679271776005,21.1237623648709,0 74.00655419943111,21.123927914161,0 74.00643459800268,21.12409388654662,0 74.0061963075414,21.12420396924094,0 74.00607670587721,21.12436994077928,0 74.00595687589103,21.12459137622503,0 74.00589650430892,21.12481302408496,0 74.00583590460162,21.125090135519,0 74.00577553287005,21.12531178231919,0 74.00565547410389,21.12558868013812,0 74.00553587167217,21.12575464899934,0 74.00535658201888,21.12597586942274,0 74.00535566879105,21.12619772603359,0 74.00547367355617,21.12642000800343,0 74.00553221943716,21.12664207707898,0 74.0055310781818,21.12691939656759,0 74.00570854283889,21.12714188957622,0 74.0058263203933,21.12741963274823,0 74.00600378567903,21.12764212461297,0 74.0061220201375,21.12780893932521,0 74.00629971435269,21.12797596665876,0 74.0065366403869,21.12819866915,0 74.00665487554055,21.12836548284122,0 74.00683234313873,21.12858797236206,0 74.00695057884671,21.12875478621707,0 74.00712827503234,21.12892181081711,0 74.00724628353815,21.12914408737908,0 74.00754290024321,21.12931153529778,0 74.00783997279981,21.1293680561208,0 74.00807713056527,21.12953529051092,0 74.0083145163226,21.12964706205366,0 74.00849221478985,21.12981408508178,0 74.00872937414029,21.12998131812034,0 74.00890730077204,21.13009287741123,0 74.00914446117132,21.13026011040767,0 74.00938207636048,21.13031641696261,0 74.00961969189014,21.13037272312057,0 74.00991676861004,21.13042923951084,0 74.0100949240062,21.1304853342539,0 74.01027285282765,21.1305968909978,0 74.01051024340829,21.13070865868153,0 74.01068794635133,21.13087567863329,0 74.01092511141012,21.13104290817191,0 74.0110431272013,21.13126517985194,0 74.01128029355658,21.13143240912389,0 74.01139808466128,21.13171014315893,0 74.01157601666566,21.13182169857814,0 74.01169403440844,21.13204396938065,0 74.01193120334749,21.13221119752826,0 74.01210891065833,21.13237821507629,0 74.01228661852163,21.13254523241279,0 74.01246432694289,21.13271224993444,0 74.0125823479938,21.13293451985053,0 74.01281952038471,21.13310174630386,0 74.01305691862504,21.13321351014203,0 74.01329409260481,21.13338073597996,0 74.01341234092149,21.13354754301359,0 74.01353036482094,21.13376981223999,0 74.01358892643756,21.13399187191449,0 74.01364748766855,21.13421393169668,0 74.01364636087618,21.13449124432247,0 74.01358599651861,21.13471288470108,0 74.01346616836764,21.13493431530481,0 74.01334634008894,21.1351557458227,0 74.01322651167888,21.13537717587437,0 74.01316614701759,21.13559881567902,0 74.01316502027899,21.13587612731865,0 74.01322358243011,21.13609818652477,0 74.01328214555916,21.13632024572192,0 74.01328124467956,21.13654209500071,0 74.01328034390987,21.13676394425263,0 74.01316074021761,21.13692991132859,0 74.01304091118492,21.13715134050143,0 74.01280283024762,21.13720596246217,0 74.0125645234054,21.13731604627763,0 74.01232621722509,21.13742612966632,0 74.01214714846638,21.13759188522192,0 74.0119086165394,21.13775743000485,0 74.01161084576798,21.13786730160513,0 74.01143155140272,21.13808851821646,0 74.01131194618021,21.13825448318618,0 74.01113287708628,21.13842023727409,0 74.0108945699413,21.13853031802322,0 74.01059657237315,21.13869564954909,0 74.01041750190575,21.13886140259155,0 74.01017874202948,21.13908240639361,0 74.00988096970575,21.13919227429904,0 74.00970189907048,21.13935802655984,0 74.00940389996205,21.13952335570334,0 74.00916536459371,21.13968889586477,0 74.00892705544332,21.13979897353722,0 74.00868874610774,21.13990905087058,0 74.00844998308685,21.14013005195209,0 74.00827113734674,21.14024034050835,0 74.00797313610428,21.14040566711507,0 74.00779428987057,21.14051595519649,0 74.00755575210096,21.14068149335315,0 74.00737667787412,21.14084724302263,0 74.00707867524858,21.14101256802231,0 74.00695906461196,21.14117853002183,0 74.00672075253131,21.1412886046083,0 74.00654190462529,21.14139889176948,0 74.00630359181382,21.14150896625535,0 74.00612451573946,21.1416747149384,0 74.00588574690676,21.14189571315273,0 74.00576636221913,21.142006212391,0 74.00552782019108,21.14217174801148,0 74.00534874224751,21.14233749626515,0 74.00511042725036,21.14244756953913,0 74.00487211188945,21.14255764256938,0 74.00463356787189,21.14272317740432,0 74.00439525164676,21.14283324998288,0 74.0041569350274,21.14294332194325,0 74.00391884658112,21.14299793156955,0 74.00373976557465,21.14316367889635,0 74.00350144774656,21.14327375065723,0 74.00326312950426,21.14338382220875,0 74.00302458175504,21.14354935578484,0 74.00284595689568,21.1436041778631,0 74.00260740813395,21.14376971116694,0 74.00242855342528,21.14387999568283,0 74.00219023285923,21.14399006641604,0 74.00201137728644,21.14410034995545,0 74.00177282619083,21.14426588321648,0 74.00159374019938,21.14443163026327,0 74.00135518770583,21.14459716342228,0 74.00105716839262,21.14476248174922,0 74.00087808040662,21.14492822876755,0 74.00069922197386,21.14503851273853,0 74.00046089648103,21.1451485825399,0 74.00022257075544,21.14525865142406,0 73.99998424444138,21.14536872095498,0 73.99974591753165,21.14547879035731,0 73.9995075900158,21.14558885963585,0 73.99932826698716,21.14581006915375,0 73.99914917405542,21.14597581622346,0 73.99891038236532,21.14619681246522,0 73.99873128792534,21.14636255898706,0 73.99849295644024,21.14647262818599,0 73.99825485604023,21.14652723358455,0 73.99801675521306,21.14658183880745,0 73.99771895505255,21.14669169293476,0 73.99748062098446,21.14680176164001,0 73.99718305070699,21.14685615077356,0 73.99706365169395,21.1469666489505,0 73.99682531571588,21.14707671743836,0 73.99658860566159,21.14679853868885,0 
					</coordinates>
				</LinearRing>
			</outerBoundaryIs>
		</Polygon>
		<atom:link rel="app" href="https://www.google.com/earth/about/versions/#earth-pro" title="Google Earth Pro 7.3.7.1094"></atom:link>
	</Placemark>
</Document>
</kml>
