<?xml version="1.0" encoding="UTF-8"?>
<kml xmlns="http://www.opengis.net/kml/2.2" xmlns:gx="http://www.google.com/kml/ext/2.2" xmlns:kml="http://www.opengis.net/kml/2.2" xmlns:atom="http://www.w3.org/2005/Atom">
<Document>
	<name>बोरविहीर_६१_204.kml</name>
	<StyleMap id="m_ylw-pushpin">
		<Pair>
			<key>normal</key>
			<styleUrl>#s_ylw-pushpin</styleUrl>
		</Pair>
		<Pair>
			<key>highlight</key>
			<styleUrl>#s_ylw-pushpin_hl</styleUrl>
		</Pair>
	</StyleMap>
	<Style id="s_ylw-pushpin">
		<IconStyle>
			<scale>1.1</scale>
			<Icon>
				<href>http://maps.google.com/mapfiles/kml/pushpin/ylw-pushpin.png</href>
			</Icon>
			<hotSpot x="20" y="2" xunits="pixels" yunits="pixels"/>
		</IconStyle>
		<LineStyle>
			<color>d600ffff</color>
			<width>2.8</width>
		</LineStyle>
		<PolyStyle>
			<color>8affffaa</color>
		</PolyStyle>
	</Style>
	<Style id="s_ylw-pushpin_hl">
		<IconStyle>
			<scale>1.3</scale>
			<Icon>
				<href>http://maps.google.com/mapfiles/kml/pushpin/ylw-pushpin.png</href>
			</Icon>
			<hotSpot x="20" y="2" xunits="pixels" yunits="pixels"/>
		</IconStyle>
		<LineStyle>
			<color>d600ffff</color>
			<width>2.8</width>
		</LineStyle>
		<PolyStyle>
			<color>8affffaa</color>
		</PolyStyle>
	</Style>
	<Placemark>
		<name>बोरविहीर_६१_204</name>
		<styleUrl>#m_ylw-pushpin</styleUrl>
		<Polygon>
			<tessellate>1</tessellate>
			<outerBoundaryIs>
				<LinearRing>
					<coordinates>
						73.81552894228176,21.06584076058998,0 73.81586564869261,21.06577661497252,0 73.81606701398164,21.06558718476595,0 73.81620070935965,21.06533511207507,0 73.81619933719989,21.06502064914929,0 73.81619823925905,21.06476907669345,0 73.81619714113428,21.0645175036048,0 73.8160612505273,21.06426643103875,0 73.81605987752755,21.06395196461584,0 73.81605877891251,21.06370038931438,0 73.81612507610275,21.06344856291656,0 73.81619137296777,21.06319673587954,0 73.81646012857216,21.06300705104903,0 73.81672915971656,21.06288025980081,0 73.8169987401089,21.06287925661795,0 73.81733571447623,21.06287800171286,0 73.81753734832404,21.06275145969937,0 73.81787404610607,21.06268731070373,0 73.81814334816194,21.06262341051826,0 73.81841265039542,21.06255950969612,0 73.8188167395985,21.06249510444499,0 73.81922110310333,21.06249359206408,0 73.81949012766728,21.06236679438518,0 73.81975970200617,21.06236578470076,0 73.82023145706303,21.06236401614461,0 73.82029912589783,21.06242665755131,0 73.82070376241074,21.06248803385686,0 73.82097388663459,21.06261280918574,0 73.82124373560688,21.06267468965853,0 73.82151358353866,21.06273656760185,0 73.82178343199232,21.06279844655136,0 73.82205355538588,21.06292321842978,0 73.82232340341092,21.06298509579771,0 73.82266064373987,21.06304671807414,0 73.82293049050931,21.06310859377446,0 73.82326773023837,21.06317021400507,0 73.82346990805854,21.06316944959303,0 73.8238071472677,21.06323106807024,0 73.82407726991477,21.06335583390874,0 73.82434739250688,21.06348059884548,0 73.82448328303114,21.06373165989416,0 73.82461917324768,21.06398271826883,0 73.82462055495539,21.06429718142035,0 73.82455426787145,21.06454900684558,0 73.82435291827287,21.06473845049469,0 73.8242863540794,21.06492738261771,0 73.82428773507557,21.06524184111922,0 73.82428911596014,21.06555630043209,0 73.82429022058191,21.06580786720573,0 73.82429160124794,21.06612232395878,0 73.8242927056981,21.06637388941769,0 73.82429381007205,21.06662545430854,0 73.82422779740844,21.06694016436601,0 73.82389110650445,21.06700433285527,0 73.82355413954807,21.06700560942887,0 73.82335168250222,21.06694348388972,0 73.82308210865102,21.0669445039907,0 73.82281280944594,21.06700841456441,0 73.82254378619731,21.06713521557332,0 73.8222076434821,21.06732516140918,0 73.82187177511572,21.06757799616987,0 73.82187287668562,21.06782955929321,0 73.82207588527888,21.06801746711761,0 73.8221443815717,21.06826877474424,0 73.82221287711181,21.06852008179418,0 73.82221425399236,21.06883453225367,0 73.82214796123561,21.06908634744745,0 73.82194632764589,21.06921289133173,0 73.82160990563544,21.06933994277536,0 73.82140799589419,21.06940359575248,0 73.82107129742684,21.06946775667853,0 73.82073487230541,21.06959480677144,0 73.820398171421,21.06965896601032,0 73.82012913944899,21.06978576080176,0 73.81992777727598,21.06997519057465,0 73.81972641445907,21.07016462081817,0 73.81959299530213,21.07047957594678,0 73.81932450984903,21.07073214841875,0 73.81919081480035,21.07098421368327,0 73.81892205239264,21.07117389456883,0 73.81872068585061,21.07136332269145,0 73.81858698957603,21.07161538687954,0 73.81845329193565,21.0718674498342,0 73.81838699019892,21.0721192603025,0 73.8183206888757,21.0723710695832,0 73.81832178390206,21.07262262638679,0 73.81832287877364,21.0728741828705,0 73.81832424714165,21.07318862715595,0 73.81819054690394,21.07344068887001,0 73.81798944884919,21.07369300385909,0 73.81778834982441,21.0739453180659,0 73.81758697656812,21.07413474312604,0 73.81738560252978,21.07432416837173,0 73.8171842269287,21.07451359292969,0 73.81705052306279,21.07476565322512,0 73.81691654564113,21.07495482503995,0 73.81671543985838,21.07520713773625,0 73.8165140619008,21.07539656148796,0 73.81631322821461,21.07571176239934,0 73.81617952050615,21.07596382180992,0 73.81611321039652,21.07621562848527,0 73.81604690140959,21.07646743547763,0 73.8159811349156,21.07684501855689,0 73.8159822236759,21.07709657237229,0 73.81598358436489,21.07741101427717,0 73.81591754424345,21.07772570879256,0 73.81591890422349,21.07804015036785,0 73.81605479347353,21.0782911975673,0 73.81605588127434,21.07854275065876,0 73.81619204104292,21.07885668558028,0 73.81619312864395,21.07910823818696,0 73.81612681495767,21.07936004402648,0 73.81599310108459,21.07961210304176,0 73.81572376870837,21.0796760036492,0 73.81552265155865,21.07992831570463,0 73.81538893511856,21.08018037470243,0 73.81532234712444,21.08036929249705,0 73.81532397460624,21.08074662208383,0 73.81519025624094,21.08099868137003,0 73.81512366703402,21.08118759934342,0 73.81512529304806,21.08156492917825,0 73.81505897401624,21.08181673562833,0 73.81499265604955,21.08206854224272,0 73.81492660679594,21.08238323735719,0 73.81486028626318,21.08263504415829,0 73.81479396525172,21.08288685132985,0 73.81472764529254,21.08313865843443,0 73.8147289975112,21.0834531009727,0 73.81473034941529,21.08376754368427,0 73.81473170100486,21.08408198658873,0 73.81473305228003,21.08439642970561,0 73.81473440324088,21.08471087305448,0 73.8148028867777,21.08496217415339,0 73.81493850629052,21.0851503331427,0 73.81514179914977,21.085401126524,0 73.81534509225817,21.0856519196082,0 73.81554811530259,21.0858398235565,0 73.81581854303367,21.08602747344356,0 73.81608870034587,21.08615223355451,0 73.81635858539092,21.08621410483927,0 73.81676354935871,21.08633835534518,0 73.81696657454248,21.08652625729196,0 73.81716959840196,21.08671415899447,0 73.81743975480829,21.08683891723647,0 73.8177099112049,21.08696367503774,0 73.81798006837124,21.08708843195926,0 73.81824995334186,21.0871503001538,0 73.81858697030812,21.08714902396228,0 73.81885604012454,21.08702222535268,0 73.8191245642539,21.08676964997554,0 73.81939363170292,21.08664285166389,0 73.81966324186683,21.08664182958603,0 73.81993230761117,21.0865150304032,0 73.82020164414024,21.08645111937451,0 73.8204712534297,21.08645009635199,0 73.82067455076682,21.08670088158793,0 73.82074331646938,21.08701506700915,0 73.82074468004326,21.08732950872976,0 73.82074604342819,21.08764395086573,0 73.82074740662426,21.08795839343664,0 73.82081590055911,21.08820969206722,0 73.82074958734451,21.08846150232663,0 73.8205479226686,21.08858804828856,0 73.82027885411914,21.08871485026521,0 73.82001032802765,21.08896743017866,0 73.81980893273244,21.08915686440631,0 73.81960753648241,21.08934629968117,0 73.81933846279388,21.089473101679,0 73.81906911730249,21.08953701422647,0 73.818799770296,21.08960092656259,0 73.81853015208114,21.08960194922544,0 73.81819312807617,21.08960322712648,0 73.81799010062949,21.08941532516851,0 73.81771966815295,21.08922767841202,0 73.81738210204145,21.0891031759507,0 73.81717907616121,21.08891527410046,0 73.81697659081203,21.08885314998538,0 73.81670615903106,21.08866550180095,0 73.81643626802925,21.08860363202693,0 73.81609924266104,21.0886049060924,0 73.81576167501846,21.08848040064175,0 73.81542464821703,21.08848167359733,0 73.81528929660679,21.08835640442143,0 73.81474951255235,21.08823266037978,0 73.81454729500187,21.08823342316793,0 73.81407464478097,21.08804653324016,0 73.81373734386217,21.08798491354105,0 73.81346745070199,21.08792303982225,0 73.81319755559963,21.0878611652529,0 73.81286025289492,21.0877995439116,0 73.81252268255544,21.08767503206798,0 73.8123886742938,21.08786420875915,0 73.81225493196057,21.08811627528809,0 73.81212119019065,21.08836834269312,0 73.81198717950166,21.08855751942828,0 73.81192030705353,21.08868355347922,0 73.81172767841326,21.08906107384627,0 73.81172636242698,21.08921036343158,0 73.81172478233933,21.08938960030708,0 73.81169193153161,21.08950926576995,0 73.8116908713455,21.08962885511986,0 73.81168954549446,21.08977840256544,0 73.81168874964959,21.08986816393351,0 73.81168715721587,21.09004775975853,0 73.81168609503668,21.09016754507642,0 73.81165319778358,21.09028749343894,0 73.81162028916199,21.09040748593272,0 73.81161921401045,21.09052740225921,0 73.81152285607139,21.09061772755181,0 73.81145804961928,21.09073796039205,0 73.81136163849665,21.09082834377396,0 73.81136023423682,21.09097843727711,0 73.81132723696854,21.09109868173608,0 73.81132582409663,21.09124889850003,0 73.81132469326477,21.09136912158543,0 73.81122817080482,21.09145967772776,0 73.81110001882541,21.09152030288036,0 73.81097214220696,21.09155085992184,0 73.81084364386932,21.09164158642633,0 73.81074701492557,21.09173221763523,0 73.81065067317952,21.09179277203275,0 73.81052144331279,21.09194378676612,0 73.81042472533206,21.0920345009182,0 73.81032798061619,21.09212523955598,0 73.8102318757885,21.09215573200441,0 73.8100719085877,21.0921864677902,0 73.80994385430137,21.0922170860926,0 73.80978385793628,21.09224782745782,0 73.80968770989045,21.09227833107023,0 73.80955889200067,21.09236925680022,0 73.80946160940225,21.09249024981767,0 73.80942818592987,21.09261104646168,0 73.80939475011013,21.09273188691145,0 73.80936130265314,21.09285277204014,0 73.80935943372627,21.09300379013332,0 73.80929399222869,21.09312489456154,0 73.80929248402016,21.0932458031525,0 73.80929097518506,21.09336675603933,0 73.80932145619147,21.09348763261676,0 73.80931995198276,21.09360867413675,0 73.80938207749031,21.09375979615055,0 73.80944460273133,21.09388069594785,0 73.80944312004182,21.0940018816328,0 73.8093775940913,21.09412335346449,0 73.80928039577245,21.09421466792633,0 73.80911911065937,21.09430624850395,0 73.80902184940892,21.09439761342257,0 73.80892456113212,21.09448900356421,0 73.80879520213092,21.09458053990091,0 73.80869826081167,21.09464161850261,0 73.80860089145956,21.09473307601785,0 73.80847227148128,21.09476393048848,0 73.80834363942094,21.09479478780644,0 73.80821413940178,21.09488640778048,0 73.80802178907228,21.0948871339491,0 73.80786060707156,21.09494851110859,0 73.80773146054744,21.09500977855243,0 73.80763390073791,21.09510133770964,0 73.80747263146078,21.09516275449987,0 73.80734293681061,21.09525447707379,0 73.80721320744652,21.09534622504229,0 73.80708392243284,21.09540756602634,0 73.80698621488155,21.09549923434701,0 73.80685736825228,21.09553015998693,0 73.80672751672867,21.09562198431937,0 73.80656603347279,21.09568349759036,0 73.80640400777814,21.09577548569679,0 73.80627404448303,21.09586737803415,0 73.80617615564189,21.09595917453501,0 73.80604718212128,21.09599014303795,0 73.80591766003415,21.09605160327533,0 73.80581969404902,21.09614344997464,0 73.80575436916082,21.0962046958259,0 73.80559210135068,21.09629682872072,0 73.80546191998818,21.09638886576549,0 73.80533226607201,21.09645039997901,0 73.8052037246396,21.09645088592099,0 73.80510789075269,21.09642072470982,0 73.80501379660963,21.09629901445857,0 73.80488703098817,21.09620797352984,0 73.80482454095275,21.09611671489562,0 73.80469783607234,21.09602572488297,0 73.80457116739994,21.09593475897879,0 73.80447663924572,21.09584369680172,0 73.80441423843243,21.09575253845274,0 73.80432097414585,21.09560062323024,0 73.80422714022464,21.09547921472509,0 73.80419689314594,21.09538803559652,0 73.80413518988284,21.09526658315866,0 73.80404019604462,21.09520611559593,0 73.8039464692482,21.09508485079802,0 73.80388483998955,21.09496350954038,0 73.80379054412795,21.09487271489476,0 73.80372896307823,21.09475145138943,0 73.80366740598562,21.09463023231376,0 73.80363791120668,21.09450893697069,0 73.80360842861853,21.09438768610223,0 73.80361162549993,21.09423603516368,0 73.80358215968943,21.09411488433796,0 73.80358472086719,21.09399365742906,0 73.80358728099264,21.09387247498246,0 73.80358984006649,21.09375133697129,0 73.80359303741304,21.09359997775525,0 73.80359559412331,21.09347893962545,0 73.80363013514777,21.09335782561482,0 73.80366466334992,21.09323675601813,0 73.80373052132764,21.0931458327549,0 73.8038289593794,21.09302460149621,0 73.80392673785011,21.09293361656148,0 73.80402448915477,21.09284265669548,0 73.80415417045056,21.0927516018515,0 73.80431395005373,21.09275100166863,0 73.80450628249068,21.09272009549197,0 73.80463410125184,21.09271961529219,0 73.80476016412244,21.09280970071524,0 73.80482233616792,21.09290005096385,0 73.80491591432296,21.09302051637241,0 73.80501010028986,21.09311080325457,0 73.80507176391289,21.09323146584154,0 73.80516543446747,21.09335205221013,0 73.80525970176588,21.09344243060773,0 73.80538654478217,21.09350245582051,0 73.80551396178943,21.09353223168181,0 73.80564139167447,21.09356201019085,0 73.80580136663697,21.09356140799894,0 73.80596133970415,21.09356080576529,0 73.80612131379671,21.09356020347889,0 73.80624929188778,21.09355972161903,0 73.80637727116542,21.09355923972343,0 73.80650625947843,21.09349824079102,0 73.80660423727232,21.09337687875889,0 73.80676564545266,21.09328555537678,0 73.80686305492036,21.09319449794684,0 73.80692846562415,21.09310358594887,0 73.80699385672548,21.09301269982355,0 73.8070911940351,21.09292171755304,0 73.80718897770713,21.09280056708045,0 73.80725477422413,21.09267958126099,0 73.80732054644,21.09255864019459,0 73.80741823363168,21.09243762285423,0 73.80742054550571,21.09228686435894,0 73.80742239415258,21.09216630682096,0 73.80745616223474,21.09204567374584,0 73.80752183362287,21.09192496436998,0 73.80752366244207,21.09180453904993,0 73.80755739311526,21.09168403822838,0 73.80765490625858,21.09156334127128,0 73.80768815105499,21.09147299733698,0 73.80772228340324,21.09132255940126,0 73.80778783320959,21.0912021144329,0 73.80788479218195,21.0911116303973,0 73.80791842065508,21.09099138216636,0 73.80798390119823,21.09087105856449,0 73.80795378321307,21.09075113735916,0 73.80795640159367,21.09057115848514,0 73.80795814628755,21.09045122692863,0 73.80795989026409,21.09033133905426,0 73.80796163351766,21.09021149525722,0 73.807963811585,21.09006175133539,0 73.80802962290203,21.08991183725624,0 73.80812678533962,21.08979178775641,0 73.80822348876629,21.08970168986571,0 73.80832058438884,21.08958171734644,0 73.8083854333679,21.0894917961334,0 73.80848246882501,21.08937190005717,0 73.80857865436053,21.08931178936503,0 73.80870660644609,21.08925157041207,0 73.80880354665805,21.08913176151242,0 73.80890005936426,21.08904184391962,0 73.80902792976138,21.08898167439258,0 73.8091550160552,21.08898119773255,0 73.80921742630966,21.08907050265511,0 73.80934490139337,21.08904017529258,0 73.80934638792911,21.08892080060518,0 73.80934750242872,21.08883129809111,0 73.80944389601532,21.08874146236712,0 73.80947748327638,21.08859226717927,0 73.8095110551245,21.08844313970256,0 73.8095128732546,21.08829419909561,0 73.80951432708979,21.08817509489193,0 73.80951614354051,21.08802627557576,0 73.80948551195942,21.08793713532298,0 73.80945562032679,21.08778854265648,0 73.80939403626594,21.08764013601695,0 73.80936380900506,21.08752138782069,0 73.80933359265212,21.08740268248675,0 73.8093037602446,21.08725433161777,0 73.80930524915861,21.08713560437866,0 73.80930710944342,21.08698725569102,0 73.80930896877513,21.08683897408286,0 73.80931082715458,21.0866907595043,0 73.80934396731234,21.08657211763333,0 73.80940874517269,21.08645340027108,0 73.80950477946587,21.0863642128984,0 73.80960078747627,21.0862750496716,0 73.80976004057872,21.08618567395325,0 73.8099195942942,21.08606674119745,0 73.81004678994255,21.08600711340583,0 73.81014267126565,21.08591804694291,0 73.81020723807457,21.08579956585691,0 73.81024017061641,21.08568124585355,0 73.81024148540024,21.08556308682992,0 73.81021119960666,21.08544508862706,0 73.81011773673407,21.08532736930384,0 73.81002396928218,21.08523919616471,0 73.80989864128901,21.08515116480336,0 73.80980492870755,21.08506303909497,0 73.80971088915813,21.08500441973888,0 73.8096172229681,21.08491633349192,0 73.80952358204637,21.08482827093223,0 73.80942996638134,21.08474023199665,0 73.80933674491123,21.08462276571475,0 73.80927511095716,21.0845052239312,0 73.80918195085445,21.08438784208965,0 73.80911998913265,21.08429980386937,0 73.8090580441155,21.0842117893408,0 73.80896496414664,21.08409451273748,0 73.8089034475512,21.08397716053648,0 73.80884195305029,21.08385985055385,0 73.80890655059478,21.08374211288033,0 73.80893961329713,21.08362453499678,0 73.80900416967884,21.08350688179281,0 73.80910020332543,21.08338915373042,0 73.80916470788607,21.08327158535539,0 73.80922918833934,21.08315405924438,0 73.80929364541713,21.08303657536916,0 73.8093580798509,21.08291913370154,0 73.80942249022289,21.08280173401543,0 73.80948723874951,21.08265510250596,0 73.80955124169411,21.08256706150517,0 73.80958448397097,21.0824206524377,0 73.80961735581629,21.08230354906462,0 73.80971310036927,21.08218625325546,0 73.80980915613023,21.08203978088092,0 73.80990482703089,21.08192257967362,0 73.81000012694692,21.08183461894592,0 73.81009540029181,21.08174668144387,0 73.81019097620488,21.08162958523398,0 73.81031728112373,21.08157076024697,0 73.81047434217132,21.08157017489578,0 73.8105692010781,21.08151147784778,0 73.81060184992349,21.0813946997684,0 73.81072807184573,21.08133591670826,0 73.81082317328558,21.08124811336373,0 73.81104410757138,21.08113072713804,0 73.81120219209834,21.08101361690934,0 73.81135994335226,21.08092566575569,0 73.81145489910801,21.08083797186692,0 73.81158093618269,21.08077928817007,0 73.81164315784368,21.08083726928322,0 73.81206244787256,21.08026143887025,0 73.81215969171411,21.08008024968126,0 73.81219257661905,21.07995963291572,0 73.81219354027863,21.07983918016049,0 73.81219450353257,21.0797187713998,0 73.81213191502923,21.07956856323252,0 73.81213288905293,21.07944825329452,0 73.81207009471174,21.0793282280713,0 73.81203969627131,21.07914803133338,0 73.81204068635712,21.07902787528048,0 73.81204167603093,21.07890776262155,0 73.81213848174198,21.07875732371156,0 73.81217130380688,21.07863718964458,0 73.81220411380606,21.07851709979544,0 73.81220507261609,21.07839717323368,0 73.81220579145956,21.07830725697795,0 73.81220722846456,21.07812749855149,0 73.81227182570893,21.07800747418946,0 73.81227300749524,21.07785780511824,0 73.81233756604416,21.07773787901093,0 73.81240233194207,21.07758809304747,0 73.8124030226427,21.07749839756992,0 73.81240417332741,21.07734895945548,0 73.8124368751689,21.07722933863862,0 73.81246956575069,21.07710976109616,0 73.81250246978584,21.0769603801215,0 73.81250337127625,21.07684101964782,0 73.81250449760593,21.07669188020937,0 73.81244189705106,21.0765728563338,0 73.81244280887681,21.0764536367638,0 73.81244394812242,21.0763046730745,0 73.81244508677179,21.07615577692218,0 73.81244622482539,21.0760069482565,0 73.81247907822494,21.07585806777289,0 73.81254340158925,21.07573886893258,0 73.81257599782666,21.07561983251092,0 73.8126085821537,21.0755008392264,0 73.81260946174363,21.07538200809227,0 73.81261056071281,21.07523352975293,0 73.81261165910723,21.07508511858908,0 73.81261275692731,21.07493677455076,0 73.81255030374717,21.0748183856216,0 73.81255141490539,21.07467016220168,0 73.81252065154183,21.07455175053383,0 73.81245825169391,21.07443350060736,0 73.81245938287283,21.07428545112465,0 73.81239702017535,21.07416729722096,0 73.81239793578888,21.07404894846096,0 73.81239907976929,21.07390107263371,0 73.81240022315434,21.07375326352788,0 73.81240136594444,21.07360552110048,0 73.81240227974854,21.07348737513122,0 73.81240342146897,21.07333975260694,0 73.8124045625959,21.07319219660982,0 73.81240547507052,21.07307419967754,0 73.81243796245249,21.07295612683404,0 73.81243886845559,21.07283821501888,0 73.81244000043036,21.0726908849306,0 73.81244113181722,21.07254362116594,0 73.81250513495223,21.07242562121172,0 73.81253757172495,21.07230778213977,0 73.81253845855926,21.0721901037429,0 73.81253956658453,21.07204306523337,0 73.81260350254446,21.07192524560573,0 73.81272939013625,21.07195416464981,0 73.81282334342768,21.07204200115327,0 73.81298099668247,21.07204140980513,0 73.81310711956323,21.07204093662552,0 73.81320228629222,21.07195239079384,0 73.81332894942743,21.07186375064915,0 73.81342406011565,21.07177525246786,0 73.81355048287791,21.07171603055515,0 73.81364537044085,21.07165693733238,0 73.81377158441268,21.07162709892542,0 73.81399215761537,21.07162627058459,0 73.81414971050181,21.07162567873896,0 73.81427618114463,21.07153712607698,0 73.8143397539601,21.07141948743404,0 73.8144031666031,21.07133122686357,0 73.81440385230435,21.07118457338182,0 73.81440453763993,21.07103798572384,0 73.8143736090841,21.07092088124771,0 73.81434269199352,21.07080381877632,0 73.81428032076617,21.07068691645741,0 73.81424928764224,21.0705992079786,0 73.81418709981826,21.0704531191361,0 73.81412493918961,21.07030709570454,0 73.81406265500156,21.0701903712588,0 73.81403182801574,21.07007357083418,0 73.81400101208266,21.06995681182441,0 73.81397020790965,21.0698400946133,0 73.81393941405585,21.06972341959216,0 73.81394004420343,21.06960666809207,0 73.81394083151258,21.06946078789699,0 73.81400426084983,21.06934389487642,0 73.81400503330563,21.06919813217997,0 73.81406842606189,21.06908133320196,0 73.81413179525988,21.06896457600267,0 73.81425760807255,21.06890586037148,0 73.81428955305273,21.06878928352686,0 73.81438422165161,21.06867251301469,0 73.81444749442934,21.06855590228893,0 73.81454197040748,21.06846829479757,0 73.81463642123231,21.06838071074865,0 73.81479318778364,21.06838012236747,0 73.81494995453308,21.06837953381311,0 73.81504412200881,21.068350109281,0 73.81520098201084,21.06832045139171,0 73.81535773430372,21.06831986246061,0 73.81545205331774,21.0682323174715,0 73.81557760547595,21.06817373153029,0 73.8156717148878,21.06814432462253,0 73.81582849693577,21.06811468458168,0 73.8159225865291,21.06808528278812,0 73.81611062090505,21.0680845754232,0 73.81623603135877,21.06805505858915,0 73.81636143013459,21.06802554388117,0 73.81651811119899,21.06802495400463,0 73.81670619449856,21.06796616802538,0 73.81686286092412,21.06796557782975,0 73.81698823507548,21.06790703812889,0 73.81717622989335,21.06787729978439,0 73.81727024031208,21.06778987166606,0 73.81723896985662,21.06761591249513,0 73.81730162769736,21.06749967633727,0 73.81739556644867,21.06741234973514,0 73.81752078574829,21.0673539085408,0 73.81761468930867,21.06732457372654,0 73.81777114213678,21.06720808688771,0 73.81789628841631,21.06714968221748,0 73.81802141224304,21.06709128744027,0 73.81808387932975,21.0669752376575,0 73.81811510456853,21.06691722825897,0 73.8182400566767,21.06677207316128,0 73.81836503552366,21.06668482181786,0 73.81852124815586,21.06659747551399,0 73.81858362935304,21.06651050683829,0 73.81867725294771,21.06642344400908,0 73.81873953840213,21.06630763150608,0 73.81880180175291,21.06619186017018,0 73.81877031624701,21.06607648433769,0 73.81877007859872,21.06596103142715,0 73.81876978164675,21.06581677380101,0 73.81880082899104,21.06573013145086,0 73.81880058599523,21.06561480159178,0 73.81880034307741,21.06549951269441,0 73.81886251762526,21.06538402876389,0 73.81892466997208,21.06526858661752,0 73.81898686913955,21.06518197228273,0 73.81898652413587,21.06503805945843,0 73.81901743461468,21.06492285721095,0 73.81904833415184,21.06480769581916,0 73.81907922257827,21.06469257606852,0 73.8190789302829,21.06457761421171,0 73.81898521441651,21.06449177314456,0 73.81882938641992,21.06449236228558,0 73.81873583181329,21.06446398914961,0 73.81861107052748,21.06440701473733,0 73.81848637808353,21.06437876666634,0 73.81839281295296,21.06432168943865,0 73.81829926446389,21.0642646222391,0 73.81811233717097,21.06426532780665,0 73.81798774343154,21.06429450687125,0 73.81786313855309,21.06432368839341,0 73.81776969604748,21.06438147140822,0 73.81764508310053,21.06446810626691,0 73.81755160512829,21.06455464657136,0 73.81745810230754,21.06464120982901,0 73.81745810570676,21.06475619329986,0 73.81739574165027,21.06487145177632,0 73.81733335514339,21.06498675193651,0 73.81727094652805,21.06510209299455,0 73.81717732660246,21.06518880193185,0 73.81714608838941,21.06527529885479,0 73.81708361824722,21.06539074146526,0 73.81698991147832,21.06550634341491,0 73.81689619545855,21.06559315995003,0 73.81677126110219,21.06565128551602,0 73.81667749477701,21.06573814051911,0 73.81655251322871,21.06579629169444,0 73.81642750892686,21.06585445309998,0 73.81630253337258,21.06588377256083,0 73.81617737705412,21.06599966569617,0 73.81602112238221,21.06602911533694,0 73.81586471287098,21.06611630530054,0 73.81573950958831,21.06620340098819,0 73.81570841604963,21.06614576502149,0 73.81561484330331,21.06608837396194,0 73.81558360091935,21.06608849128757,0 73.81552894228176,21.06584076058998,0 
					</coordinates>
				</LinearRing>
			</outerBoundaryIs>
		</Polygon>
		<atom:link rel="app" href="https://www.google.com/earth/about/versions/#earth-pro" title="Google Earth Pro 7.3.7.1094"></atom:link>
	</Placemark>
</Document>
</kml>
