<?xml version="1.0" encoding="UTF-8"?>
<kml xmlns="http://www.opengis.net/kml/2.2" xmlns:gx="http://www.google.com/kml/ext/2.2" xmlns:kml="http://www.opengis.net/kml/2.2" xmlns:atom="http://www.w3.org/2005/Atom">
<Document>
	<name>बोरचक_७_192.kml</name>
	<StyleMap id="m_ylw-pushpin">
		<Pair>
			<key>normal</key>
			<styleUrl>#s_ylw-pushpin</styleUrl>
		</Pair>
		<Pair>
			<key>highlight</key>
			<styleUrl>#s_ylw-pushpin_hl</styleUrl>
		</Pair>
	</StyleMap>
	<Style id="s_ylw-pushpin">
		<IconStyle>
			<scale>1.1</scale>
			<Icon>
				<href>http://maps.google.com/mapfiles/kml/pushpin/ylw-pushpin.png</href>
			</Icon>
			<hotSpot x="20" y="2" xunits="pixels" yunits="pixels"/>
		</IconStyle>
		<LineStyle>
			<color>d600ffff</color>
			<width>2.8</width>
		</LineStyle>
		<PolyStyle>
			<color>8affffaa</color>
		</PolyStyle>
	</Style>
	<Style id="s_ylw-pushpin_hl">
		<IconStyle>
			<scale>1.3</scale>
			<Icon>
				<href>http://maps.google.com/mapfiles/kml/pushpin/ylw-pushpin.png</href>
			</Icon>
			<hotSpot x="20" y="2" xunits="pixels" yunits="pixels"/>
		</IconStyle>
		<LineStyle>
			<color>d600ffff</color>
			<width>2.8</width>
		</LineStyle>
		<PolyStyle>
			<color>8affffaa</color>
		</PolyStyle>
	</Style>
	<Placemark>
		<name>बोरचक_७_192</name>
		<styleUrl>#m_ylw-pushpin</styleUrl>
		<Polygon>
			<tessellate>1</tessellate>
			<outerBoundaryIs>
				<LinearRing>
					<coordinates>
						74.02940501979467,21.32896311334114,0 74.02977916302714,21.32903087218316,0 74.03000421167653,21.3291690113103,0 74.03030400903334,21.3293067748532,0 74.03060340489053,21.32937490594847,0 74.03097795141746,21.3295122923633,0 74.03127694561151,21.32951079020129,0 74.03165149323904,21.32964817342894,0 74.03195089027375,21.32971630103706,0 74.032250689902,21.32985405924571,0 74.03255049067833,21.32999181659789,0 74.03285029155489,21.33012957310654,0 74.03315049574512,21.33033695892529,0 74.03337595142257,21.33054472163797,0 74.03367575407337,21.3306824757113,0 74.03390121089114,21.33089023704568,0 74.03420141786933,21.33109761941227,0 74.03442727919023,21.33137500995411,0 74.03465273839329,21.33158276911834,0 74.0348777943761,21.33172089621472,0 74.035177600873,21.33185864595847,0 74.03555175461449,21.33192638646499,0 74.03585156208048,21.33206413457189,0 74.03622531341436,21.33206224272179,0 74.03652512309463,21.33219998925337,0 74.03682533674092,21.33240736439168,0 74.03705039680533,21.33254548836728,0 74.03742495929421,21.33268285374008,0 74.03779992733845,21.33288984822415,0 74.03809974131215,21.33302758995328,0 74.03832520890349,21.33323534167434,0 74.03810216884079,21.3334453702412,0 74.03780397222921,21.33358614741378,0 74.03765487478924,21.33365653564607,0 74.03728273609559,21.33393694877741,0 74.03713444648533,21.3341465953344,0 74.03728597154932,21.33449398423822,0 74.03743668748339,21.33470211472093,0 74.03743830571904,21.33498063202685,0 74.03736517261001,21.33525952676821,0 74.03714213102587,21.33546955032385,0 74.03676958546743,21.33568033011137,0 74.03647138681104,21.33582110036691,0 74.03624834459522,21.33603112145399,0 74.03595055070285,21.33624151980484,0 74.03572750754198,21.3364515388987,0 74.03550486859456,21.33673118585391,0 74.03535698124537,21.33701045444726,0 74.03528344127004,21.33721971714432,0 74.03513595703387,21.33756861306162,0 74.03506282118398,21.33784750278001,0 74.03483977614501,21.33805751848221,0 74.0346167312117,21.33826753407285,0 74.03439368594147,21.33847754858503,0 74.03424579608419,21.33875681361484,0 74.03402275008737,21.33896682753956,0 74.03372495114839,21.33917721697633,0 74.03350150087861,21.33931760193633,0 74.03327845334633,21.33952761366321,0 74.03298065314812,21.33973800101228,0 74.03268285243428,21.33994838805348,0 74.03238545424371,21.34022840135427,0 74.03208724936511,21.34036915906655,0 74.03178904414175,21.34050991610196,0 74.03164114971233,21.34078917653481,0 74.03149325485089,21.34106843638177,0 74.03134495688168,21.34127806881051,0 74.03104755482681,21.34155807835097,0 74.03082450279939,21.34176808513166,0 74.03067620348536,21.34197771659326,0 74.03045355258233,21.34225734964598,0 74.03030565464329,21.34253660766041,0 74.03015735402585,21.34274623838024,0 74.03000945515504,21.34302549582711,0 74.02986155577753,21.34330475318462,0 74.02963890181238,21.3435843847763,0 74.02941584519235,21.3437943889484,0 74.02934269834255,21.34407327134096,0 74.02919479672863,21.34435252790888,0 74.02904689464556,21.34463178433924,0 74.02897414837268,21.34498029356029,0 74.02897615670435,21.34532842873064,0 74.02897776338216,21.34560693687733,0 74.02890461480375,21.34588581923087,0 74.02883146597979,21.34616470161973,0 74.02868356130118,21.34644395805358,0 74.02861041173107,21.3467228403999,0 74.02853766332134,21.34707135008323,0 74.02838935570057,21.34728097945236,0 74.02824144889365,21.34756023585262,0 74.02809354151775,21.3478394925269,0 74.0280203899011,21.34811837529827,0 74.02787248138755,21.34839763188845,0 74.02749869818528,21.34839949983318,0 74.02727282504841,21.34812211099869,0 74.02719606475122,21.34777434794669,0 74.02637374501083,21.3477784533748,0 74.02599996295493,21.34778031828283,0 74.02584924992904,21.34757218211762,0 74.02584764964148,21.34729367317844,0 74.02569693730833,21.34708553701809,0 74.02532275721084,21.34701777334762,0 74.02502293333113,21.3468800088513,0 74.02479706705591,21.34660261732945,0 74.0246463565072,21.34639448032191,0 74.02442049151546,21.3461170883532,0 74.0241950265595,21.3459093231306,0 74.02389520562161,21.34577155684535,0 74.02359578406683,21.34570341718776,0 74.02329596369094,21.34556564966427,0 74.02292218534083,21.34556750766038,0 74.02262236533753,21.34542973899626,0 74.02239730140154,21.34529159842647,0 74.02217183892581,21.34508383025123,0 74.02194597902738,21.34480643436353,0 74.02194438582825,21.34452792520533,0 74.02194239419946,21.34417978875398,0 74.02224061786269,21.34403904998626,0 74.02246368744228,21.34382905475047,0 74.02276190936578,21.34368831522395,0 74.02290982326318,21.34340906362178,0 74.02290862668407,21.34320018190024,0 74.02305614109142,21.34285130289644,0 74.02312969804215,21.34264204966292,0 74.02320285610169,21.34236316924652,0 74.0232760138025,21.34208428850021,0 74.02349867834181,21.34180466491466,0 74.02357143576666,21.34145615672846,0 74.02356943929732,21.34110801988853,0 74.02356784204483,21.34082951035381,0 74.02356584538141,21.34048137309196,0 74.02371375359823,21.34020211994848,0 74.0238616616181,21.3399228667861,0 74.02400956859617,21.33964361334882,0 74.02415747539216,21.33936435961701,0 74.02430538115989,21.33908510508983,0 74.02445368657072,21.33887547855927,0 74.02445208732834,21.33859696762741,0 74.02459999170405,21.33831771275803,0 74.0244484888259,21.33797031695937,0 74.02414908175845,21.33790217572682,0 74.02392402701277,21.33776403422648,0 74.02369817288793,21.33748663637004,0 74.02354747099311,21.33727849478211,0 74.02332201760498,21.3370707234789,0 74.02317091639095,21.33679295259077,0 74.02309456706021,21.33651481016825,0 74.02301821828461,21.33623666731831,0 74.02301662057511,21.33595815265802,0 74.02294027153238,21.33568000947094,0 74.02293867377384,21.33540149403675,0 74.02293667646985,21.33505335016585,0 74.02293507853298,21.33477483382453,0 74.02315813207414,21.33456483380982,0 74.02330603506172,21.33428557592941,0 74.02345393707604,21.33400631653211,0 74.02367698877333,21.3337963149631,0 74.02382489009942,21.33351705545919,0 74.02412309076725,21.33337631108503,0 74.02434614065463,21.3331663077778,0 74.02464434011014,21.33302556299804,0 74.02486698898812,21.33274592857971,0 74.02501488698422,21.3324666652053,0 74.02516278472916,21.33218740215943,0 74.0253106820069,21.33190813746884,0 74.02545857883695,21.33162887307707,0 74.02568162507831,21.33141886533851,0 74.0259046706006,21.33120885692216,0 74.02605256601738,21.33092959051904,0 74.02620046100948,21.33065032239887,0 74.02642350531998,21.33044031192911,0 74.02657139945552,21.33016104333424,0 74.02686919138677,21.32995065856364,0 74.02716738376702,21.32980990407423,0 74.02739042611016,21.32959989149503,0 74.0276882164504,21.32938950380289,0 74.02798640758391,21.32924874666985,0 74.02820944860316,21.32903873062864,0 74.02850763896919,21.32889797275606,0 74.02865593106708,21.32868832912064,0 74.02895412077612,21.32854756870572,0 74.02940501979467,21.32896311334114,0 
					</coordinates>
				</LinearRing>
			</outerBoundaryIs>
		</Polygon>
		<atom:link rel="app" href="https://www.google.com/earth/about/versions/#earth-pro" title="Google Earth Pro 7.3.7.1094"></atom:link>
	</Placemark>
</Document>
</kml>
