<?xml version="1.0" encoding="UTF-8"?>
<kml xmlns="http://www.opengis.net/kml/2.2" xmlns:gx="http://www.google.com/kml/ext/2.2" xmlns:kml="http://www.opengis.net/kml/2.2" xmlns:atom="http://www.w3.org/2005/Atom">
<Document>
	<name>बोरझर_६३_595.kml</name>
	<StyleMap id="m_ylw-pushpin">
		<Pair>
			<key>normal</key>
			<styleUrl>#s_ylw-pushpin</styleUrl>
		</Pair>
		<Pair>
			<key>highlight</key>
			<styleUrl>#s_ylw-pushpin_hl</styleUrl>
		</Pair>
	</StyleMap>
	<Style id="s_ylw-pushpin">
		<IconStyle>
			<scale>1.1</scale>
			<Icon>
				<href>http://maps.google.com/mapfiles/kml/pushpin/ylw-pushpin.png</href>
			</Icon>
			<hotSpot x="20" y="2" xunits="pixels" yunits="pixels"/>
		</IconStyle>
		<LineStyle>
			<color>d600ffff</color>
			<width>2.8</width>
		</LineStyle>
		<PolyStyle>
			<color>8affffaa</color>
		</PolyStyle>
	</Style>
	<Style id="s_ylw-pushpin_hl">
		<IconStyle>
			<scale>1.3</scale>
			<Icon>
				<href>http://maps.google.com/mapfiles/kml/pushpin/ylw-pushpin.png</href>
			</Icon>
			<hotSpot x="20" y="2" xunits="pixels" yunits="pixels"/>
		</IconStyle>
		<LineStyle>
			<color>d600ffff</color>
			<width>2.8</width>
		</LineStyle>
		<PolyStyle>
			<color>8affffaa</color>
		</PolyStyle>
	</Style>
	<Placemark>
		<name>बोरझर_६३_595</name>
		<styleUrl>#m_ylw-pushpin</styleUrl>
		<Polygon>
			<tessellate>1</tessellate>
			<outerBoundaryIs>
				<LinearRing>
					<coordinates>
						73.81917619496645,21.02123755009635,0 73.81937941468529,21.0214883669696,0 73.81951553445145,21.02180232973244,0 73.81965138023482,21.02205339580255,0 73.81971985159301,21.02230471620748,0 73.81985569748494,21.02255578225932,0 73.82005864277757,21.02274370064097,0 73.82026131405084,21.02286872525831,0 73.82053135904702,21.02299349527905,0 73.82066720492779,21.02324455641028,0 73.8209375246097,21.02343221737499,0 73.82107337113571,21.02368327849252,0 73.82127631694604,21.02387119201932,0 73.82154663701907,21.02405885008997,0 73.82174958308585,21.02424676193734,0 73.82188570490852,21.02456070982255,0 73.82208865131628,21.02474862003536,0 73.82229187265298,21.02499942102532,0 73.82242744552923,21.02518758492096,0 73.82249591901298,21.02543889399834,0 73.82269886611195,21.02562680143149,0 73.82283471406916,21.02587785468667,0 73.8230376615664,21.02606575983869,0 73.82324088440711,21.02631655592767,0 73.82337673302168,21.02656760606738,0 73.82344520726618,21.02681891228994,0 73.82364843089313,21.02706970599945,0 73.82364980595952,21.027384156332,0 73.82365090598476,21.02763571674727,0 73.82371938064695,21.02788701974367,0 73.82372048068891,21.02813857919082,0 73.82372213069827,21.02851591660711,0 73.82399245563086,21.02870356073142,0 73.82406093103019,21.02895486241972,0 73.82406203133336,21.02920641904108,0 73.82406313161856,21.02945797612408,0 73.82406450694053,21.02977242101358,0 73.82413298245213,21.03002372086566,0 73.82413435781228,21.03033816463575,0 73.82420283372257,21.03058946356983,0 73.82427158477007,21.03090364988008,0 73.8243400608784,21.03115494791004,0 73.82447591292809,21.03140598903558,0 73.82461176527816,21.03165702878863,0 73.82474761794307,21.03190806895094,0 73.82495057166446,21.03209596364232,0 73.82508642500866,21.03234700201497,0 73.82528937946344,21.03253489578965,0 73.8254926097805,21.03278567671572,0 73.82569584060482,21.03303645706108,0 73.82596617274956,21.03322409166469,0 73.8262365054521,21.03341172605011,0 73.82657449106979,21.03366198963457,0 73.82677717253004,21.03378699244408,0 73.8271148836228,21.03397436668788,0 73.8273852187254,21.03416199798351,0 73.8276552782479,21.03428674143713,0 73.82785796142149,21.03441174206988,0 73.82806092110093,21.03459963046831,0 73.8282636050232,21.03472463045242,0 73.8286015964607,21.03497488886798,0 73.82887165851849,21.03509962946634,0 73.82907489737202,21.03535040330459,0 73.82927785989938,21.0355382897059,0 73.82954792368642,21.0356630290238,0 73.82975061068841,21.03578802726503,0 73.83008777577861,21.03584961964694,0 73.83035756389729,21.03591147052513,0 73.83062735239224,21.03597332050106,0 73.83089714127877,21.03603517046195,0 73.83116720813753,21.03615990745744,0 73.83150409842816,21.03615860933891,0 73.83177416644047,21.03628334511758,0 73.83211105761765,21.03628204571168,0 73.8323811268438,21.03640678051167,0 73.83265091897876,21.03646862756791,0 73.8329207108206,21.03653047396871,0 73.83319022554697,21.03652943258085,0 73.83346001826608,21.03659127832151,0 73.83372981226104,21.03665312340765,0 73.83406726414975,21.03677759516026,0 73.83440415858907,21.03677629099023,0 73.8346742333723,21.03690102224969,0 73.83494375000639,21.03689997797687,0 73.83521410534603,21.03708759592321,0 73.83541680234087,21.03721258755777,0 73.83575425955833,21.0373370559855,0 73.83595667838631,21.03739915912043,0 73.83622675771502,21.03752388843539,0 73.83656421780532,21.03764835546601,0 73.83690111845159,21.03764704648429,0 73.83717092043025,21.0377088864329,0 73.83744044214059,21.03770783831515,0 73.83770940455273,21.03758101407372,0 73.8379115465157,21.03758022729124,0 73.83831527028919,21.03745287710128,0 73.83865217506575,21.0374515642749,0 73.83885375758469,21.03732500019884,0 73.83905674306567,21.03751287608654,0 73.83919234754121,21.03770101446746,0 73.83926141492289,21.03807808005849,0 73.83939730167174,21.03832910666705,0 73.83946580832128,21.0385803959633,0 73.83960169640272,21.03883142258903,0 73.83987178802386,21.03895614734519,0 73.83994001499778,21.03914454872753,0 73.8399414222652,21.03945898920337,0 73.83994282983006,21.03977342965852,0 73.83987657285972,21.04002524474306,0 73.83987798081573,21.04033968512892,0 73.83987938906814,21.04065412557648,0 73.83988051588327,21.04090567793903,0 73.83981848666753,21.0421008149661,0 73.83961746328364,21.04235315438783,0 73.83941700333762,21.04273126995455,0 73.83928308182948,21.04292045861548,0 73.83914944044706,21.04317253518721,0 73.83915084962872,21.04348697624909,0 73.83921936183391,21.04373826733705,0 73.8392207716837,21.04405270887721,0 73.8392218997671,21.04430426221066,0 73.83922331012693,21.04461870424174,0 73.83922472077025,21.04493314657293,0 73.83895630958705,21.04518574729882,0 73.83835492139387,21.04632009386913,0 73.83849053806364,21.04650823753865,0 73.8384922306267,21.04688557047839,0 73.83842625600657,21.0472002760559,0 73.83842766686173,21.04751472055276,0 73.83829430583647,21.04782968826837,0 73.8380929944895,21.0480191385124,0 73.83782429640912,21.0482088484344,0 73.83769065289698,21.04846092695724,0 73.83748933983516,21.0486503767842,0 73.83735541380977,21.04883956510975,0 73.83715438267865,21.04909190422677,0 73.8368856827057,21.04928161410712,0 73.8367517549719,21.04947080238538,0 73.83648305502557,21.04966051189506,0 73.83628174066008,21.04984996109253,0 73.83601332042312,21.05010255901496,0 73.83581200519509,21.05029200803611,0 73.83554302164279,21.0504188269631,0 73.83527403866354,21.05054564559089,0 73.83507272233959,21.05073509330023,0 73.83480373801399,21.05086191146857,0 73.83453419312177,21.05086294950855,0 73.83426464780081,21.05086398727208,0 73.83399510357569,21.05086502475333,0 73.83379294542387,21.05086580268171,0 73.8333880690998,21.05074157853742,0 73.83305113991057,21.05074287426792,0 73.83291692820724,21.05086917189163,0 73.83291804675025,21.05112073113655,0 73.83285177879205,21.05137254895499,0 73.83285289737645,21.05162410908961,0 73.83271924382531,21.05187618668645,0 73.83265297527585,21.05212800662667,0 73.83258670729001,21.05237982699761,0 73.83238510598544,21.05250638349498,0 73.83218406348192,21.05275872192939,0 73.83218518099925,21.05301028457756,0 73.83218657801699,21.05332473774319,0 73.83225508317511,21.05357604291586,0 73.83218881353694,21.05382786509551,0 73.83198776860272,21.05408020585878,0 73.83185411036028,21.05433228842222,0 73.83178783997371,21.05458411205259,0 73.83158651351667,21.05477356233654,0 73.83131751968212,21.05490037939127,0 73.83111591356138,21.05502693798081,0 73.83084691886746,21.0551537548268,0 73.83057764513393,21.05521767965051,0 73.83030837124031,21.0552816024947,0 73.8299714308063,21.05528289308347,0 73.82963421264076,21.05522129324506,0 73.8293646608974,21.05522232520293,0 73.82895977841186,21.05509808918388,0 73.82855545180976,21.05509963623307,0 73.82821851324481,21.05510092505779,0 73.82788157462393,21.05510221353555,0 73.82747752517463,21.0551666509663,0 73.82707319897163,21.05516819617473,0 73.82714169235147,21.05541950413794,0 73.82700802200733,21.05567158696671,0 73.82673902226871,21.05579840091165,0 73.82647029784175,21.0559881070116,0 73.82653879033816,21.05623941890782,0 73.82667467172156,21.05649047405126,0 73.82667577630994,21.05674204287007,0 73.82681165877337,21.05699309930905,0 73.82701465469201,21.05718100588442,0 73.82728476408425,21.05730576210822,0 73.82748776166454,21.0574936691059,0 73.82769076018367,21.05768157640975,0 73.82782664678295,21.05793263340655,0 73.82809675958737,21.05805739020193,0 73.82830003775103,21.05830819230963,0 73.82836853700722,21.05855951044341,0 73.82857181711708,21.05881031396553,0 73.82857209457309,21.05887320822522,0 73.82870798553535,21.05912426858491,0 73.82904632752393,21.05943745298172,0 73.82918222080154,21.05968851680301,0 73.8289808809668,21.05987797502535,0 73.82877954058249,21.06006743356803,0 73.82851025303967,21.06013135946147,0 73.82830891108846,21.06032081657377,0 73.82803962264776,21.06038474236072,0 73.82777061087606,21.06051156356017,0 73.82750159843073,21.06063838479557,0 73.8273002536082,21.06082784439534,0 73.82703123967313,21.06095466586138,0 73.82683016954969,21.06120702211831,0 73.82662882214254,21.06139648283486,0 73.82649514219234,21.06164858130183,0 73.8263611855796,21.0618377856895,0 73.82609244316384,21.06202750514388,0 73.82575603131774,21.06215458527004,0 73.82555467949321,21.0623440480456,0 73.82528565852155,21.06247087123019,0 73.82508402983808,21.06259743734943,0 73.82481500738484,21.06272425902431,0 73.82454570942069,21.06278818505614,0 73.82427613641819,21.06278921349309,0 73.82407395678838,21.06278998474129,0 73.82339591600869,21.06184910011901,0 73.82312634563439,21.06185012790734,0 73.8229904660179,21.06159905533725,0 73.82292197926692,21.0613477284487,0 73.82271898212649,21.06115981043606,0 73.82251598593659,21.06097189277185,0 73.82244750083169,21.06072056607154,0 73.82244640780054,21.06046898339102,0 73.82231053199315,21.06021791682523,0 73.82230943925418,21.05996633575398,0 73.82230834647359,21.05971475548421,0 73.82237464428117,21.05946291928545,0 73.82237355123404,21.05921134060052,0 73.82230506788935,21.05896002115294,0 73.82216892082698,21.05864606314888,0 73.82203304802205,21.05839500016063,0 73.82203195569778,21.05814342462315,0 73.822098252866,21.05789159321498,0 73.8220968871256,21.05757712749919,0 73.82202867845942,21.05738870411302,0 73.82202731281907,21.05707423836819,0 73.82202622025538,21.05682266654529,0 73.82202458133176,21.05644531184513,0 73.82188871114208,21.05619425468481,0 73.82188761876114,21.05594268515875,0 73.82181913790347,21.05569137272309,0 73.82168326943034,21.05544031728546,0 73.8216150622649,21.05525189962675,0 73.82147892183914,21.05493795337719,0 73.82161260544594,21.05468587421137,0 73.8217462886748,21.05443379563466,0 73.8219473581825,21.05418146213842,0 73.82208131265794,21.05399227579678,0 73.82221499355539,21.05374019963832,0 73.82234867333072,21.05348812313892,0 73.82234757930183,21.05323656006793,0 73.82227909903594,21.05298525482865,0 73.82200873301372,21.05279760872605,0 73.82187286695338,21.05254655964926,0 73.82180438766717,21.05229525559337,0 73.82173590901739,21.05204395110423,0 73.82166688387049,21.05166686798835,0 73.82159840539305,21.05141556460174,0 73.82159703954341,21.05110111666802,0 73.82166333215345,21.05084930197829,0 73.82172962439948,21.0505974886218,0 73.82172825795554,21.05028304161869,0 73.82172689143661,21.04996859614991,0 73.8216584135,21.04971729561784,0 73.82145516710145,21.04946650750366,0 73.82131957861573,21.04927835339811,0 73.82125082865429,21.04896416482682,0 73.82124946307772,21.04864972174779,0 73.82111305683587,21.04827290145334,0 73.8209771969384,21.04802185967171,0 73.82084133788148,21.0477708171873,0 73.82070547889833,21.04751977575979,0 73.8205022372823,21.04726898922108,0 73.82036637968035,21.04701794759562,0 73.82016313887493,21.04676716158247,0 73.82002728223672,21.04651611970705,0 73.81982404258233,21.04626533371804,0 73.81968818687797,21.04601429242379,0 73.8195526036363,21.04582613922388,0 73.8194167486796,21.04557509758887,0 73.81921351142407,21.04532431152083,0 73.81901027473111,21.04507352534583,0 73.81887469292448,21.0448853720208,0 73.81880594990128,21.04457118814804,0 73.81867009653431,21.04432014705706,0 73.81853424351907,21.04406910551912,0 73.8184657733571,21.04381780974411,0 73.81846441282927,21.04350337175343,0 73.81846332430095,21.04325182161404,0 73.81832774434054,21.04306366814446,0 73.81819162050263,21.0427497396079,0 73.81805576908729,21.0424986986044,0 73.81785280883351,21.04231079917539,0 73.81764957700233,21.04206001211611,0 73.8175137266302,21.04180897042347,0 73.81744553009311,21.04162056219311,0 73.81730940836832,21.04130663297979,0 73.81724094029329,21.04105533722392,0 73.81710509089721,21.04080429521626,0 73.81696924176789,21.04055325303324,0 73.81696815466991,21.04030170320424,0 73.81683230668304,21.04005066081952,0 73.81683067598951,21.03967333604377,0 73.81682986054426,21.03948467365205,0 73.81689588132642,21.03916998269306,0 73.81689479370698,21.03891843278315,0 73.81689370597158,21.03866688283613,0 73.81689234613981,21.03835244547314,0 73.81689098612621,21.03803800790639,0 73.8168896259312,21.03772357022689,0 73.81688853764389,21.03747201985628,0 73.81702193610722,21.03715707508766,0 73.81715560527338,21.03690501787347,0 73.81735692649868,21.03671559448527,0 73.81755824624125,21.03652617110968,0 73.81782721635072,21.03639938107176,0 73.81789377783321,21.03621046469499,0 73.81802744395866,21.03595840676797,0 73.81816111027018,21.03570634822077,0 73.8182273979899,21.03545454374368,0 73.81822603386773,21.03514010505498,0 73.81822466959132,21.03482566607349,0 73.81815619958942,21.03457436845644,0 73.81802062485788,21.03438621219633,0 73.81781712701464,21.03407253292615,0 73.81761417504718,21.03388462876632,0 73.81747860084926,21.03369647124702,0 73.8172753765221,21.03344567826101,0 73.81700532012405,21.03332091394034,0 73.81680209620788,21.03307011958508,0 73.81659914427159,21.03288221304916,0 73.81639619322311,21.03269430549118,0 73.81619324228961,21.03250639779025,0 73.81592318621958,21.03238163022213,0 73.81558629612205,21.0323828917956,0 73.81524913321979,21.03232126370722,0 73.81484459184612,21.03225988657131,0 73.81457480601907,21.03219800476834,0 73.81443923315574,21.03200984194777,0 73.81430338917434,21.03175878868425,0 73.81410043757337,21.03157087547848,0 73.81389721488874,21.03132007316357,0 73.81369453598008,21.03119504798544,0 73.81349131338096,21.03094424327256,0 73.81335574082119,21.03075607731528,0 73.81308541186878,21.03056841155504,0 73.81281508279267,21.03038074480139,0 73.81267923779625,21.03012968711487,0 73.81254339434173,21.02987862784823,0 73.8123404435359,21.02969070829834,0 73.8122051419482,21.02956542908121,0 73.81193481339213,21.0293777582715,0 73.8115294544223,21.0291276953547,0 73.81119201583377,21.02900316300912,0 73.81119092973732,21.02875160015638,0 73.81105508623757,21.02850053559454,0 73.81085213480901,21.0283126113723,0 73.81071628967615,21.02806154526434,0 73.81071493174558,21.0277470899643,0 73.81084860372216,21.02749502646926,0 73.81098254531791,21.0273058540229,0 73.81111621460094,21.02705379060407,0 73.81118250595719,21.02680197493594,0 73.81118114619848,21.0264875169085,0 73.81124743686703,21.02623570016698,0 73.81131372564138,21.02598388294158,0 73.81151477247946,21.02573156798278,0 73.81164843863455,21.02547950065193,0 73.81191713280714,21.02528982768182,0 73.81211844802843,21.02510040249445,0 73.81231976256382,21.02491097682044,0 73.81252134903634,21.02478444327334,0 73.8127900397976,21.02459476706622,0 73.81299135150385,21.02440534165087,0 73.81332768975805,21.02427830705061,0 73.81359637773048,21.02408862871491,0 73.81373031185241,21.02389944985959,0 73.81393134848832,21.02364712737424,0 73.8140650077634,21.02339505433233,0 73.81419866732027,21.02314298238755,0 73.81446789826583,21.02307908769779,0 73.81473712787016,21.02301519239396,0 73.81493843470952,21.02282576023482,0 73.81520711697186,21.02263607671362,0 73.8154086961366,21.02250953694009,0 73.81561000125369,21.02232010298079,0 73.81581130583319,21.02213066840287,0 73.81607998539832,21.02194098198397,0 73.81628128882724,21.0217515478112,0 73.81648286562123,21.02162500540184,0 73.81675126931974,21.02137242242002,0 73.81708814174308,21.02137116398789,0 73.81728999195082,21.02130751414568,0 73.8176268634443,21.02130625407417,0 73.81796373518875,21.02130499295342,0 73.81823323253349,21.02130398330224,0 73.81856982911252,21.02123982609117,0 73.81890642510905,21.02117566784245,0 73.81890724815247,21.02136435037982,0 73.81884069658965,21.02155328542061,0 73.81917619496645,21.02123755009635,0 
					</coordinates>
				</LinearRing>
			</outerBoundaryIs>
		</Polygon>
		<atom:link rel="app" href="https://www.google.com/earth/about/versions/#earth-pro" title="Google Earth Pro 7.3.7.1094"></atom:link>
	</Placemark>
</Document>
</kml>
