<?xml version="1.0" encoding="UTF-8"?>
<kml xmlns="http://www.opengis.net/kml/2.2" xmlns:gx="http://www.google.com/kml/ext/2.2" xmlns:kml="http://www.opengis.net/kml/2.2" xmlns:atom="http://www.w3.org/2005/Atom">
<Document>
	<name>मुगधण_४९_334.kml</name>
	<StyleMap id="m_ylw-pushpin">
		<Pair>
			<key>normal</key>
			<styleUrl>#s_ylw-pushpin</styleUrl>
		</Pair>
		<Pair>
			<key>highlight</key>
			<styleUrl>#s_ylw-pushpin_hl</styleUrl>
		</Pair>
	</StyleMap>
	<Style id="s_ylw-pushpin">
		<IconStyle>
			<scale>1.1</scale>
			<Icon>
				<href>http://maps.google.com/mapfiles/kml/pushpin/ylw-pushpin.png</href>
			</Icon>
			<hotSpot x="20" y="2" xunits="pixels" yunits="pixels"/>
		</IconStyle>
		<LineStyle>
			<color>d600ffff</color>
			<width>2.8</width>
		</LineStyle>
		<PolyStyle>
			<color>8affffaa</color>
		</PolyStyle>
	</Style>
	<Style id="s_ylw-pushpin_hl">
		<IconStyle>
			<scale>1.3</scale>
			<Icon>
				<href>http://maps.google.com/mapfiles/kml/pushpin/ylw-pushpin.png</href>
			</Icon>
			<hotSpot x="20" y="2" xunits="pixels" yunits="pixels"/>
		</IconStyle>
		<LineStyle>
			<color>d600ffff</color>
			<width>2.8</width>
		</LineStyle>
		<PolyStyle>
			<color>8affffaa</color>
		</PolyStyle>
	</Style>
	<Placemark>
		<name>मुगधण_४९_334</name>
		<styleUrl>#m_ylw-pushpin</styleUrl>
		<Polygon>
			<tessellate>1</tessellate>
			<outerBoundaryIs>
				<LinearRing>
					<coordinates>
						73.72935102515517,21.09869049265336,0 73.72942905915309,21.09898630718179,0 73.72966676549466,21.09928167715102,0 73.72998436829623,21.09957686192941,0 73.73014235594651,21.09987263679071,0 73.73029996658002,21.10024258672204,0 73.7304584513698,21.10046440476246,0 73.73077671128797,21.10068574454991,0 73.73093487372758,21.10098179214479,0 73.73117335757163,21.10120348659656,0 73.73141188603527,21.10142522171157,0 73.73165008483176,21.10172119137405,0 73.7318883431971,21.10201723500138,0 73.73204709396903,21.10223937981171,0 73.73228545601398,21.10253555122251,0 73.73252422297774,21.10275753165326,0 73.73284332139204,21.10290501697625,0 73.7330821778834,21.10312706502395,0 73.73332140297482,21.10327485769386,0 73.73356097041994,21.10334836741828,0 73.7339601809725,21.1034956616548,0 73.73419920180052,21.10371781641187,0 73.73435828414244,21.10394027604502,0 73.73451711398711,21.10423712854483,0 73.73467570254097,21.10460842851386,0 73.73475460095644,21.10490571058488,0 73.73483351912144,21.10520306580005,0 73.73491245521603,21.10550049630119,0 73.73499168264799,21.10572355196136,0 73.73523050197836,21.10609505107944,0 73.73555022221353,21.10624294365683,0 73.73562953487426,21.1064661374786,0 73.73594884930122,21.10676308887038,0 73.73618838874621,21.10698585088945,0 73.73642774891415,21.10728319562895,0 73.73666716942739,21.10758061421059,0 73.73690686155579,21.10780352793587,0 73.73706647529384,21.10802674810174,0 73.73746650651331,21.10824921248573,0 73.73770634031565,21.10847225007336,0 73.73794657243383,21.10854607227273,0 73.73826662862562,21.10876889827723,0 73.73858690049471,21.10891711573947,0 73.738826908246,21.10914027667378,0 73.73914740491141,21.10921387206812,0 73.7393873652812,21.10951176890431,0 73.73970780841371,21.10966007655164,0 73.73994799811008,21.10988337510797,0 73.74026842525622,21.11010644693432,0 73.74066911158144,21.11032929247285,0 73.74098974657034,21.11047769948255,0 73.74123014234534,21.11070114939726,0 73.74147058289981,21.11092464096144,0 73.74179134957157,21.11107312098761,0 73.7420319280839,21.11122188785509,0 73.74235273529457,21.1114452071088,0 73.74259335876948,21.11166883700485,0 73.74299454762053,21.11181713843919,0 73.74307475652525,21.11204137665879,0 73.74323523755609,21.11234024676932,0 73.7433957594173,21.11263919220412,0 73.74339574689397,21.11293875238942,0 73.7436366274371,21.11323757815684,0 73.74363664548041,21.11353728931376,0 73.74379730019506,21.11383653573048,0 73.74403825475282,21.1138357246856,0 73.74435958206048,21.11398456436169,0 73.74476119802161,21.11398321106786,0 73.7453235765478,21.11413125510585,0 73.74564468238026,21.11390526791389,0 73.74556409705097,21.11360573475161,0 73.74572450265889,21.1133803891219,0 73.74604546694025,21.11315454399826,0 73.74636655265142,21.11307854831614,0 73.74676801112251,21.1130771915494,0 73.74708940806809,21.1132259315325,0 73.74749127584842,21.11344934712618,0 73.74765228427933,21.11367362009175,0 73.74773327461857,21.11404813707198,0 73.74757314721691,21.11434859748503,0 73.7474129781444,21.11464913377766,0 73.74725276829082,21.11494974596043,0 73.74725324953876,21.11524989004611,0 73.74725385115158,21.11562517686427,0 73.74709355323247,21.1159260360975,0 73.74709412914038,21.1163015366941,0 73.74701417747318,21.11660229501774,0 73.74693420469531,21.116903129514,0 73.74685421125272,21.11720404022555,0 73.74669375362627,21.11750529932293,0 73.74653315699223,21.11773142998122,0 73.74645317786619,21.11810777455498,0 73.7462120443693,21.11833429204345,0 73.74605142604142,21.11863583759991,0 73.74589053652586,21.11871164436473,0 73.74548842610871,21.11908938828606,0 73.74516664415536,21.11939166933668,0 73.74484469394024,21.11954338278871,0 73.74452266862764,21.11961978984852,0 73.74412010288006,21.11969647362304,0 73.74379802452577,21.11969756029124,0 73.74339543326998,21.1195482732531,0 73.74299285925979,21.11954963003298,0 73.74275131468855,21.1195504437492,0 73.74226818353392,21.11962739034799,0 73.74186559535811,21.11962874516956,0 73.74154352313188,21.11962982850542,0 73.74122130327039,21.11978156717523,0 73.7408185990693,21.1198582554737,0 73.74049639653545,21.11993467756981,0 73.74017417356498,21.12001110361621,0 73.73993246226618,21.12008726438411,0 73.73952979114524,21.1200886155955,0 73.73920765243707,21.12008969605149,0 73.73880467471798,21.12024176042932,0 73.73840197388994,21.12024310985069,0 73.73816052577226,21.12016855936451,0 73.73775802184174,21.1200945524136,0 73.737275211148,21.11994547351533,0 73.73703403737288,21.11979560420801,0 73.73663163033184,21.11972161828448,0 73.73639120851291,21.11934583958715,0 73.73606964793197,21.11919631368903,0 73.73590961553191,21.1188957062462,0 73.73574912594502,21.11874569939493,0 73.735508943951,21.11837022802867,0 73.73526857319543,21.11807009674598,0 73.73502799074836,21.11784524899704,0 73.73486790454115,21.11762017549972,0 73.73470813357815,21.11731996511536,0 73.73446797135807,21.11702009800856,0 73.7344691330613,21.11671950450281,0 73.73430947168825,21.11641952142539,0 73.73414985265134,21.11611961374185,0 73.7339095752027,21.11589513260155,0 73.73383042373641,21.11559509023942,0 73.73367092105758,21.11529538997891,0 73.73343044980257,21.11514610069992,0 73.73310997902477,21.11492206818043,0 73.73286992182992,21.11469781130447,0 73.73254921354244,21.11454886142302,0 73.73222854717773,21.11439992947859,0 73.73190829058038,21.11417603481292,0 73.73158809439832,21.1139521815468,0 73.73126795859089,21.11372836965229,0 73.73102779692566,21.11357927282763,0 73.73070776413833,21.11335552981465,0 73.73038695383745,21.11328166283227,0 73.7300661611751,21.11320779978895,0 73.72974582826879,21.11305903002863,0 73.72942553521355,21.11291027826166,0 73.72918465481077,21.11291106920404,0 73.72878412864017,21.11276259791862,0 73.72838268261421,21.11276391425671,0 73.72806251470294,21.11261519633819,0 73.72774238469324,21.11246649624137,0 73.72750256956481,21.11231755136693,0 73.72718251410346,21.11216888681007,0 73.72686249829727,21.11202024029751,0 73.72654306610561,21.11179677989757,0 73.72630284315878,21.11172273878074,0 73.72598350122981,21.11149933272334,0 73.72574389261653,21.11135050535786,0 73.72542349762676,21.11127675144302,0 73.72510312180592,21.11120300164185,0 73.72478276514038,21.11112925542432,0 73.72446182118127,21.11113029844977,0 73.72414211102388,21.11098177477037,0 73.72382118306565,21.11098281633583,0 73.72342002255958,21.11098411744715,0 73.72317932484999,21.1109848976666,0 73.72269792706012,21.11098645709639,0 73.72237766763668,21.11091271907295,0 73.72197651200209,21.11091401664136,0 73.72157535226147,21.11091531327976,0 73.721255135663,21.11084157747337,0 73.72085398457365,21.11084287224298,0 73.72045283112334,21.11084416607509,0 73.72013265533542,21.11077043194382,0 73.71981173810856,21.11077146558809,0 73.71957334386768,21.11054796256513,0 73.71949618982546,21.11024924935839,0 73.71933885121982,21.10995086871466,0 73.7192625189203,21.10957761122623,0 73.71910525362043,21.10927939823082,0 73.71902741802073,21.10905565830464,0 73.71903131928488,21.10868242405454,0 73.71903521847877,21.10830930694681,0 73.71887806466135,21.10801141063966,0 73.71872095366442,21.10771358841903,0 73.71856387816145,21.1074158402633,0 73.71840684178028,21.10711816611585,0 73.71816894429853,21.10689534194997,0 73.71793109107543,21.10667255926247,0 73.71793515771313,21.10630007058293,0 73.71793840948416,21.10600216318895,0 73.71794247225836,21.1056298848859,0 73.71802657376577,21.10525746747331,0 73.71803061952612,21.1048854222239,0 73.71803385460882,21.10458786893157,0 73.71803789653394,21.1042160329743,0 73.71836031731243,21.10399197059939,0 73.71852348134566,21.10369413307557,0 73.71884578095921,21.103470169969,0 73.7192472189154,21.10332029081032,0 73.71956863198406,21.1031706841934,0 73.71989000252179,21.10302109601032,0 73.72021281018039,21.10272299409407,0 73.72053480268244,21.10249921133726,0 73.72085529760906,21.10242394743397,0 73.7211757742987,21.10234868771332,0 73.72149622548423,21.1022734321944,0 73.72181665846918,21.10219818084989,0 73.72213706597742,21.102122934743,0 73.72237752539699,21.10204794714513,0 73.72261929065606,21.10182454405597,0 73.72302083347968,21.10160067186271,0 73.72334239136671,21.10137709782924,0 73.72350409722775,21.10115407568486,0 73.72390543391994,21.10093032838689,0 73.72422620399786,21.10078101596537,0 73.7245469319452,21.10063172283202,0 73.72486761598638,21.10048244689486,0 73.72518768126484,21.1004073033615,0 73.72550772493784,21.10033216394265,0 73.72590816451407,21.10018266737904,0 73.72622760657329,21.10018164069382,0 73.72654811795111,21.10003241823303,0 73.72686858737866,21.09988321498883,0 73.72718952780484,21.09965995695732,0 73.72751091203672,21.09936268697274,0 73.72783122513177,21.09921356616533,0 73.72807216170544,21.09899068972141,0 73.72831305166302,21.09876785478015,0 73.72855389503084,21.09854506131817,0 73.72887448705995,21.09832205276902,0 73.7291936654712,21.09832102194598,0 73.72935102515517,21.09869049265336,0 
					</coordinates>
				</LinearRing>
			</outerBoundaryIs>
		</Polygon>
		<atom:link rel="app" href="https://www.google.com/earth/about/versions/#earth-pro" title="Google Earth Pro 7.3.7.1094"></atom:link>
	</Placemark>
</Document>
</kml>
