<?xml version="1.0" encoding="UTF-8"?>
<kml xmlns="http://www.opengis.net/kml/2.2" xmlns:gx="http://www.google.com/kml/ext/2.2" xmlns:kml="http://www.opengis.net/kml/2.2" xmlns:atom="http://www.w3.org/2005/Atom">
<Document>
	<name>मोरकरंजा_१०४_439.kml</name>
	<StyleMap id="m_ylw-pushpin">
		<Pair>
			<key>normal</key>
			<styleUrl>#s_ylw-pushpin</styleUrl>
		</Pair>
		<Pair>
			<key>highlight</key>
			<styleUrl>#s_ylw-pushpin_hl</styleUrl>
		</Pair>
	</StyleMap>
	<Style id="s_ylw-pushpin">
		<IconStyle>
			<scale>1.1</scale>
			<Icon>
				<href>http://maps.google.com/mapfiles/kml/pushpin/ylw-pushpin.png</href>
			</Icon>
			<hotSpot x="20" y="2" xunits="pixels" yunits="pixels"/>
		</IconStyle>
		<LineStyle>
			<color>d600ffff</color>
			<width>2.8</width>
		</LineStyle>
		<PolyStyle>
			<color>8affffaa</color>
		</PolyStyle>
	</Style>
	<Style id="s_ylw-pushpin_hl">
		<IconStyle>
			<scale>1.3</scale>
			<Icon>
				<href>http://maps.google.com/mapfiles/kml/pushpin/ylw-pushpin.png</href>
			</Icon>
			<hotSpot x="20" y="2" xunits="pixels" yunits="pixels"/>
		</IconStyle>
		<LineStyle>
			<color>d600ffff</color>
			<width>2.8</width>
		</LineStyle>
		<PolyStyle>
			<color>8affffaa</color>
		</PolyStyle>
	</Style>
	<Placemark>
		<name>मोरकरंजा_१०४_439</name>
		<styleUrl>#m_ylw-pushpin</styleUrl>
		<Polygon>
			<tessellate>1</tessellate>
			<outerBoundaryIs>
				<LinearRing>
					<coordinates>
						74.07232581241777,21.13272661957511,0 74.07259891755028,21.13253337000418,0 74.07280384076346,21.13240441827964,0 74.07300838215387,21.13221152735507,0 74.07321330277195,21.13208257574491,0 74.07355496248974,21.1318889694446,0 74.07376026107748,21.1318239566456,0 74.07396441489475,21.13156712819617,0 74.07416932982174,21.13143817714741,0 74.07437386194263,21.13124528770455,0 74.07457801075454,21.13098846036284,0 74.07478253973977,21.13079557153516,0 74.07498706725679,21.13060268295537,0 74.07526053204315,21.13047337469088,0 74.07553399816813,21.13034406627869,0 74.075740816706,21.13053480527886,0 74.07594801748404,21.13078948170201,0 74.07608627973329,21.13098057815236,0 74.07622453873535,21.13117167407996,0 74.07649914979947,21.13123417693392,0 74.07677260853492,21.13110486641808,0 74.07711538933759,21.13110307182944,0 74.07745740211972,21.13097340194536,0 74.07766230135496,21.13084444990618,0 74.07779787569753,21.13058798288514,0 74.07786489846607,21.13033187506566,0 74.07793153373669,21.13001183037432,0 74.07799893574864,21.12981966021305,0 74.07820267844619,21.12949889831973,0 74.07826969805835,21.12924279144766,0 74.07840526791466,21.12898632602697,0 74.07860939038774,21.12872950208802,0 74.07881389583008,21.12853661522432,0 74.07894946208665,21.12828015050771,0 74.07908541372014,21.12808762272839,0 74.07922097799224,21.1278311583749,0 74.07942509361484,21.12757433544687,0 74.07962920764486,21.1273175127056,0 74.07983332009599,21.12706069024729,0 74.07996926668875,21.12686816307642,0 74.08017376227097,21.12667527734031,0 74.08030970556382,21.12648275033406,0 74.08044526207873,21.12622628709343,0 74.08064936817787,21.12596946496306,0 74.08085386066821,21.12577657937518,0 74.08105757741292,21.12545582138638,0 74.08133061380153,21.12526257703461,0 74.08153548742305,21.1251336278375,0 74.0817395862681,21.12487680590305,0 74.0820130067313,21.12474749758747,0 74.08235497435489,21.12461782967817,0 74.08262877757251,21.12455245717772,0 74.08297112925011,21.12448672448845,0 74.0832445439104,21.12435741467415,0 74.08344902196241,21.12416452858687,0 74.08344708277662,21.12384484884128,0 74.08358262395257,21.12358838613727,0 74.08358107180867,21.12333264170614,0 74.08357913124088,21.123012961323,0 74.08371428217883,21.12269256259231,0 74.0838498219648,21.12243609906146,0 74.0839164260544,21.12211605879263,0 74.08405196263637,21.12185959544866,0 74.0841874983638,21.12160313196387,0 74.08418555441233,21.12128345020817,0 74.08411545476235,21.12102806361253,0 74.08411389911561,21.12077231715619,0 74.08424943272543,21.12051585341167,0 74.08424787635971,21.12026010644991,0 74.08438301945034,21.11993970545321,0 74.08458709582641,21.11968288119508,0 74.08472301727328,21.11949035254733,0 74.08492748115711,21.11929746564483,0 74.08506300998776,21.11904099965554,0 74.08526708221169,21.11878417432954,0 74.08540261085605,21.11852770865296,0 74.08546959333259,21.11827160086237,0 74.08546764308579,21.11795191531376,0 74.08532899672323,21.11769688345327,0 74.08532704595973,21.11737719654234,0 74.08539402862569,21.11712108705199,0 74.08552955267454,21.11686461934153,0 74.08573440010917,21.11673566726923,0 74.08600778981315,21.11660635596704,0 74.08635011024792,21.11654062288147,0 74.08669243089068,21.11647488896531,0 74.08689688392116,21.11628199759386,0 74.0871702691538,21.11615268509749,0 74.08744365176477,21.1160233711999,0 74.08764810205223,21.1158304786662,0 74.08792148426298,21.1157011638352,0 74.08812632418615,21.11557220931654,0 74.08826184097208,21.11531573760565,0 74.08853521901663,21.11518642152619,0 74.08873927358142,21.11492958979052,0 74.088943720477,21.11473669475907,0 74.08928641979323,21.11473489316949,0 74.08962911814358,21.11473309060605,0 74.08997181711132,21.11473128706042,0 74.09024636737686,21.11479378147724,0 74.09065760291074,21.11479161494168,0 74.09093175974816,21.11479016980356,0 74.09113737662329,21.11478908554335,0 74.09141113936275,21.11472370154944,0 74.09195866359602,21.11459293182679,0 74.0921638862591,21.1145279081383,0 74.09264326176124,21.11446143527816,0 74.09278033741531,21.11446071062585,0 74.09319078030076,21.11433066028867,0 74.09346493120511,21.11432920963845,0 74.09380644071321,21.11413558316263,0 74.09407941184398,21.11394231779165,0 74.09428384431067,21.11374941481675,0 74.09455641974461,21.11349221089676,0 74.09476045744209,21.11323536845956,0 74.0949644944105,21.11297852522853,0 74.09516892498053,21.11278561962005,0 74.0955108204563,21.11265592632698,0 74.09571564344643,21.11252695796588,0 74.09605832493672,21.11252513822453,0 74.09640100667072,21.11252331745723,0 74.09667475809869,21.11245792165744,0 74.09708597462424,21.11245573444411,0 74.09736011911518,21.11245427548032,0 74.0977709403823,21.112388147413,0 74.09804468950432,21.11232274841679,0 74.09845511511178,21.11219267945054,0 74.09886593458863,21.11212654747391,0 74.09927675336597,21.11206041402468,0 74.09961943019792,21.11205858378753,0 74.09989396630294,21.11212105731737,0 74.10009878326778,21.11199208122235,0 74.10023427477485,21.11173559389768,0 74.10023269585407,21.1114798388528,0 74.10050525720941,21.11122261866803,0 74.10071046739363,21.11115757951867,0 74.1009842128604,21.11109217304733,0 74.10139542229255,21.11108997067462,0 74.1016703519752,21.11121637959203,0 74.10194528175622,21.11134278762778,0 74.10215207195291,21.11153349942573,0 74.10229072244215,21.11178851858389,0 74.10249790804072,21.11204316901054,0 74.10263655895062,21.11229818636013,0 74.10284335001934,21.1124888967131,0 74.10284493102841,21.1127446469683,0 74.10298358247249,21.11299966208264,0 74.10332704922654,21.11312569606901,0 74.10353225950387,21.11306065298522,0 74.10394307525644,21.11299450340211,0 74.10414868078688,21.11299339693678,0 74.10442242587384,21.1129279833014,0 74.10469577518724,21.11279863111826,0 74.10496912427192,21.11266927992201,0 74.10524326467339,21.11266780211087,0 74.10551661340224,21.11253844763861,0 74.10579035783904,21.11247303044577,0 74.10613263738144,21.11240724249791,0 74.10640638169215,21.11234182372753,0 74.10667972986063,21.11221246599895,0 74.10709054421154,21.11214630453159,0 74.10722642577748,21.11195374798222,0 74.10749977355356,21.11182438768099,0 74.10784205252494,21.11175859402082,0 74.10825326339054,21.11175636652792,0 74.10859593930277,21.11175450913938,0 74.10893861508042,21.11175265071212,0 74.10934982692825,21.11175041922233,0 74.10976103882271,21.11174818623546,0 74.11003518047703,21.11174669674385,0 74.11030932274367,21.11174520658365,0 74.11065279398881,21.11187122036513,0 74.11099547229252,21.11186935573797,0 74.11133894518308,21.11199536742202,0 74.11154534683881,21.11212212477454,0 74.11181988809268,21.11218456965301,0 74.11202668778721,21.11237526448629,0 74.11236936844662,21.11237339594495,0 74.11271165216986,21.11230758784824,0 74.1130539354846,21.11224177862029,0 74.11332808139788,21.11224028134388,0 74.11367076389976,21.11223840882191,0 74.11394490984686,21.11223691006395,0 74.11421826147138,21.11210753307343,0 74.11449240806998,21.11210603293239,0 74.11476615800342,21.11204059321627,0 74.11504030535812,21.11203909171778,0 74.11531445391797,21.11203758955169,0 74.11565713984118,21.11203571091335,0 74.11599982646655,21.11203383123837,0 74.11634251381575,21.11203195052663,0 74.11675373930851,21.11202969230554,0 74.1171649659122,21.11202743259113,0 74.11750765588455,21.11202554835344,0 74.11778260578133,21.11215191880641,0 74.11819463274927,21.11227753404027,0 74.11853812220552,21.11240352541449,0 74.11874493463181,21.11259421025806,0 74.11888360877298,21.11284920944403,0 74.11888520445429,21.11310496508347,0 74.1189553383488,21.11336034254806,0 74.11916215452719,21.11355102471215,0 74.1193693690778,21.11380564580965,0 74.11950764519933,21.11399670564473,0 74.11971446198389,21.1141873863802,0 74.119784599824,21.1144427616067,0 74.11992327694099,21.11469775845767,0 74.11978779564828,21.11495426527315,0 74.11951403512211,21.11501971390554,0 74.11917133706288,21.11502160141661,0 74.11889717834455,21.11502311072891,0 74.118554081149,21.11496105878514,0 74.11834846346791,21.11496218980616,0 74.11793722904245,21.11496445079451,0 74.11766307291705,21.11496595734253,0 74.11732037967563,21.1149678396433,0 74.1170462247273,21.11496934478686,0 74.11677207106487,21.11497084930204,0 74.11643017645986,21.11510060382415,0 74.11601934577742,21.11516679541934,0 74.11581373148064,21.11516792202979,0 74.11553918049347,21.11510548642766,0 74.11512755507805,21.11504380052833,0 74.11485340378982,21.11504530064795,0 74.1144421784154,21.1150475496555,0 74.11416802814725,21.11504904821841,0 74.11375680425098,21.11505129489122,0 74.11341411805141,21.11505316605009,0 74.11300289566097,21.11505541015536,0 74.11266060838369,21.11512121610085,0 74.11238685881005,21.11518664745602,0 74.11204457211731,21.11525245146884,0 74.11177121968865,21.11538181797821,0 74.11149707316309,21.11538331035771,0 74.11122332351732,21.11544873876132,0 74.11088064080398,21.11545060257057,0 74.11060609746841,21.11538815633321,0 74.11033155452532,21.1153257094838,0 74.11005701157258,21.11526326202176,0 74.10985259380178,21.11545618822415,0 74.1095114999375,21.11571379304838,0 74.10923894220166,21.11597102545193,0 74.10903412692872,21.11610001279975,0 74.10882970835156,21.11629293481353,0 74.10841848996277,21.11629516293086,0 74.10814434469738,21.11629664758559,0 74.10780126669417,21.1162345665247,0 74.10752672555948,21.11617211377725,0 74.10711550857016,21.11617433761072,0 74.1069110889197,21.11636725701799,0 74.10663813288566,21.11656054604669,0 74.106433316687,21.11668952827253,0 74.10616036004019,21.11688281484076,0 74.10581886660101,21.11707647122961,0 74.10554551320594,21.11720582124779,0 74.10527215954373,21.11733517054803,0 74.10486173272858,21.11746525685183,0 74.10438276907792,21.11759571164533,0 74.1041775552747,21.11766075388045,0 74.10397234134345,21.11772579576066,0 74.10369898611114,21.11785514123784,0 74.10349495782857,21.11811198699906,0 74.10329053375813,21.11830489785763,0 74.10308610928415,21.11849780817967,0 74.10281354266948,21.11875502022362,0 74.10260911721767,21.11894792932792,0 74.10240469123372,21.11914083792549,0 74.10213133289487,21.11927017915623,0 74.10185915853076,21.11959132290297,0 74.10165473113999,21.11978422977397,0 74.10151884056356,21.11997676773272,0 74.10131480671498,21.12023360823408,0 74.10111037768831,21.12042651376931,0 74.10090634280589,21.12068335229909,0 74.1006333749701,21.12087662408429,0 74.10036001214335,21.12100596098475,0 74.10015558103549,21.12119886417633,0 74.09981367888751,21.12132856685771,0 74.09960924654816,21.12152146911432,0 74.09947374558726,21.12177793846855,0 74.09926931213492,21.12197084046033,0 74.09920234878678,21.12222694264267,0 74.09906684678691,21.12248341107622,0 74.09893134388564,21.12273987921134,0 74.09879584085695,21.12299634705681,0 74.09879741519966,21.12325208187089,0 74.09866191098682,21.1235085497214,0 74.09852640623598,21.12376501687185,0 74.09839129470114,21.12408541744985,0 74.09818724948882,21.12434225032959,0 74.09805174288302,21.12459871673529,0 74.09784848230431,21.12498341620534,0 74.09778190787324,21.12530344959327,0 74.09764639932619,21.12555991539237,0 74.09757943027081,21.12581601522555,0 74.09737538046127,21.12607284678593,0 74.09717132973897,21.12632967812323,0 74.09696727809246,21.12658650947853,0 74.09683137371916,21.12677904124634,0 74.09662732046414,21.12703587218163,0 74.09649180727493,21.12729233723753,0 74.09635629422571,21.12754880217619,0 74.0961518454944,21.12774169935833,0 74.09594739677115,21.1279345963888,0 74.09567440562711,21.12812785877636,0 74.0955388887775,21.128384323509,0 74.09526667890098,21.12870545252486,0 74.09506183417533,21.12883441555635,0 74.09499485797816,21.12909051495613,0 74.09492788139299,21.12934661436032,0 74.09486129499545,21.1296666474872,0 74.09472538348645,21.12985917877369,0 74.09458986183687,21.13011564378932,0 74.09438579630549,21.13037247414815,0 74.09418172965981,21.13062930443525,0 74.09397687950022,21.13075826733654,0 74.09370387645549,21.1309515290713,0 74.09343087134692,21.13114479066996,0 74.09322601945556,21.1312737532312,0 74.09322797129829,21.13159342276516,0 74.09295535412133,21.13185061828554,0 74.09261340977609,21.13198031081965,0 74.09240816465058,21.13204533909127,0 74.09213476303631,21.13217466612294,0 74.09179242556787,21.13224042345266,0 74.09145047633132,21.13237011465975,0 74.09124483986346,21.13237120791146,0 74.09097143413855,21.13250053372349,0 74.09069841625322,21.13269379435628,0 74.09063142508001,21.13294989645923,0 74.0906329805065,21.13320563450863,0 74.09063492453585,21.13352530745467,0 74.09077357423078,21.13378031708129,0 74.09091261141378,21.1340992614461,0 74.09105087275438,21.13429033620066,0 74.09098426923914,21.134610374671,0 74.09084872854861,21.13486684376462,0 74.09064386343266,21.13499580727262,0 74.09036889735675,21.13486939586902,0 74.09016170116308,21.1346147490494,0 74.0899545052965,21.13436010245365,0 74.08974808460914,21.13423332561594,0 74.08954088924183,21.13397867847842,0 74.08947079016853,21.13372330264741,0 74.08919543542798,21.13353295402402,0 74.08912533517672,21.1332775785751,0 74.08891814078574,21.13302293061951,0 74.08877988251434,21.13283185320008,0 74.08857268853919,21.13257720469481,0 74.08836549478598,21.13232255583619,0 74.08809014118415,21.13213220451701,0 74.08781517529548,21.13200578752337,0 74.08753982157943,21.13181543498228,0 74.08733301598878,21.13162471896447,0 74.08705766382225,21.13143436526255,0 74.08691940498187,21.13124328595594,0 74.08671259954544,21.13105256872302,0 74.08643763314095,21.13092614852856,0 74.08623082766644,21.13073543034827,0 74.08602402220463,21.13054471172918,0 74.08574982953712,21.13054616003454,0 74.08547563766739,21.13054760792208,0 74.08520183028814,21.13061299074004,0 74.08492802185441,21.13067837305265,0 74.08465421235709,21.13074375531238,0 74.08438040334359,21.13080913706413,0 74.08410659168113,21.13087451877685,0 74.08383277891841,21.13093990022029,0 74.08349041608768,21.13100564247643,0 74.08321698661871,21.13113495892799,0 74.08294394130036,21.13132821121124,0 74.08267050876087,21.13145752754475,0 74.08239746155806,21.13165077989263,0 74.08205547382829,21.13178045713747,0 74.08185097361392,21.13197334860964,0 74.0815771500271,21.13203872864339,0 74.08130332678755,21.13210410820973,0 74.08103026960092,21.13229736066596,0 74.08075605777795,21.13229880352816,0 74.08048222911609,21.13236418272681,0 74.08020801677934,21.13236562488693,0 74.07993418573614,21.13243100355668,0 74.07966035340625,21.13249638155924,0 74.07938690330141,21.13262569687064,0 74.0791130697793,21.13269107497868,0 74.07883923337542,21.13275645288687,0 74.07849645683089,21.1327582532725,0 74.07822223471831,21.13275969315319,0 74.0777423453943,21.13276221202276,0 74.07726244961232,21.13276472974903,0 74.07705677984869,21.13276580841495,0 74.07678331791661,21.13289512166435,0 74.0765094722458,21.13296049735926,0 74.07616706535151,21.13302623219193,0 74.07589321648769,21.13309160744448,0 74.07561898153909,21.13309304419286,0 74.07520763003417,21.13309519859791,0 74.07493377641863,21.13316057251663,0 74.07466029917128,21.13328988541671,0 74.07431750275913,21.13329167952303,0 74.07404402178926,21.13342099225476,0 74.07370122157153,21.1334227855601,0 74.0734277368152,21.13355209769187,0 74.07315425327575,21.13368141033445,0 74.0728118240133,21.1337471420909,0 74.07260689757486,21.13387609589357,0 74.07233302886689,21.13394146901221,0 74.07199135220031,21.13413507945007,0 74.07178680019007,21.13432797407081,0 74.07158262548266,21.13458480872072,0 74.07144701183894,21.13484128563931,0 74.07124283345691,21.13509812161109,0 74.07110721682034,21.13535459978015,0 74.07090265659757,21.13554749697414,0 74.07062915225806,21.13567681195294,0 74.07049050819789,21.1354217663349,0 74.07021549040276,21.13529531840247,0 74.07000828098258,21.1350406295677,0 74.06966355984092,21.13472271541544,0 74.06952642921915,21.13472343095479,0 74.06945634934185,21.13446802546594,0 74.0694544595484,21.13414832163825,0 74.06945256902516,21.13382861816624,0 74.06951962403005,21.13357249846705,0 74.06986169289318,21.13344283132871,0 74.0702730831822,21.1334406870276,0 74.07068409136446,21.13337460172148,0 74.07102653333155,21.13330887357669,0 74.07136897280745,21.13324314513018,0 74.07164246527093,21.13311383490139,0 74.07191595887431,21.13298452429623,0 74.07212050634325,21.13279163257006,0 74.07232581241777,21.13272661957511,0 
					</coordinates>
				</LinearRing>
			</outerBoundaryIs>
		</Polygon>
		<atom:link rel="app" href="https://www.google.com/earth/about/versions/#earth-pro" title="Google Earth Pro 7.3.7.1094"></atom:link>
	</Placemark>
</Document>
</kml>
