<?xml version="1.0" encoding="UTF-8"?>
<kml xmlns="http://www.opengis.net/kml/2.2" xmlns:gx="http://www.google.com/kml/ext/2.2" xmlns:kml="http://www.opengis.net/kml/2.2" xmlns:atom="http://www.w3.org/2005/Atom">
<Document>
	<name>वाघदी_ १०८_455.kml</name>
	<StyleMap id="m_ylw-pushpin">
		<Pair>
			<key>normal</key>
			<styleUrl>#s_ylw-pushpin</styleUrl>
		</Pair>
		<Pair>
			<key>highlight</key>
			<styleUrl>#s_ylw-pushpin_hl</styleUrl>
		</Pair>
	</StyleMap>
	<Style id="s_ylw-pushpin">
		<IconStyle>
			<scale>1.1</scale>
			<Icon>
				<href>http://maps.google.com/mapfiles/kml/pushpin/ylw-pushpin.png</href>
			</Icon>
			<hotSpot x="20" y="2" xunits="pixels" yunits="pixels"/>
		</IconStyle>
		<LineStyle>
			<color>d600ffff</color>
			<width>2.8</width>
		</LineStyle>
		<PolyStyle>
			<color>8affffaa</color>
		</PolyStyle>
	</Style>
	<Style id="s_ylw-pushpin_hl">
		<IconStyle>
			<scale>1.3</scale>
			<Icon>
				<href>http://maps.google.com/mapfiles/kml/pushpin/ylw-pushpin.png</href>
			</Icon>
			<hotSpot x="20" y="2" xunits="pixels" yunits="pixels"/>
		</IconStyle>
		<LineStyle>
			<color>d600ffff</color>
			<width>2.8</width>
		</LineStyle>
		<PolyStyle>
			<color>8affffaa</color>
		</PolyStyle>
	</Style>
	<Placemark>
		<name>वाघदी_ १०८_455</name>
		<styleUrl>#m_ylw-pushpin</styleUrl>
		<Polygon>
			<tessellate>1</tessellate>
			<outerBoundaryIs>
				<LinearRing>
					<coordinates>
						74.06164695383839,21.20303692847018,0 74.06165951303419,21.20222449620943,0 74.06167207106292,21.20141213141336,0 74.06168776691632,21.2003967729753,0 74.06170032232579,21.19958455956283,0 74.06171601491071,21.1985693899977,0 74.06085605309445,21.19774558834002,0 74.06064737715377,21.19713365295253,0 74.06088123800822,21.19612166752956,0 74.06111192631828,21.19531274059521,0 74.06134259270374,21.19450388237835,0 74.06157323732646,21.19369508705169,0 74.06114966018173,21.19287755896544,0 74.0600530130861,21.19326870256409,0 74.05962951766706,21.19245120330018,0 74.05986021608655,21.19164257722855,0 74.06074186669167,21.19104569351435,0 74.06140227863088,21.19064876375908,0 74.06185089694972,21.18984321446841,0 74.06229947308272,21.18903773166618,0 74.06252999961657,21.18822937852006,0 74.06276050450006,21.18742109021552,0 74.06299410903105,21.18641009118899,0 74.06322144956498,21.18580471051481,0 74.06345500575947,21.18479387024972,0 74.06347058301868,21.18378020798608,0 74.0637009850972,21.18297227505732,0 74.06371343456392,21.18216147837385,0 74.06437654193918,21.1815622052563,0 74.06503960332954,21.18096296405971,0 74.06505508558675,21.17994968465975,0 74.06463478478867,21.17893064949863,0 74.0646440877322,21.17832278725358,0 74.06465649078906,21.17751236039727,0 74.06532248193024,21.17671077158527,0 74.06598841180677,21.1759092475888,0 74.06643335780275,21.17530740862538,0 74.06688134782232,21.1745030620011,0 74.06732929720684,21.17369877656687,0 74.06755938934838,21.17289163349613,0 74.06865457696084,21.17250121468437,0 74.06974363257025,21.17251579242805,0 74.07039099957207,21.17292954261258,0 74.07016407319612,21.17353417177909,0 74.06971625845762,21.17433845520321,0 74.06970409097029,21.17514863084598,0 74.06969192273294,21.17595887021402,0 74.0701154824303,21.17677499804588,0 74.07032120771711,21.17758828038199,0 74.0707478671023,21.17820192683855,0 74.07117153164174,21.17901823461422,0 74.07202802711068,21.1800430769605,0 74.0728906349924,21.18066268011495,0 74.07331446222807,21.18147917652129,0 74.07395925614695,21.18209595446475,0 74.07481905397849,21.1829183777591,0 74.07524302779997,21.1837350484501,0 74.07589094775126,21.18414922042844,0 74.07675390228916,21.18476904573103,0 74.07783784106697,21.18518905790314,0 74.07936072232117,21.18541212039956,0 74.07978497585479,21.18622897713104,0 74.08020927181823,21.18704589879108,0 74.08063652227717,21.18766007908868,0 74.08128181849881,21.1882771961114,0 74.08192716094608,21.18889434794154,0 74.08256965949795,21.18971437301423,0 74.08365118653047,21.19033739620664,0 74.08408152180853,21.19074890409961,0 74.08385196949159,21.19155749779812,0 74.08362239914668,21.19236615925171,0 74.08295665500479,21.19316909361201,0 74.08207566133591,21.19376626010463,0 74.08120042289181,21.1939575916565,0 74.07966212955658,21.19474903237171,0 74.07878388257409,21.19514331693686,0 74.07812075689819,21.19574347742088,0 74.07767569831566,21.19634658034341,0 74.07722765629576,21.19715271077255,0 74.07634626971979,21.19775007542617,0 74.0756829612582,21.19835038384731,0 74.07458928595713,21.19853884650379,0 74.07349258927678,21.19893033237916,0 74.07326244015884,21.19973957167828,0 74.07325043550709,21.20055179567965,0 74.07323542887005,21.20156716736522,0 74.07300823904212,21.20217352648809,0 74.0721294644363,21.20256806237144,0 74.07124762619851,21.20316572500159,0 74.07080213795255,21.2037692570486,0 74.06949594876944,21.20354860013254,0 74.0686261937343,21.20333378359364,0 74.06797772186627,21.20291877816129,0 74.06710494339453,21.2029070766509,0 74.06579577734071,21.20288951378548,0 74.06448661293464,21.20287193819581,0 74.06317744979742,21.20285434987681,0 74.06207707680527,21.20344903643704,0 74.06164695383839,21.20303692847018,0 
					</coordinates>
				</LinearRing>
			</outerBoundaryIs>
		</Polygon>
		<atom:link rel="app" href="https://www.google.com/earth/about/versions/#earth-pro" title="Google Earth Pro 7.3.7.1094"></atom:link>
	</Placemark>
</Document>
</kml>
