<?xml version="1.0" encoding="UTF-8"?>
<kml xmlns="http://www.opengis.net/kml/2.2" xmlns:gx="http://www.google.com/kml/ext/2.2" xmlns:kml="http://www.opengis.net/kml/2.2" xmlns:atom="http://www.w3.org/2005/Atom">
<Document>
	<name>वागदे_८_246.kml</name>
	<StyleMap id="m_ylw-pushpin">
		<Pair>
			<key>normal</key>
			<styleUrl>#s_ylw-pushpin</styleUrl>
		</Pair>
		<Pair>
			<key>highlight</key>
			<styleUrl>#s_ylw-pushpin_hl</styleUrl>
		</Pair>
	</StyleMap>
	<Style id="s_ylw-pushpin">
		<IconStyle>
			<scale>1.1</scale>
			<Icon>
				<href>http://maps.google.com/mapfiles/kml/pushpin/ylw-pushpin.png</href>
			</Icon>
			<hotSpot x="20" y="2" xunits="pixels" yunits="pixels"/>
		</IconStyle>
		<LineStyle>
			<color>d600ffff</color>
			<width>2.8</width>
		</LineStyle>
		<PolyStyle>
			<color>8affffaa</color>
		</PolyStyle>
	</Style>
	<Style id="s_ylw-pushpin_hl">
		<IconStyle>
			<scale>1.3</scale>
			<Icon>
				<href>http://maps.google.com/mapfiles/kml/pushpin/ylw-pushpin.png</href>
			</Icon>
			<hotSpot x="20" y="2" xunits="pixels" yunits="pixels"/>
		</IconStyle>
		<LineStyle>
			<color>d600ffff</color>
			<width>2.8</width>
		</LineStyle>
		<PolyStyle>
			<color>8affffaa</color>
		</PolyStyle>
	</Style>
	<Placemark>
		<name>वागदे_८_246</name>
		<styleUrl>#m_ylw-pushpin</styleUrl>
		<Polygon>
			<tessellate>1</tessellate>
			<outerBoundaryIs>
				<LinearRing>
					<coordinates>
						74.0124549698477,21.33769217998836,0 74.01245668857769,21.33758589981346,0 74.01257786088544,21.33716236626429,0 74.0131544805112,21.33685141296982,0 74.01384534995655,21.33654204784249,0 74.01407732914976,21.33633267435155,0 74.01442527801755,21.33601862997847,0 74.01500176140242,21.33570774117972,0 74.01534796940517,21.3354999703898,0 74.01592270961183,21.33529534071975,0 74.01615628554246,21.33497979047174,0 74.01650411166762,21.33466582647295,0 74.01673932091235,21.33424410615649,0 74.01708876468916,21.33382398546987,0 74.01743651553741,21.33351009323504,0 74.01767165314253,21.33308846710995,0 74.0176782863754,21.33266374572474,0 74.01791339170444,21.33224219160472,0 74.01814847578318,21.33182067089591,0 74.01815673919344,21.33128990954243,0 74.01816334932998,21.33086533930372,0 74.01816995892455,21.33044080461933,0 74.01817656797773,21.33001630545644,0 74.01806897246999,21.3295902805114,0 74.01784718804568,21.32916272369111,0 74.01773961738584,21.32873676671029,0 74.01740367970493,21.32830771590323,0 74.01729613896816,21.32788182969267,0 74.01730444770162,21.32735148058617,0 74.0173110940937,21.3269272386104,0 74.01731773992442,21.32650303188526,0 74.0173243851944,21.32607886037803,0 74.01710271753285,21.32565159805735,0 74.01745016533867,21.32533821212544,0 74.01813177537397,21.32555964607271,0 74.01858839529825,21.32556589928557,0 74.01904009000735,21.32589024091703,0 74.01949508909814,21.32600252622723,0 74.02006263017793,21.32622241386326,0 74.02051765688432,21.32633470206664,0 74.02119940807353,21.32655615911548,0 74.02188441075114,21.32656552066108,0 74.02233787025476,21.32678386032838,0 74.02279455003273,21.32679009741683,0 74.02336380743762,21.3269039452056,0 74.02381890548281,21.32701623459046,0 74.02438977053554,21.3270240234762,0 74.0249574854667,21.3272439293166,0 74.02530001367866,21.32724859973631,0 74.02598506995109,21.32725793747401,0 74.02667012849224,21.3272672711097,0 74.02712683426947,21.32727349123855,0 74.02769462994938,21.32749339397287,0 74.02803408766262,21.32771019550805,0 74.028256300851,21.32813760539442,0 74.02847853458759,21.32856505368481,0 74.02812979899446,21.32898476727392,0 74.0276699182787,21.32919074994459,0 74.02709736670623,21.329289077999,0 74.02675165404695,21.3294966248581,0 74.02628859881628,21.32991485399128,0 74.02605705555607,21.33012397783281,0 74.02570815515968,21.33054381323238,0 74.02547501405553,21.33085910132097,0 74.02524028583748,21.33128055384914,0 74.02500553606664,21.33170203954739,0 74.02477076597749,21.33212356145937,0 74.02476445549084,21.33254823541861,0 74.02452965304556,21.33296982602781,0 74.02429483022445,21.33339145296531,0 74.0239473167903,21.33370535525906,0 74.02371244946238,21.33412704275304,0 74.0234775604099,21.3345487651764,0 74.0231283808684,21.33496896047665,0 74.02289344510562,21.33539075258911,0 74.02288544906115,21.33592194364353,0 74.02287905173455,21.33634693811592,0 74.02287265398691,21.3367719685649,0 74.02321074314779,21.33709544731341,0 74.0236647465787,21.33731423356401,0 74.02423307309975,21.33753458803775,0 74.02468870089763,21.33764710796179,0 74.02468080672267,21.33817853757986,0 74.02444586109202,21.33860060247838,0 74.02398384187677,21.33891327090752,0 74.02363611404402,21.33922752024339,0 74.02328676777418,21.33964811060126,0 74.02327879267871,21.34017975330397,0 74.02327241211981,21.34060510946882,0 74.02337878122276,21.34113841624311,0 74.02360110763105,21.34156697821893,0 74.02382345415755,21.34199557664042,0 74.02393146014259,21.34242264828584,0 74.02369796567596,21.3427386817289,0 74.02334849049018,21.34315956813122,0 74.02288620789729,21.34347252202532,0 74.0226526513617,21.3437886209429,0 74.02230630287501,21.34399675808226,0 74.02207110332353,21.34441931313376,0 74.02195027404655,21.34484346882155,0 74.02194221992626,21.34537566904824,0 74.02216297507678,21.34591105497408,0 74.02250137622484,21.34623512903878,0 74.02283820058682,21.34666569600483,0 74.0228317977941,21.34709160840453,0 74.02282379369596,21.34762405086799,0 74.02247570060887,21.34793885178171,0 74.02201314955808,21.34825210670679,0 74.02155056688491,21.34856538039356,0 74.02108957363919,21.34877215309521,0 74.02062855944131,21.34897893327605,0 74.02005471176385,21.3490776265676,0 74.01925360334373,21.34906665961866,0 74.01891027120689,21.34906195822982,0 74.0183380515703,21.34905412089855,0 74.01776583228126,21.34904628145794,0 74.01707916950826,21.3490368713437,0 74.01639250696317,21.34902745818828,0 74.01593305115469,21.34912770753846,0 74.01535913833013,21.34922638783386,0 74.01490135296042,21.34922010752481,0 74.01444356747966,21.34921382586595,0 74.01398407840195,21.34931407366345,0 74.01341183985578,21.34930621792917,0 74.01283960113841,21.34929836008953,0 74.01238181000073,21.34929207230137,0 74.01239042074678,21.3487594431958,0 74.0123990303821,21.34822687183143,0 74.01229148789979,21.34779928445447,0 74.01218395564051,21.34737173323628,0 74.01207643291917,21.34694421963059,0 74.01185450685226,21.34651517071122,0 74.01174700946186,21.34608773070426,0 74.01175565323894,21.3455554474701,0 74.01176602427878,21.34491678313408,0 74.01200343945104,21.34438776983862,0 74.01212299855791,21.3440700749797,0 74.01235864973761,21.34364756099642,0 74.0127069344682,21.34333305538212,0 74.01282988656249,21.34280264088468,0 74.01294939649112,21.3424850468947,0 74.01307061066136,21.34206109629913,0 74.01330616614938,21.34163875391342,0 74.0134273526198,21.34121487556376,0 74.01343589403761,21.34068311725208,0 74.01321405547047,21.34025460975947,0 74.01322089768628,21.33982927918371,0 74.01299908919393,21.33940084569304,0 74.01277901632896,21.33886613795429,0 74.01255381513842,21.33865038735564,0 74.01221431078217,21.33843307306797,0 74.01245153220825,21.33790475009527,0 74.0124549698477,21.33769217998836,0 
					</coordinates>
				</LinearRing>
			</outerBoundaryIs>
		</Polygon>
		<atom:link rel="app" href="https://www.google.com/earth/about/versions/#earth-pro" title="Google Earth Pro 7.3.7.1094"></atom:link>
	</Placemark>
</Document>
</kml>
