<?xml version="1.0" encoding="UTF-8"?>
<kml xmlns="http://www.opengis.net/kml/2.2" xmlns:gx="http://www.google.com/kml/ext/2.2" xmlns:kml="http://www.opengis.net/kml/2.2" xmlns:atom="http://www.w3.org/2005/Atom">
<Document>
	<name>शेही_१६_२४२_१.kml</name>
	<StyleMap id="msn_ylw-pushpin">
		<Pair>
			<key>normal</key>
			<styleUrl>#sn_ylw-pushpin</styleUrl>
		</Pair>
		<Pair>
			<key>highlight</key>
			<styleUrl>#sh_ylw-pushpin</styleUrl>
		</Pair>
	</StyleMap>
	<Style id="sh_ylw-pushpin">
		<IconStyle>
			<scale>1.3</scale>
			<Icon>
				<href>http://maps.google.com/mapfiles/kml/pushpin/ylw-pushpin.png</href>
			</Icon>
			<hotSpot x="20" y="2" xunits="pixels" yunits="pixels"/>
		</IconStyle>
		<LineStyle>
			<color>ff00ff00</color>
			<width>3.5</width>
		</LineStyle>
		<PolyStyle>
			<color>c4ffffaa</color>
		</PolyStyle>
	</Style>
	<Style id="sn_ylw-pushpin">
		<IconStyle>
			<scale>1.1</scale>
			<Icon>
				<href>http://maps.google.com/mapfiles/kml/pushpin/ylw-pushpin.png</href>
			</Icon>
			<hotSpot x="20" y="2" xunits="pixels" yunits="pixels"/>
		</IconStyle>
		<LineStyle>
			<color>ff00ff00</color>
			<width>3.5</width>
		</LineStyle>
		<PolyStyle>
			<color>c4ffffaa</color>
		</PolyStyle>
	</Style>
	<Placemark>
		<name>मोगरणी_११९_२६०</name>
		<visibility>0</visibility>
		<styleUrl>#msn_ylw-pushpin</styleUrl>
		<Polygon>
			<tessellate>1</tessellate>
			<outerBoundaryIs>
				<LinearRing>
					<coordinates>
						74.11191139049254,21.25360521288915,0 74.11156887624836,21.25358939644533,0 74.11071259391807,21.25354985270426,0 74.11003605305883,21.25335861443963,0 74.10973595425168,21.25254479269647,0 74.10993265446828,21.25207390167412,0 74.11047186020481,21.25161882820248,0 74.11135357127496,21.2511795683838,0 74.11189277395941,21.25072448897221,0 74.11226072172123,21.25026150077565,0 74.11280840131522,21.24964681677583,0 74.11351037381017,21.24935923720819,0 74.11422930547421,21.24875245181005,0 74.1147600233553,21.24845696122813,0 74.11531617373011,21.24768266401986,0 74.11534160681953,21.24720385987567,0 74.115392474234,21.24624625161115,0 74.11576888974244,21.24562364956165,0 74.11599100849777,21.24467394149073,0 74.11618769301917,21.24420303744013,0 74.1164013330297,21.24341292885682,0 74.11677774416523,21.24279032051441,0 74.1178391553573,21.24219930414224,0 74.11872083801859,21.24175998371227,0 74.11976529794336,21.2414881561693,0 74.1199365519978,21.24149605206352,0 74.12077586500232,21.24185473616646,0 74.12161519175091,21.24221341785573,0 74.12298524163788,21.24227656675372,0 74.1240127897411,21.24232392123583,0 74.12504034725485,21.24237126956519,0 74.12572539093628,21.24240283170492,0 74.12658170369653,21.24244228063881,0 74.12742955595157,21.24264133238146,0 74.12828587947573,21.24268077307656,0 74.12929654875131,21.24304731278017,0 74.12980189103679,21.2432305811188,0 74.13031569724757,21.24325423975205,0 74.13097539282636,21.24376460931154,0 74.13128408527159,21.2444188166841,0 74.13177251718334,21.24492130101783,0 74.13208122086394,21.24557550961379,0 74.13239839050051,21.24607010941304,0 74.13252736816156,21.24687604375833,0 74.13284454607424,21.24737064506607,0 74.13297352797554,21.24817658126127,0 74.13310251812145,21.24898251862646,0 74.13323996612202,21.24962884660831,0 74.13337742128965,21.25027517586784,0 74.13334359286311,21.25091361868652,0 74.13313002182818,21.25170378460869,0 74.13308773920463,21.25250183891519,0 74.13323365947043,21.252988560702,0 74.13477525747545,21.25305955382773,0 74.13580300287867,21.25310687589056,0 74.13683076034957,21.25315419266512,0 74.13751593881204,21.25318573424856,0 74.13820112280442,21.25321727348916,0 74.13904916340218,21.25341630914901,0 74.13989721081775,21.25361534215676,0 74.14003472236998,21.25426168802256,0 74.1398380756612,21.25473265183533,0 74.13929038157248,21.25534746101349,0 74.13842542681553,21.25546764929458,0 74.13756892856395,21.25542821840396,0 74.13654114452555,21.25538089676555,0 74.13517078481932,21.25531779328563,0 74.1338004463524,21.25525468068419,0 74.13311528491722,21.25522312095537,0 74.13225883826603,21.25518366798076,0 74.13141086031433,21.25498460090881,0 74.13040006370971,21.25461802894027,0 74.12955210385586,21.25441895645931,0 74.1287126137665,21.25406027245042,0 74.12802749375659,21.25402869773122,0 74.12665726750778,21.25396554126102,0 74.1261434352771,21.25394185506979,0 74.12511578233332,21.25389447890603,0 74.12374559352351,21.25383130244081,0 74.12271796296156,21.25378391389353,0 74.12237542150045,21.25376811652846,0 74.12119347033652,21.25339361046926,0 74.12000307049584,21.25317870459169,0 74.1193264779575,21.25298749668413,0 74.11915521075056,21.25297959532017,0 74.11847015239644,21.25294798873763,0 74.11692878242627,21.25287686503208,0 74.11555869263233,21.25281363379129,0 74.11470239345039,21.25277410935436,0 74.1138206668853,21.25321338698853,0 74.11277615798997,21.25348514981699,0 74.11241668439935,21.25378853789964,0 74.11191139049254,21.25360521288915,0 
					</coordinates>
				</LinearRing>
			</outerBoundaryIs>
		</Polygon>
		<atom:link rel="app" href="https://www.google.com/earth/about/versions/#earth-pro" title="Google Earth Pro 7.3.6.10201"></atom:link>
	</Placemark>
</Document>
</kml>
