<?xml version="1.0" encoding="UTF-8"?>
<kml xmlns="http://www.opengis.net/kml/2.2" xmlns:gx="http://www.google.com/kml/ext/2.2" xmlns:kml="http://www.opengis.net/kml/2.2" xmlns:atom="http://www.w3.org/2005/Atom">
<Document>
	<name>सागीपाड_४७_293.kml</name>
	<StyleMap id="m_ylw-pushpin">
		<Pair>
			<key>normal</key>
			<styleUrl>#s_ylw-pushpin</styleUrl>
		</Pair>
		<Pair>
			<key>highlight</key>
			<styleUrl>#s_ylw-pushpin_hl</styleUrl>
		</Pair>
	</StyleMap>
	<Style id="s_ylw-pushpin">
		<IconStyle>
			<scale>1.1</scale>
			<Icon>
				<href>http://maps.google.com/mapfiles/kml/pushpin/ylw-pushpin.png</href>
			</Icon>
			<hotSpot x="20" y="2" xunits="pixels" yunits="pixels"/>
		</IconStyle>
		<LineStyle>
			<color>d600ffff</color>
			<width>2.8</width>
		</LineStyle>
		<PolyStyle>
			<color>8affffaa</color>
		</PolyStyle>
	</Style>
	<Style id="s_ylw-pushpin_hl">
		<IconStyle>
			<scale>1.3</scale>
			<Icon>
				<href>http://maps.google.com/mapfiles/kml/pushpin/ylw-pushpin.png</href>
			</Icon>
			<hotSpot x="20" y="2" xunits="pixels" yunits="pixels"/>
		</IconStyle>
		<LineStyle>
			<color>d600ffff</color>
			<width>2.8</width>
		</LineStyle>
		<PolyStyle>
			<color>8affffaa</color>
		</PolyStyle>
	</Style>
	<Placemark>
		<name>सागीपाड_४७_293</name>
		<styleUrl>#m_ylw-pushpin</styleUrl>
		<Polygon>
			<tessellate>1</tessellate>
			<outerBoundaryIs>
				<LinearRing>
					<coordinates>
						73.69819828841199,21.11145108775518,0 73.6985822192006,21.11167177679156,0 73.69889024290319,21.11181975034829,0 73.69896229436594,21.11203567632037,0 73.69911042114691,21.11232449002352,0 73.69925860760553,21.11261341681935,0 73.69932878609875,21.11290124281997,0 73.69939899278793,21.11318918385997,0 73.69946922858301,21.11347724003566,0 73.69961760665153,21.11376662984516,0 73.69968986591944,21.11398313674071,0 73.69991454145236,21.11434575410278,0 73.7000650329868,21.11456365506923,0 73.70029181663179,21.1148546973092,0 73.70051869182052,21.11514585554318,0 73.70074565867763,21.11543712783738,0 73.70097649567214,21.1155846367031,0 73.70128560040416,21.11573339323581,0 73.701514676171,21.11595292652864,0 73.70182391304344,21.11610175557251,0 73.70220963167881,21.11632383493142,0 73.70251901651255,21.11647273637417,0 73.70274839489858,21.11669248808189,0 73.70305612705498,21.11691352168206,0 73.70320558256739,21.11720427690423,0 73.70335509951271,21.11749514870177,0 73.70374142193718,21.11771764383316,0 73.7040495229497,21.11793898626645,0 73.70435943733496,21.11808820885361,0 73.70458764169754,21.11838064824905,0 73.70481593860617,21.11867320678332,0 73.70488753981705,21.11896344544823,0 73.70503757930713,21.11925501962842,0 73.70503082756846,21.11954427323009,0 73.70502238391167,21.11990600213712,0 73.70501393572464,21.12026791538759,0 73.70500717394464,21.12055757735983,0 73.7050004092909,21.12084735619772,0 73.70491512763481,21.12113603181457,0 73.70482811000592,21.12149734332402,0 73.70497840434135,21.12178994349597,0 73.70512876076484,21.12208266160512,0 73.7051203257499,21.12244567167635,0 73.70527246002686,21.12266600874353,0 73.70526741933296,21.12288396986177,0 73.70549490663248,21.12325104884647,0 73.70548989783103,21.12346918685551,0 73.70555854243275,21.12390688244643,0 73.70555187338016,21.12419801307067,0 73.70554520151272,21.12448926059027,0 73.70553685765449,21.12485348722382,0 73.70553017939316,21.1251450003721,0 73.70544474667383,21.12543540963173,0 73.70543804655532,21.1257271600569,0 73.70542966741247,21.12609201352428,0 73.70526535309692,21.1263815825884,0 73.70510097119467,21.1266712681132,0 73.70509419422011,21.12696352128464,0 73.70492970894476,21.12725344265848,0 73.70492289379206,21.12754593292533,0 73.70491607572166,21.12783854209295,0 73.70490754905123,21.12820446985786,0 73.70490243084289,21.12842411644424,0 73.70497453733479,21.12871830768433,0 73.7051239279828,21.12908713586988,0 73.70519611349565,21.12938159763026,0 73.70534731457369,21.12967740462678,0 73.70557925380275,21.12990117929737,0 73.70581126485222,21.13012502191209,0 73.70596432405374,21.13034770488562,0 73.70572392279198,21.1304908827006,0 73.70540443258355,21.13063286234048,0 73.70516392370182,21.13077609723664,0 73.70484430938252,21.13091813400615,0 73.704601967499,21.13113492581941,0 73.70427872742793,21.13142408459617,0 73.70411530622049,21.13164225978983,0 73.70394831518497,21.13200767145323,0 73.70370209976087,21.13237204046173,0 73.70345754249649,21.13266293173284,0 73.70321468416104,21.13288025561545,0 73.70297356229223,21.13302394540605,0 73.70273056572766,21.13324137978364,0 73.70256485868131,21.13353385728878,0 73.70239908289358,21.13382645497241,0 73.70215400266125,21.13411794065444,0 73.70198620885722,21.13448462092339,0 73.70182020112863,21.13477760746461,0 73.70181082862993,21.13514709009873,0 73.70188263650954,21.13544404475006,0 73.70187327532255,21.13581386854597,0 73.70186390902677,21.13618388196775,0 73.7020151471952,21.13648249563727,0 73.70208706347721,21.13677999813661,0 73.70223841004817,21.13707885620802,0 73.7025486522535,21.13738030373393,0 73.70286266987267,21.13753354049255,0 73.70317675302499,21.13768680809546,0 73.70349089993596,21.13784010666328,0 73.70380511246007,21.13799343598149,0 73.704119388821,21.13814679623596,0 73.70451145629229,21.13837566118974,0 73.70474640934358,21.13852786537914,0 73.7050626081078,21.13860706244876,0 73.70537714427941,21.13876054643375,0 73.70569510305344,21.13876547943024,0 73.70600973730699,21.13891899432869,0 73.70640722589351,21.13892515982084,0 73.70664083006187,21.1391517910909,0 73.70703355088722,21.13938095826147,0 73.70718618780091,21.13968086808686,0 73.70702066599199,21.1399759671283,0 73.70685507569202,21.14027118763846,0 73.70684697219156,21.14064346999132,0 73.70683886433802,21.14101594401467,0 73.70683075212023,21.14138861021199,0 73.70682263553694,21.14176146862856,0 73.70681451458397,21.1421345194409,0 73.70680638925722,21.14250776282574,0 73.70687959879487,21.14280773209039,0 73.70679337962547,21.14310535328671,0 73.7066273781992,21.14340186084248,0 73.70630839364559,21.14339691490709,0 73.70590631590149,21.14354026713199,0 73.7055822252361,21.14375968029231,0 73.70526144900961,21.14382953334944,0 73.70493718960169,21.14404903616144,0 73.70461457032145,21.14419375824626,0 73.70429012475478,21.14441337381064,0 73.70396912859535,21.14448329238425,0 73.70372612378991,21.14462934179757,0 73.70340504814899,21.14469928183112,0 73.70292428516862,21.14476675132092,0 73.70260128523068,21.14491162068014,0 73.70220211173164,21.14490542562005,0 73.70196072605307,21.14497663198006,0 73.70179537727054,21.14519897083621,0 73.70178781372401,21.14549883542314,0 73.70177835459685,21.14587384108032,0 73.7017651030618,21.14639917528266,0 73.7017556314064,21.14677464775392,0 73.70174615452241,21.14715031503658,0 73.70173667240469,21.14752617731066,0 73.70173477535,21.14760137328609,0 73.70171579330916,21.14835376114872,0 73.70162815103492,21.14865369392365,0 73.70154047090446,21.14895375147884,0 73.70153092164648,21.14933055114443,0 73.70168347558317,21.14963461825885,0 73.70191809903589,21.14986461463554,0 73.7021527959262,21.15009468355009,0 73.70238943311766,21.1502493454995,0 73.70254040292191,21.15062930188305,0 73.70261498909638,21.1508571225647,0 73.70260570795941,21.15123490921132,0 73.70260013684064,21.15146167466191,0 73.70235205812673,21.15176040831025,0 73.70218410816676,21.15206051098749,0 73.70193772947607,21.15228380237518,0 73.70177153251599,21.15250840951731,0 73.70152309544312,21.15280757912281,0 73.70111978119813,21.15287709954992,0 73.70071642369888,21.15294662688782,0 73.70031500272283,21.1529404001321,0 73.69999386494574,21.1529354183989,0 73.699678766928,21.15270320318528,0 73.69936579561882,21.1523953540407,0 73.69921343301387,21.15209012290905,0 73.69906113314057,21.15178501993154,0 73.69890889692138,21.15148004289614,0 73.69891915075786,21.15110211230932,0 73.6990075162562,21.15080115299723,0 73.69917395907157,21.15057707091611,0 73.69938084160331,21.14884486840536,0 73.69935137795623,21.14696279209146,0 73.69936147977364,21.14658721085032,0 73.69952938682154,21.14628936755125,0 73.6994575291418,21.14598792627339,0 73.69946759550459,21.14561285070793,0 73.69931592246981,21.1453104496567,0 73.69916025676139,21.14515805601773,0 73.69900869570024,21.14485584205115,0 73.69885719661536,21.14455375343617,0 73.69878760993615,21.14417817755139,0 73.69871600917297,21.14387760877997,0 73.69864443892034,21.14357716421847,0 73.69865674944236,21.14312858835595,0 73.69866700194534,21.14275498763794,0 73.69867724876048,21.14238157983342,0 73.69868339412315,21.14215762762297,0 73.69877329737885,21.14178576619312,0 73.69886111670823,21.14148866291495,0 73.69887130279753,21.14111590917272,0 73.69887944760983,21.14081784449892,0 73.69888962355417,21.1404454364742,0 73.69889979386816,21.14007322033375,0 73.69890995856088,21.13970119577093,0 73.69891808626984,21.13940371399232,0 73.69884669292047,21.13910511846597,0 73.69877532986241,21.13880664569691,0 73.69862246619536,21.13858132672073,0 73.69846964982652,21.13835607694332,0 73.69816002292811,21.13805420394425,0 73.69792996644239,21.13775368978522,0 73.69769791220756,21.13752745802428,0 73.69754744897863,21.13722839436103,0 73.69739704679615,21.13692945329149,0 73.69724459366689,21.13670471007128,0 73.69717367721205,21.13640721827597,0 73.69718425955544,21.13603706842431,0 73.69719483604449,21.13566710833071,0 73.69720540668477,21.13529733782221,0 73.69721597148191,21.1349277567261,0 73.69730369073167,21.13463346182565,0 73.69739137161724,21.13433928774563,0 73.69739977902738,21.13404400079508,0 73.69748950136999,21.13367629505855,0 73.69757708506108,21.1333825125904,0 73.69758544772814,21.13308761715837,0 73.69759798478842,21.13264550107731,0 73.69744804970824,21.13234844297232,0 73.6974564321357,21.13205396953312,0 73.69730869061024,21.13168358368139,0 73.6972422156142,21.13124109426342,0 73.69709249998688,21.13094460903477,0 73.69686167083702,21.13072047759979,0 73.69662664185249,21.130643319068,0 73.69623354146067,21.1305637046718,0 73.69616744970786,21.13012189365814,0 73.69602889133608,21.12945906770089,0 73.69571294563872,21.12945414310662,0 73.6953970009706,21.12944921789666,0 73.69492308069228,21.12944182884611,0 73.69460489468169,21.12951024502223,0 73.69428442078572,21.12965202542073,0 73.69404515540091,21.12972169406782,0 73.69364784955957,21.12978890462042,0 73.69333412002644,21.1297106021006,0 73.69325972977067,21.12956264764235,0 73.69303433402233,21.12919227768291,0 73.69304360366027,21.12889907356553,0 73.69305286918539,21.12860598879153,0 73.69306444528041,21.1282398015491,0 73.6932315147922,21.12794944823717,0 73.69324534286777,21.12751044707766,0 73.6932568592744,21.12714481635074,0 73.69334721191244,21.12678060315782,0 73.69343522557926,21.12648961110347,0 73.693678541897,21.12627421398046,0 73.69384298091046,21.12605765122664,0 73.69416269435303,21.12591659237084,0 73.69448457842999,21.12570259797719,0 73.69488956123998,21.12534403721432,0 73.69513245090087,21.12512898721141,0 73.69530091817168,21.12476703142619,0 73.69546492794377,21.12455092796248,0 73.69570976262457,21.12426330144454,0 73.69579713090955,21.12397333716995,0 73.69580579562471,21.12368226188842,0 73.69589526677551,21.1233198116367,0 73.69606116939593,21.123031454985,0 73.69614838863339,21.12274198938207,0 73.69615911843515,21.12237878777887,0 73.69624841546506,21.12201699679336,0 73.69641409193861,21.12172916585865,0 73.69657969853192,21.12144145116721,0 73.69682587277555,21.12108258377077,0 73.69707192059944,21.12072389940545,0 73.69715669763096,21.12050779473709,0 73.69716715102537,21.12014572512238,0 73.69701860111492,21.11985375243745,0 73.69687011308083,21.11956189909305,0 73.69664326267394,21.11926893683682,0 73.69641863033704,21.1189038168856,0 73.69627462733152,21.1184678725187,0 73.69651612328794,21.11825489324721,0 73.69675754491148,21.11804198006512,0 73.69692054976844,21.11782790592585,0 73.69715974886283,21.117687263611,0 73.69755555160609,21.11754909410926,0 73.69779668982189,21.11733639123656,0 73.69796149642309,21.11705044334832,0 73.69812623647174,21.11676461238687,0 73.69836715159694,21.11655214477396,0 73.69853174992329,21.1162665121756,0 73.69869628012292,21.11598099421328,0 73.69870430027386,21.11569315023269,0 73.6987103131146,21.11547734304223,0 73.69848575990572,21.11511415059585,0 73.69817706018881,21.11496550714968,0 73.69818517925485,21.1146780684148,0 73.69803699313621,21.1143883051188,0 73.69796496181486,21.11417166849643,0 73.69797515739251,21.11381278656638,0 73.69798330993852,21.11352580874043,0 73.69791337269471,21.1132377265812,0 73.69792153402054,21.11295097862024,0 73.69769552407382,21.11266068853891,0 73.6976236308702,21.11244457237157,0 73.6975538167071,21.11215692167738,0 73.69764210924754,21.11180026154758,0 73.69787409456005,21.11187547840948,0 73.69819828841199,21.11145108775518,0 
					</coordinates>
				</LinearRing>
			</outerBoundaryIs>
		</Polygon>
		<atom:link rel="app" href="https://www.google.com/earth/about/versions/#earth-pro" title="Google Earth Pro 7.3.7.1094"></atom:link>
	</Placemark>
</Document>
</kml>
