<?xml version="1.0" encoding="UTF-8"?>
<kml xmlns="http://www.opengis.net/kml/2.2" xmlns:gx="http://www.google.com/kml/ext/2.2" xmlns:kml="http://www.opengis.net/kml/2.2" xmlns:atom="http://www.w3.org/2005/Atom">
<Document>
	<name>सोनपाडा_१५_274.kml</name>
	<StyleMap id="m_ylw-pushpin">
		<Pair>
			<key>normal</key>
			<styleUrl>#s_ylw-pushpin</styleUrl>
		</Pair>
		<Pair>
			<key>highlight</key>
			<styleUrl>#s_ylw-pushpin_hl</styleUrl>
		</Pair>
	</StyleMap>
	<Style id="s_ylw-pushpin">
		<IconStyle>
			<scale>1.1</scale>
			<Icon>
				<href>http://maps.google.com/mapfiles/kml/pushpin/ylw-pushpin.png</href>
			</Icon>
			<hotSpot x="20" y="2" xunits="pixels" yunits="pixels"/>
		</IconStyle>
		<LineStyle>
			<color>d600ffff</color>
			<width>2.8</width>
		</LineStyle>
		<PolyStyle>
			<color>8affffaa</color>
		</PolyStyle>
	</Style>
	<Style id="s_ylw-pushpin_hl">
		<IconStyle>
			<scale>1.3</scale>
			<Icon>
				<href>http://maps.google.com/mapfiles/kml/pushpin/ylw-pushpin.png</href>
			</Icon>
			<hotSpot x="20" y="2" xunits="pixels" yunits="pixels"/>
		</IconStyle>
		<LineStyle>
			<color>d600ffff</color>
			<width>2.8</width>
		</LineStyle>
		<PolyStyle>
			<color>8affffaa</color>
		</PolyStyle>
	</Style>
	<Placemark>
		<name>सोनपाडा_१५_274</name>
		<styleUrl>#m_ylw-pushpin</styleUrl>
		<Polygon>
			<tessellate>1</tessellate>
			<outerBoundaryIs>
				<LinearRing>
					<coordinates>
						73.95693533577993,21.33786592253588,0 73.95694192183427,21.33765461533473,0 73.95700293332402,21.33749705817408,0 73.95717924249878,21.33723576822008,0 73.95735374525653,21.33702743590158,0 73.95747209191242,21.33681851599339,0 73.95759032425454,21.33660979727172,0 73.95776437587747,21.33640206656927,0 73.95793825955404,21.33619453575313,0 73.95799870402537,21.33603803503688,0 73.95811796585127,21.33577771320993,0 73.95829290300657,21.33551848949039,0 73.95846762966593,21.33525957676527,0 73.95864214654942,21.33500097409436,0 73.95881504393152,21.3347947852458,0 73.95910054692324,21.33453830689305,0 73.9592716840536,21.33438456721898,0 73.95949834967321,21.33423172095993,0 73.95966791544409,21.33413014501481,0 73.959894302547,21.33397748102761,0 73.960063672008,21.33387602630003,0 73.96034658840473,21.33367248034892,0 73.96057248752513,21.33352014377221,0 73.96068596697182,21.33341812538421,0 73.96085840406161,21.33316173075921,0 73.96097286587883,21.33300819695087,0 73.96097859077946,21.3327499505014,0 73.96109403004603,21.33254513400645,0 73.96115395327955,21.33233973353422,0 73.96116068194753,21.33203083129158,0 73.96116628178596,21.33177374875753,0 73.96117187489639,21.33151697235485,0 73.96117634457282,21.33131177017497,0 73.96129130479471,21.331108317824,0 73.96140615560233,21.33090505776652,0 73.96157609207687,21.33070276676866,0 73.96169175174339,21.33044881552062,0 73.96180623490888,21.33024618061229,0 73.9618124660269,21.32994026395024,0 73.96181557825084,21.32978746809535,0 73.9617646734534,21.32958313534535,0 73.96165984669369,21.32932740970361,0 73.96166511540028,21.32907353346655,0 73.96172533109267,21.32882072902852,0 73.96183833336795,21.3286702711769,0 73.96195227320921,21.32846931207382,0 73.96206610531652,21.32826854164321,0 73.96217982981874,21.32806796103251,0 73.96234924609799,21.32781788536018,0 73.96246271615571,21.32761772904064,0 73.96246653583252,21.32741621993616,0 73.96258078412062,21.32716613934369,0 73.9626958241363,21.32686612323699,0 73.96275420221478,21.32666609049231,0 73.96281252532353,21.32646624615425,0 73.96287260180239,21.32616644604732,0 73.96298716571576,21.3258678359341,0 73.96304526980308,21.32566873899381,0 73.96310331932929,21.32546982840717,0 73.96316218239079,21.32522126033046,0 73.963219255013,21.3250725652235,0 73.96322355705347,21.324823697627,0 73.96322699507273,21.32462481165213,0 73.96323128806375,21.32437646527543,0 73.96323386144424,21.32422759649902,0 73.96323728980576,21.32402926678947,0 73.96324157072013,21.32378161601759,0 73.96324499186569,21.32358370194047,0 73.96324840981165,21.32338597216056,0 73.96346873742631,21.32319147546506,0 73.9635804535846,21.32299563714819,0 73.96374544826179,21.32285001909437,0 73.96391110299179,21.32265525822455,0 73.96412998732413,21.3225106375047,0 73.96424121341919,21.32231543169764,0 73.96424415718963,21.32211888707149,0 73.96413896978163,21.32192100687986,0 73.96414270509638,21.32167581093228,0 73.96414718175581,21.32138195062658,0 73.96415016273593,21.32118627052323,0 73.96388264055219,21.32103584006742,0 73.96377552624251,21.32098546650303,0 73.96356137222935,21.32088475407976,0 73.9632925539472,21.32083214111954,0 73.96302379807499,21.32077953978954,0 73.96292039261292,21.32053413995519,0 73.96297780008064,21.32033999321317,0 73.96319410902095,21.3202943239881,0 73.96340953880531,21.32029735238075,0 73.96378654087408,21.32030265122465,0 73.96394811320172,21.3203049218297,0 73.96427125793268,21.32030946245002,0 73.96443283030324,21.32031173246484,0 73.96480983258355,21.32031702840137,0 73.96507912001273,21.32032081055792,0 73.96529577124275,21.32022646612525,0 73.96556499652439,21.32023024641427,0 73.96594191192196,21.32023553789767,0 73.96621113748874,21.32023931687459,0 73.96648036304306,21.32024309530298,0 73.96685727941771,21.32024838418986,0 73.96707266022077,21.32025140592861,0 73.96734188615949,21.32025518260759,0 73.96766495797416,21.32025971390818,0 73.9679883283513,21.3202155719397,0 73.96814984597424,21.3202178366354,0 73.96836571227013,21.32012354477845,0 73.96868888992687,21.32007943201798,0 73.96895817899048,21.32003457445138,0 73.96917359802958,21.3199889726722,0 73.96938896677301,21.31994338102896,0 73.96965818712439,21.31984996767608,0 73.96992720930587,21.31980516031855,0 73.97019612676829,21.31980892669043,0 73.9704650445623,21.31981269251205,0 73.97094914143049,21.3198680460576,0 73.97127204453662,21.31996975130685,0 73.97148736150768,21.32002137434985,0 73.97164891316123,21.32007225591582,0 73.97181079069179,21.32022045072691,0 73.97197294398805,21.32041744842331,0 73.97208136432909,21.32061387560602,0 73.972189885419,21.32081048444284,0 73.97229850740233,21.32100727519323,0 73.97246140933069,21.32125389595029,0 73.97262426154867,21.32145185240208,0 73.97273299813372,21.32160025120699,0 73.97300389441149,21.32175102030558,0 73.9731668871265,21.32190038216179,0 73.97327655791808,21.32214728048639,0 73.97344046709841,21.32239522076041,0 73.97360385986535,21.32254503229154,0 73.97371321805781,21.32269419095276,0 73.97382303340265,21.32289272592769,0 73.97398714981512,21.32309220342727,0 73.97409719593746,21.32329110696818,0 73.97426159418694,21.32349095560785,0 73.97437187118439,21.32369023154995,0 73.97448179475278,21.32384018994328,0 73.9745922653298,21.32403979128102,0 73.97464849558393,21.32423881767765,0 73.97475914796334,21.3244387913644,0 73.97487040979847,21.32468864086108,0 73.97492736665083,21.32493802121357,0 73.97514778944348,21.32518997603809,0 73.97525782202388,21.32529114561667,0 73.97542354012333,21.32549286485049,0 73.9755882329038,21.3255949383351,0 73.97580876443062,21.32579770376256,0 73.97597493586142,21.32599989643543,0 73.9761406093984,21.326152236109,0 73.97630774995071,21.32640484927888,0 73.97636441645088,21.32655594851119,0 73.97636714834894,21.32675656102458,0 73.97637056701511,21.32700759093085,0 73.97637467501465,21.32730921699064,0 73.97637810300455,21.32756089639426,0 73.9763808484644,21.32776245363551,0 73.9764939380224,21.32801619923384,0 73.97655159307193,21.32821895139893,0 73.97666346164553,21.32837209908144,0 73.97683104169647,21.32857672123756,0 73.97699725790618,21.32868025602402,0 73.97721926528571,21.32883526581103,0 73.97744061529849,21.32893968973067,0 73.97766291253046,21.32909488266597,0 73.97788536823693,21.32925018547343,0 73.97805386721596,21.32945563268864,0 73.97816749062027,21.32966050585099,0 73.97817200232872,21.32991494538291,0 73.97811962531948,21.33006698414601,0 73.97801298707218,21.33026935677546,0 73.97785197504479,21.33052220577591,0 73.97768992458398,21.33072423819326,0 73.97758208428738,21.33087608020651,0 73.97741977121629,21.33107844763298,0 73.97720047834338,21.33117777239464,0 73.97687059355221,21.33127559866238,0 73.97665034156228,21.33132375612295,0 73.97637478130147,21.33137115101928,0 73.97615441884545,21.33141933056738,0 73.9759346445197,21.33151881681489,0 73.97571476594405,21.33161834995756,0 73.97555127608707,21.33182142781752,0 73.97549831609057,21.33202624686555,0 73.9753893589594,21.33217902095997,0 73.97522550001757,21.33238263005093,0 73.97506094721902,21.33253488273114,0 73.9748962768159,21.33268724393267,0 73.97462010821708,21.33278654937564,0 73.9743442595432,21.33293753746676,0 73.9741791757877,21.33309018658187,0 73.9739029727177,21.33324139002956,0 73.973626572036,21.33339270151362,0 73.97346105391621,21.33354567654183,0 73.97324017874557,21.33374981347219,0 73.9730187966716,21.33390226533253,0 73.97285258745448,21.33400370036155,0 73.972630934045,21.33415633372883,0 73.97252063730951,21.33436261394145,0 73.97229867894971,21.3345155029697,0 73.97213205856941,21.334617229874,0 73.97196552769378,21.33477108203942,0 73.97174301440613,21.3348721496218,0 73.9714645593308,21.33492035790423,0 73.97124176431923,21.33496935835278,0 73.97101897120888,21.33507052096459,0 73.97074027479142,21.3350666127804,0 73.97051730824811,21.33516782234494,0 73.97040578489027,21.33521844484785,0 73.97012693686362,21.33526673321711,0 73.96990371700223,21.33536803856457,0 73.96973598574839,21.33557470847948,0 73.9695683304306,21.33567694307758,0 73.96940045513504,21.33583156198035,0 73.96923214117668,21.33609107529025,0 73.96906362463895,21.33635090025843,0 73.96889570457064,21.3364010194769,0 73.96867159704691,21.33650286384446,0 73.96844738164748,21.33660475676575,0 73.96822249614172,21.33681183138184,0 73.96799770212948,21.33696648218641,0 73.96777308106755,21.33706859637476,0 73.96754835169891,21.33717075960772,0 73.96732351393707,21.33727297173957,0 73.96715419877357,21.33742874295298,0 73.96704082928782,21.33758541388853,0 73.96681519997028,21.33774062297632,0 73.96658988630767,21.33784310743312,0 73.96642057981506,21.33794642928744,0 73.96608388387762,21.33794170048619,0 73.96563376663134,21.3380411286021,0 73.96529698986613,21.33803639768372,0 73.96501500286911,21.33813823769261,0 73.96473287927859,21.33824012655957,0 73.96445209639906,21.33823618132063,0 73.96416976841431,21.33833811787039,0 73.96388811074846,21.33838713086123,0 73.96371957993512,21.33838476238234,0 73.96343697200076,21.33848677105139,0 73.96326575269241,21.33864343146871,0 73.96309350477399,21.33885327921309,0 73.96297827379043,21.33901099594417,0 73.9627513469817,21.33911409465631,0 73.96257962870081,21.33927121011664,0 73.96235147197879,21.33942764798471,0 73.9620678454001,21.33953015514882,0 73.9618967623183,21.33963429616442,0 73.96172452383067,21.33979179079011,0 73.96143939585662,21.33994781444384,0 73.96115405990466,21.34010395135661,0 73.96086969310973,21.34020678338163,0 73.96069684873675,21.3403646964568,0 73.96046864798875,21.34046844783367,0 73.96024033600793,21.34057224967591,0 73.96001062922477,21.3407296353964,0 73.95978206635371,21.34083356356726,0 73.95960990458114,21.34093833689894,0 73.95943630418809,21.34109678512623,0 73.95931639054916,21.34136350999394,0 73.95931227829789,21.34152465605509,0 73.95919494483402,21.34168432727915,0 73.95913276081617,21.34189873155925,0 73.95896850806842,21.34168114195681,0 73.9588595705593,21.3415182876783,0 73.95869559110828,21.34130106839704,0 73.95858684623497,21.34113849133851,0 73.95847965215788,21.34092243651951,0 73.95831607683211,21.34070579670412,0 73.95809468690638,21.3405420647291,0 73.95798481743414,21.34043350555806,0 73.95776212652257,21.34032341081578,0 73.95754270933175,21.34010655663179,0 73.95743626957916,21.33989149956983,0 73.9573846888749,21.33973074020828,0 73.95733475042364,21.33951684057422,0 73.957284861031,21.33930314806403,0 73.95723501997988,21.33908966245368,0 73.95718522655673,21.33887638344933,0 73.95713548197227,21.33866331073816,0 73.95702958708399,21.3384496528849,0 73.95703613646941,21.33823778293238,0 73.95681478010691,21.33812876234672,0 73.95693533577993,21.33786592253588,0 
					</coordinates>
				</LinearRing>
			</outerBoundaryIs>
		</Polygon>
		<atom:link rel="app" href="https://www.google.com/earth/about/versions/#earth-pro" title="Google Earth Pro 7.3.7.1094"></atom:link>
	</Placemark>
</Document>
</kml>
